{"type": "FeatureCollection", "features": [{"type": "Feature", "properties": {"name": "Ferry F1: Northshore Hamilton to UQ St Lucia (excl. Milton)", "ref": "F1", "mode": "ferry", "network": "Translink", "from": "Northshore Hamilton", "to": "UQ St Lucia"}, "geometry": {"type": "MultiLineString", "coordinates": [[[153.0837895, -27.4454806], [153.0834532, -27.4456772], [153.0830313, -27.4457719], [153.0826954, -27.4458334], [153.0815327, -27.4458581], [153.0797732, -27.4457343], [153.0778742, -27.445363], [153.0690336, -27.4429255]], [[153.0690336, -27.4429255], [153.0666733, -27.4428017], [153.064008, -27.443055], [153.0639105, -27.4430983], [153.0638073, -27.4431441]], [[153.0638073, -27.4431441], [153.0637298, -27.4430769], [153.0636892, -27.4429817], [153.0639868, -27.4413143], [153.0641099, -27.4402911]], [[153.0641099, -27.4402911], [153.0615638, -27.4404551], [153.0608919, -27.4404852], [153.0599177, -27.4405928], [153.0542584, -27.4403291], [153.0535333, -27.4404085], [153.0526685, -27.4405685], [153.0512188, -27.4410608], [153.0497961, -27.441725], [153.0491868, -27.4422519], [153.0488045, -27.4428594], [153.0486306, -27.4434271], [153.0486645, -27.4449791], [153.0490572, -27.4463452]], [[153.0490572, -27.4463452], [153.0491756, -27.4473705], [153.0491993, -27.4508072], [153.0494784, -27.4518376], [153.0496725, -27.4519991], [153.0497683, -27.4520354], [153.0498564, -27.4520527], [153.0499385, -27.4520515], [153.0500332, -27.4520176], [153.0507632, -27.4511633], [153.0513565, -27.4504701], [153.0514377, -27.4504132], [153.0515431, -27.450374], [153.0516697, -27.4503609], [153.0517874, -27.4503661]], [[153.0517874, -27.4503661], [153.0518907, -27.4504098], [153.0519883, -27.4504829], [153.0521172, -27.4506938], [153.0520826, -27.450899], [153.0519353, -27.4512668], [153.0514847, -27.4524762], [153.0514871, -27.4528231], [153.0517552, -27.4541939], [153.0519443, -27.4559479], [153.0519985, -27.4582335], [153.0520164, -27.460023], [153.0523543, -27.4602653], [153.0527931, -27.4606161], [153.0530886, -27.4611672]], [[153.0530886, -27.4611672], [153.0529664, -27.4617714], [153.0525447, -27.4623551], [153.0527921, -27.4631851], [153.0534471, -27.464369], [153.0540788, -27.4651818], [153.0553118, -27.466806], [153.0558508, -27.4676314], [153.0560838, -27.4684947], [153.056041, -27.4692461], [153.0557561, -27.4700969], [153.055199, -27.4710334]], [[153.055199, -27.4710334], [153.0542812, -27.4713403], [153.0534272, -27.4714736], [153.0525877, -27.4717288], [153.052202, -27.472654], [153.0519005, -27.4733841], [153.0516129, -27.4739272]], [[153.0516129, -27.4739272], [153.0505663, -27.4745452], [153.0490971, -27.475213], [153.0475389, -27.4759698], [153.0463305, -27.4763717], [153.0454138, -27.4766419]], [[153.0454138, -27.4766419], [153.0447031, -27.4769205], [153.0437879, -27.4772158], [153.0432673, -27.4772631]], [[153.0432673, -27.4772631], [153.0428332, -27.476878], [153.0424739, -27.4758082]], [[153.0424739, -27.4758082], [153.0421393, -27.4748117]], [[153.0421393, -27.4748117], [153.0418162, -27.4745272], [153.0409296, -27.4739528]], [[153.0409296, -27.4739528], [153.0400999, -27.4720788], [153.0397707, -27.471042]], [[153.0397707, -27.471042], [153.0394296, -27.4694477], [153.0387478, -27.4671933], [153.038322, -27.4659624], [153.037737, -27.4644994]], [[153.0375422, -27.4632474], [153.037737, -27.4644994]], [[153.0362082, -27.4632685], [153.036625, -27.4632683], [153.0375422, -27.4632474]], [[153.0362082, -27.4632685], [153.0352048, -27.4632833], [153.0342456, -27.4636231], [153.0333207, -27.4643414]], [[153.0333207, -27.4643414], [153.032811, -27.4653283], [153.0323502, -27.4662788]], [[153.0323502, -27.4662788], [153.0316603, -27.4665226], [153.0313428, -27.4668801]], [[153.0313428, -27.4668801], [153.0316078, -27.467511], [153.0319569, -27.4681618], [153.0325876, -27.4690846], [153.032855, -27.4705297], [153.0331062, -27.4723271], [153.0332402, -27.4737345], [153.0333677, -27.4752967], [153.033288, -27.4769227], [153.0329054, -27.4785008], [153.0325228, -27.4794572], [153.0318108, -27.4803357], [153.0311006, -27.4808716], [153.0300643, -27.4811973], [153.0294214, -27.48138], [153.0290368, -27.4813828], [153.0285641, -27.4813254], [153.0279913, -27.481131]], [[153.0279913, -27.481131], [153.027418, -27.4808338], [153.0267898, -27.4804465], [153.0262529, -27.4800055]], [[153.0262529, -27.4800055], [153.0261746, -27.4797306], [153.0262847, -27.4791907], [153.0263809, -27.4788171], [153.026209, -27.478506]], [[153.026209, -27.478506], [153.026089, -27.4783984], [153.0244217, -27.4773002]], [[153.0244217, -27.4773002], [153.0242198, -27.4768929]], [[153.0242198, -27.4768929], [153.0237794, -27.4766033], [153.0230378, -27.4762553], [153.0223302, -27.4758479]], [[153.023101, -27.4747676], [153.0230454, -27.4749498], [153.0228799, -27.4751012], [153.0223774, -27.4753986], [153.0223026, -27.4755064], [153.0222675, -27.4756293], [153.0223302, -27.4758479]], [[153.023101, -27.4747676], [153.0225011, -27.4736429], [153.0224483, -27.4733075], [153.0224627, -27.4728009], [153.022454, -27.472723]], [[153.022454, -27.472723], [153.0222991, -27.4726205], [153.0217821, -27.472604], [153.0213742, -27.4725115], [153.020824, -27.4720758], [153.0198939, -27.4708964], [153.0180449, -27.4692072], [153.0171228, -27.4685282], [153.0167888, -27.4684457], [153.0164393, -27.4683955], [153.0160842, -27.4683855], [153.0147233, -27.4686595], [153.0136103, -27.4689996], [153.012052, -27.4697136], [153.0097365, -27.4711841], [153.0076336, -27.472631], [153.0068397, -27.4732169]], [[153.0050453, -27.4749811], [153.0068397, -27.4732169]], [[153.0050453, -27.4749811], [153.0034709, -27.4766594], [153.0012307, -27.4788677], [152.9993009, -27.4809336], [152.9979514, -27.4825983]], [[152.9979514, -27.4825983], [152.9976048, -27.4829277], [152.9973187, -27.4830866], [152.997039, -27.4831904], [152.9969348, -27.4832774], [152.9969163, -27.4834136], [152.9968803, -27.4837803], [152.9969318, -27.4841458], [152.9968803, -27.4845646]], [[152.9968803, -27.4845646], [152.996046, -27.4861336], [152.9952826, -27.4878527], [152.9952531, -27.488168], [152.9953084, -27.4885227], [152.9954028, -27.4889339], [152.9957032, -27.4895202], [152.9960293, -27.4899313], [152.9968361, -27.4904872], [152.9979929, -27.490881], [152.9996758, -27.4916071], [153.0002785, -27.4917545], [153.0011134, -27.4920791], [153.0017223, -27.4922452], [153.0021812, -27.4923077]], [[153.0021812, -27.4923077], [153.0024535, -27.4922106], [153.00249, -27.4919716], [153.0025657, -27.4917622], [153.0027098, -27.4908463], [153.0027884, -27.4906972], [153.002869, -27.4905895], [153.003007, -27.4905043], [153.0031275, -27.4904412], [153.0032262, -27.4904067]], [[153.0032262, -27.4904067], [153.0033567, -27.4904469], [153.0034317, -27.4904735], [153.0039874, -27.4908614], [153.0049099, -27.4910877], [153.0067369, -27.491045], [153.0090241, -27.4907993], [153.0107236, -27.4908146], [153.0121398, -27.4908602], [153.013144, -27.4910277], [153.014028, -27.4912409], [153.0153697, -27.4919664], [153.0172788, -27.4933618], [153.0189124, -27.4949233]], [[153.0189124, -27.4949233], [153.0206364, -27.4962393], [153.0208558, -27.496618], [153.0208143, -27.4968464], [153.020707, -27.4970415], [153.0205085, -27.497189], [153.0203902, -27.4972487], [153.0201223, -27.4972366], [153.0198947, -27.4970549], [153.0195876, -27.4967418]]]}}, {"type": "Feature", "properties": {"name": "F10 Blackwattle Bay via Pirrama Park", "ref": "F10", "mode": "ferry", "network": "Sydney Ferries", "from": "Barangaroo", "to": "Blackwattle Bay"}, "geometry": {"type": "MultiLineString", "coordinates": [[[151.2004232, -33.8641723], [151.2004684, -33.8641125], [151.2001918, -33.8639488], [151.2000656, -33.8633592]], [[151.1908624, -33.862632], [151.1927692, -33.8619805], [151.1942002, -33.8613969], [151.1945903, -33.8612261], [151.1949468, -33.8610839], [151.1953291, -33.8610048], [151.1957011, -33.8609776], [151.1960851, -33.8610074], [151.1964474, -33.861091], [151.1968439, -33.8612428], [151.1972078, -33.8614276], [151.1984585, -33.8621412], [151.1989221, -33.8624161], [151.1993275, -33.8626818], [151.1996199, -33.8628958], [151.1998209, -33.8630754], [151.1999669, -33.8632254], [151.2000656, -33.8633592]], [[151.1908624, -33.862632], [151.1902021, -33.863078]], [[151.1910041, -33.8646364], [151.1909503, -33.8646286], [151.1908967, -33.8646133], [151.190854, -33.864592], [151.1908072, -33.864564], [151.1907559, -33.8645263], [151.1907083, -33.8644864], [151.1906605, -33.8644326], [151.1901548, -33.8633986], [151.1901331, -33.8633294], [151.190133, -33.8632543], [151.1901494, -33.8631945], [151.1901736, -33.8631427], [151.1902021, -33.863078]], [[151.1877493, -33.8656236], [151.1878761, -33.8655534], [151.1879611, -33.8655132], [151.188125, -33.8654532], [151.1910041, -33.8646364]], [[151.1877493, -33.8656236], [151.1868705, -33.8666279], [151.1865491, -33.867032], [151.1862599, -33.8674629], [151.186058, -33.8678589], [151.1854426, -33.8696513], [151.1853842, -33.8698802], [151.1853741, -33.8700823], [151.1853875, -33.8702448], [151.1854336, -33.8704035], [151.1855648, -33.8707205], [151.1855909, -33.8707895], [151.1856039, -33.8708585], [151.1856029, -33.8709205]], [[151.1856029, -33.8709205], [151.1855818, -33.8709977], [151.1855612, -33.8710449], [151.1855381, -33.8710836], [151.1852815, -33.871382], [151.1852378, -33.8713832]]]}}, {"type": "Feature", "properties": {"name": "Ferry: F2, Circular Quay => Taronga Zoo", "ref": "F2", "mode": "ferry", "network": "Sydney Ferries", "from": "Circular Quay", "to": "Taronga Zoo"}, "geometry": {"type": "MultiLineString", "coordinates": [[[151.2110973, -33.8606009], [151.2111891, -33.8606096], [151.2112273, -33.8604045], [151.2112557, -33.8603207]], [[151.2112557, -33.8603207], [151.2113511, -33.8601048], [151.211385, -33.8598601], [151.2113198, -33.8592874], [151.2118809, -33.8584507], [151.2131828, -33.855591], [151.2133317, -33.8553238], [151.2135799, -33.8548803], [151.2136561, -33.8547556], [151.2137262, -33.8546319], [151.2138055, -33.8545158], [151.213892, -33.8544235], [151.2140108, -33.85434], [151.2141764, -33.8542774], [151.2144243, -33.8542268], [151.2147246, -33.8541952], [151.2218219, -33.8537576], [151.223264, -33.8536295], [151.2247157, -33.8534333], [151.2260634, -33.8531677], [151.2326785, -33.8516891], [151.2335806, -33.8514539], [151.2342468, -33.851248], [151.2349098, -33.8509532], [151.2353941, -33.8506594], [151.235845, -33.8503115], [151.2362723, -33.8499217], [151.2395952, -33.8463913]]]}}, {"type": "Feature", "properties": {"name": "Ferry: F3, Circular Quay => Parramatta", "ref": "F3", "mode": "ferry", "network": "Sydney Ferries", "from": "Circular Quay", "to": "Parramatta"}, "geometry": {"type": "MultiLineString", "coordinates": [[[151.210615, -33.8605384], [151.2107116, -33.8605466], [151.2107602, -33.8602886]], [[151.2085596, -33.8515916], [151.2089281, -33.8515938], [151.2092441, -33.8516215], [151.209568, -33.8516704], [151.2098571, -33.8517356], [151.2101367, -33.8518344], [151.2103732, -33.8519655], [151.2107122, -33.8522183], [151.2109816, -33.8524751], [151.2111878, -33.8527391], [151.2113811, -33.8529983], [151.2115712, -33.8532522], [151.2117643, -33.8535663], [151.2119047, -33.8539443], [151.2120132, -33.8543433], [151.2120641, -33.8547404], [151.2120428, -33.8550865], [151.2119921, -33.8554142], [151.2114116, -33.8583856], [151.2113198, -33.8592874], [151.2109549, -33.8597875], [151.2108845, -33.8599343], [151.2108081, -33.8601316], [151.2107602, -33.8602886]], [[151.2004781, -33.8531459], [151.2012997, -33.8528861], [151.2022857, -33.8526171], [151.2033933, -33.8523856], [151.2045992, -33.8521645], [151.2058655, -33.8519531], [151.2059012, -33.8519477], [151.207559, -33.8516974], [151.2085596, -33.8515916]], [[151.198273, -33.8544672], [151.1984707, -33.8542739], [151.1986649, -33.8541118], [151.1988382, -33.853975], [151.1990424, -33.8538434], [151.1994634, -33.8535948], [151.199931, -33.853372], [151.2004781, -33.8531459]], [[151.1985927, -33.8586679], [151.1980348, -33.8562053], [151.1979958, -33.8558739], [151.1979954, -33.8555545], [151.1980277, -33.8552357], [151.1980856, -33.8549435], [151.1981516, -33.8547259], [151.198273, -33.8544672]], [[151.2000656, -33.8633592], [151.1993661, -33.8611444], [151.1985927, -33.8586679]], [[151.2004232, -33.8641723], [151.2004684, -33.8641125], [151.2001918, -33.8639488], [151.2000656, -33.8633592]], [[151.2004232, -33.8641723], [151.2004684, -33.8641125], [151.2001918, -33.8639488], [151.2000656, -33.8633592]], [[151.2000656, -33.8633592], [151.1993661, -33.8611444], [151.1985927, -33.8586679]], [[151.1985927, -33.8586679], [151.1975901, -33.8566852], [151.1972431, -33.856044], [151.1967831, -33.8554343], [151.1964485, -33.855093], [151.1960205, -33.8547776], [151.1947127, -33.8540108]], [[151.1913955, -33.8499663], [151.1919405, -33.8509205], [151.1923872, -33.8516813], [151.1928777, -33.852363], [151.1934145, -33.8529577], [151.1939714, -33.8534604], [151.1947127, -33.8540108]], [[151.1913955, -33.8499663], [151.1913085, -33.8497324], [151.1911625, -33.8495137], [151.1910139, -33.8492956], [151.1908709, -33.8491141], [151.1906852, -33.8488909], [151.1905287, -33.8487237], [151.19011, -33.8483255], [151.1898613, -33.8480829], [151.1893154, -33.8475281], [151.1884538, -33.8468038], [151.1873087, -33.846162]], [[151.1734436, -33.8454805], [151.1735386, -33.8454452], [151.1738229, -33.8453157], [151.1742576, -33.8450637], [151.1746989, -33.8447732], [151.1751876, -33.844479], [151.1754232, -33.844371], [151.1757017, -33.8442809], [151.1760823, -33.8442513], [151.1764199, -33.8442201], [151.1770053, -33.8441646], [151.1778373, -33.844092], [151.1785587, -33.8440673], [151.1794796, -33.8440501], [151.1804754, -33.844078], [151.1811174, -33.8441534], [151.1817702, -33.8442645], [151.1825641, -33.8444466], [151.1832614, -33.8446109], [151.1839759, -33.8448046], [151.1849879, -33.8450972], [151.1855947, -33.8453257], [151.1857739, -33.8453932], [151.1863405, -33.8456556], [151.1873087, -33.846162]], [[151.1734436, -33.8454805], [151.1734275, -33.845469], [151.1734056, -33.8454596], [151.1733709, -33.8454548], [151.1727039, -33.8454444]], [[151.1727039, -33.8454444], [151.1724274, -33.8453933], [151.171194, -33.8450597], [151.1706568, -33.8449614], [151.1702359, -33.8449034], [151.1697226, -33.8448698], [151.169101, -33.8449618], [151.1683191, -33.8451064], [151.163068, -33.8462258], [151.1621805, -33.8463799], [151.1614564, -33.8464687], [151.1607733, -33.8464812], [151.1601942, -33.846435], [151.1596035, -33.8463306], [151.1590728, -33.8461946], [151.1585578, -33.8460416], [151.1580833, -33.8458681], [151.157616, -33.8456548], [151.1572043, -33.8454206]], [[151.1572043, -33.8454206], [151.1569288, -33.8450533], [151.1566759, -33.8446397], [151.1547865, -33.8409317], [151.1546049, -33.8406708], [151.1543636, -33.8404376], [151.1541046, -33.8402635], [151.1537146, -33.8400551], [151.1532041, -33.8399496], [151.1529228, -33.8399234], [151.1526478, -33.8399278], [151.1523592, -33.839948], [151.1520942, -33.8399791], [151.1518015, -33.8400231], [151.1514931, -33.840084], [151.1511786, -33.840152], [151.1507885, -33.8402583], [151.1503935, -33.8403919], [151.1499576, -33.8405492], [151.1495306, -33.8407063], [151.1479992, -33.8413465], [151.1470659, -33.8417229], [151.1465944, -33.8418819], [151.1462735, -33.8419645], [151.1460188, -33.8420212], [151.1457477, -33.8420491], [151.1454381, -33.8420613], [151.1450725, -33.842055], [151.1446742, -33.84204], [151.144279, -33.8420302], [151.1438904, -33.8420378], [151.1426732, -33.8421168], [151.1424925, -33.8421366], [151.1423239, -33.8421638], [151.1421841, -33.8421994], [151.1420916, -33.8422241], [151.1420468, -33.8422289], [151.1420066, -33.8422266], [151.141965, -33.842211]], [[151.141965, -33.842211], [151.1418708, -33.8423487], [151.1418281, -33.8424221], [151.1417779, -33.8425485], [151.1417587, -33.8426523], [151.1417545, -33.842731], [151.1417531, -33.8428097], [151.1417689, -33.8429315], [151.1417912, -33.843016], [151.1418434, -33.8431289], [151.1419177, -33.8432339], [151.14213, -33.8435014], [151.1424861, -33.843968], [151.1425749, -33.8441087], [151.1426345, -33.8442521], [151.142671, -33.8443946], [151.1426926, -33.8445243], [151.1426966, -33.8446447], [151.1426719, -33.8447999], [151.1426287, -33.8449473], [151.1425461, -33.8450709], [151.1424817, -33.8451557], [151.1424024, -33.8452241], [151.1423262, -33.8452743], [151.1422244, -33.8453271], [151.1421242, -33.8453584], [151.1420386, -33.8453816], [151.1419782, -33.8453896], [151.1418525, -33.8454015]], [[151.1418525, -33.8454015], [151.1416597, -33.845382], [151.1415358, -33.8453652], [151.141395, -33.8453532], [151.141242, -33.8453467], [151.14104, -33.8453498], [151.1401279, -33.8454229], [151.1384355, -33.8455672], [151.137925, -33.845626], [151.1373841, -33.8457088], [151.1368859, -33.8457809], [151.1367582, -33.8458018], [151.1363789, -33.845839], [151.1361663, -33.8458578], [151.1359698, -33.8458633], [151.1358028, -33.8458564], [151.1356036, -33.8458428], [151.1354034, -33.845824], [151.1352038, -33.8458026], [151.1349767, -33.8457652], [151.1348043, -33.8457299], [151.1346068, -33.8456793], [151.1343537, -33.845601], [151.134107, -33.8455113], [151.1338682, -33.8454106], [151.1336333, -33.8452862], [151.1334067, -33.8451369], [151.1332042, -33.8449899], [151.1322584, -33.8440653], [151.1320434, -33.8438667], [151.1317748, -33.8436636], [151.1315114, -33.8434892], [151.1311082, -33.8433925], [151.1307307, -33.843324], [151.130317, -33.8432837], [151.1298952, -33.8432817], [151.1294729, -33.8433074], [151.1291138, -33.843348], [151.1288506, -33.8433961], [151.1286041, -33.8434611], [151.1284424, -33.8435347], [151.1283798, -33.8435697], [151.1283239, -33.843592], [151.1282504, -33.8436238]], [[151.1282504, -33.8436238], [151.1280931, -33.8436156], [151.1279675, -33.8436018], [151.127815, -33.8435717], [151.1276926, -33.8435352], [151.1275451, -33.8434874], [151.1273937, -33.8434253], [151.1266433, -33.843077], [151.126412, -33.8429858], [151.1261748, -33.8429092], [151.1259525, -33.8428467], [151.1257301, -33.84279], [151.1255421, -33.8427497], [151.1251358, -33.8426723], [151.1248639, -33.8426065], [151.1245716, -33.8425107], [151.1243301, -33.842417], [151.1240941, -33.8422967], [151.1238956, -33.8421675], [151.1236757, -33.8420116], [151.1230749, -33.841526], [151.1228871, -33.8413389], [151.1227363, -33.8411834], [151.1226245, -33.8410719], [151.1224966, -33.8409693], [151.1223405, -33.8408613], [151.1221794, -33.8407646], [151.1220019, -33.8406777], [151.1218349, -33.8406006], [151.1216511, -33.8405291], [151.1214551, -33.8404603], [151.121302, -33.840407], [151.121027, -33.8403539], [151.1207577, -33.8403267], [151.1204473, -33.8403176], [151.1201546, -33.840332], [151.1198454, -33.8403491], [151.119556, -33.840365], [151.1193133, -33.840392], [151.1190694, -33.8404306], [151.1188192, -33.84047], [151.1184301, -33.8405265], [151.1181044, -33.8405664], [151.1176139, -33.8406192], [151.1173257, -33.8406389], [151.1171481, -33.8406521], [151.1170012, -33.8406593], [151.1169013, -33.8406661]], [[151.1169013, -33.8406661], [151.116618, -33.8406382], [151.1162894, -33.8406056], [151.1158766, -33.8405183], [151.1154902, -33.8403822], [151.1151401, -33.8401993], [151.1148588, -33.8400117], [151.1146082, -33.8397739], [151.1143626, -33.839509], [151.1126829, -33.8375244], [151.1124517, -33.8372797], [151.1121802, -33.8370892], [151.1118487, -33.8369327], [151.1113285, -33.8367609], [151.1112466, -33.8367404], [151.1109796, -33.8366917], [151.1106569, -33.8366459], [151.1103098, -33.8366131], [151.1088964, -33.8365147], [151.1084973, -33.8364498], [151.1081161, -33.8363649], [151.1077633, -33.8362391], [151.1074543, -33.8360892], [151.1072056, -33.835952], [151.1069748, -33.8357821], [151.1067877, -33.8356048], [151.106531, -33.8353441], [151.105149, -33.8338575], [151.1050128, -33.8337218], [151.1048616, -33.833603], [151.1047017, -33.8334886], [151.1045255, -33.8333744], [151.1030255, -33.8323355], [151.102829, -33.832203], [151.1026132, -33.8320806], [151.1023828, -33.8319759], [151.1021559, -33.8318854], [151.1019668, -33.8318083]], [[151.1019668, -33.8318083], [151.101764, -33.8318171], [151.1015562, -33.8317995], [151.1013517, -33.8317646], [151.1011896, -33.8317199], [151.1010116, -33.8316583], [151.100897, -33.8315444], [151.1007685, -33.831394], [151.1006251, -33.8312082], [151.1004918, -33.8309934], [151.1003367, -33.8307411], [151.1000454, -33.8301724], [151.0994106, -33.8289552], [151.0984683, -33.8272714], [151.0971808, -33.825471], [151.0965827, -33.8247227], [151.0961867, -33.8242273], [151.0958719, -33.823831], [151.0955179, -33.8234656], [151.0953119, -33.8232809], [151.0951182, -33.8231291], [151.0948098, -33.8229263], [151.0946651, -33.8228469], [151.0942545, -33.8226277], [151.0940587, -33.8225208], [151.0939335, -33.822462], [151.0937791, -33.8223961], [151.0935733, -33.8223171], [151.0933506, -33.8222289], [151.0929907, -33.8221226], [151.0927218, -33.8220473], [151.0924248, -33.8219666], [151.0921188, -33.8218856], [151.0916808, -33.8217687], [151.0911369, -33.8216312], [151.0907883, -33.8215445], [151.0905354, -33.8214743], [151.0903561, -33.821414], [151.0903198, -33.8213968], [151.0902963, -33.82138], [151.0902685, -33.821354], [151.0902459, -33.8213294], [151.0902305, -33.8213122]], [[151.0902305, -33.8213122], [151.0902095, -33.8213264], [151.0901842, -33.82134], [151.0901409, -33.821357], [151.0900893, -33.821367], [151.0899363, -33.8213808], [151.0897219, -33.8213916], [151.0892568, -33.8213862], [151.0883561, -33.8213717], [151.0878104, -33.8213783], [151.0870512, -33.8213785], [151.086112, -33.8213237], [151.0858351, -33.8213131], [151.0843331, -33.8213131], [151.0830242, -33.821398], [151.0826897, -33.821428], [151.0824542, -33.8214553], [151.082155, -33.821515], [151.081849, -33.8216025], [151.0811209, -33.8218282], [151.0808724, -33.8218951], [151.0806029, -33.8219522], [151.0802823, -33.8219974], [151.07995, -33.8220251], [151.0796348, -33.8220343], [151.0793377, -33.822027], [151.0791087, -33.8220015], [151.0788441, -33.8219491]], [[151.0788441, -33.8219491], [151.0786574, -33.8219048], [151.078355, -33.8217991], [151.0780094, -33.8216331], [151.0766029, -33.8208083], [151.0759679, -33.8205459], [151.0747971, -33.8200429], [151.074488, -33.8199275], [151.0741944, -33.8198316], [151.073951, -33.8197756], [151.0737115, -33.8197421], [151.0733843, -33.819722], [151.0729873, -33.8197398], [151.0724187, -33.8198468], [151.0720647, -33.8199776], [151.071732, -33.8201409], [151.0713874, -33.820335], [151.0701013, -33.8212016], [151.0679769, -33.8227525], [151.0676718, -33.8229581], [151.0673332, -33.8231625], [151.0662311, -33.8238228], [151.0660484, -33.8239201], [151.0657009, -33.8240944], [151.0652512, -33.8242728], [151.0647236, -33.8244164], [151.0642034, -33.8245177], [151.0637167, -33.8245548], [151.0632966, -33.824565], [151.0628946, -33.824536], [151.0623348, -33.8244798], [151.061791, -33.8244016], [151.0592131, -33.8239058], [151.0589103, -33.8238589], [151.0586482, -33.8238309], [151.0583413, -33.8238225], [151.0580106, -33.8238175], [151.057699, -33.8238354], [151.0564488, -33.8239201], [151.0544157, -33.8240739], [151.0532786, -33.8241086], [151.0522217, -33.8241073], [151.0506208, -33.8240741], [151.0501108, -33.8240694], [151.0496719, -33.8240797], [151.049413, -33.8240671], [151.0491645, -33.8240217], [151.0489424, -33.8239461], [151.0487401, -33.8238243], [151.0485622, -33.8236722], [151.0481152, -33.8232093], [151.0471094, -33.8219704], [151.0464147, -33.8210657], [151.0459802, -33.8205242], [151.0454303, -33.8198134], [151.0446333, -33.8187551], [151.0445061, -33.818598], [151.0443881, -33.8184858], [151.0442416, -33.8183699]], [[151.0442416, -33.8183699], [151.0439897, -33.8182059], [151.0438362, -33.8180975], [151.0437376, -33.8180023]], [[151.0437376, -33.8180023], [151.0435967, -33.8179792], [151.0433969, -33.8179329], [151.0431635, -33.8178749], [151.0429426, -33.8178279], [151.0427666, -33.8178034], [151.0425845, -33.8177822], [151.0420712, -33.817742], [151.0418037, -33.8177224], [151.0409752, -33.8176964], [151.0406451, -33.8176975], [151.0402966, -33.8177209], [151.0400417, -33.8177588], [151.0395589, -33.8178702], [151.0391316, -33.8179987], [151.0389531, -33.8180696], [151.038767, -33.818162], [151.0382665, -33.8184876], [151.0379053, -33.8187226], [151.0377605, -33.8188159], [151.0375965, -33.818908], [151.0374051, -33.8189956], [151.037175, -33.819077], [151.0369585, -33.8191256], [151.0367643, -33.8191533], [151.0365322, -33.8191722], [151.036342, -33.8191734], [151.0361534, -33.8191512], [151.0359592, -33.8191214], [151.0357468, -33.8190852], [151.0355687, -33.8190579], [151.0353647, -33.8190299], [151.035168, -33.818995], [151.0339913, -33.8187771], [151.0330507, -33.8186122], [151.0318668, -33.8183964], [151.0291045, -33.8178927], [151.0278109, -33.8176279], [151.0275728, -33.8175729], [151.0274232, -33.817534], [151.0273163, -33.8174977], [151.0271081, -33.8174134], [151.0269902, -33.8173652], [151.0268742, -33.8173123], [151.026763, -33.8172536], [151.0266861, -33.8171981], [151.0266298, -33.8171432], [151.0264774, -33.8169681], [151.0264064, -33.8168756], [151.0263604, -33.8167887], [151.0263316, -33.8167055], [151.0263061, -33.816522], [151.026301, -33.8163867], [151.0263084, -33.8162394], [151.0263309, -33.8160902], [151.0263771, -33.8156101], [151.026377, -33.8154216], [151.0263579, -33.8151987], [151.0263414, -33.8151094], [151.0263033, -33.8150144], [151.0262482, -33.8149284], [151.0261767, -33.8148554], [151.0260758, -33.8147778], [151.0259832, -33.8147167], [151.0258162, -33.8146376], [151.0256774, -33.8145838], [151.0254888, -33.8145194], [151.0253003, -33.8144652], [151.0250835, -33.8144168], [151.0249058, -33.8143845], [151.0245895, -33.8143359], [151.0243221, -33.8142979], [151.0240663, -33.814263], [151.0237558, -33.8142294], [151.0234212, -33.8142021], [151.0230099, -33.8141715], [151.0225105, -33.8141589], [151.0222882, -33.8141621], [151.0221049, -33.8141729], [151.021908, -33.8141941], [151.0217349, -33.8142278], [151.0215527, -33.8142861], [151.0213897, -33.8143561], [151.021232, -33.8144318], [151.0206018, -33.8147933], [151.0199091, -33.8151939], [151.0196301, -33.815332], [151.0193415, -33.8154536], [151.0189068, -33.8156286], [151.0186404, -33.8157176], [151.0183531, -33.8157909], [151.0180568, -33.8158652], [151.0176071, -33.8159691], [151.0174303, -33.8159948], [151.0172668, -33.8160138], [151.0170714, -33.8160268], [151.0163499, -33.8160728], [151.0161234, -33.8160809], [151.0159235, -33.8160812], [151.0157468, -33.8160711], [151.0155071, -33.8160554], [151.0153462, -33.8160357], [151.0151689, -33.8160098], [151.015015, -33.8159805], [151.0139586, -33.8157476], [151.0134628, -33.8156104], [151.0130832, -33.8154726], [151.0126073, -33.815296], [151.0122278, -33.8151444], [151.0120532, -33.815048], [151.0118959, -33.8149487], [151.0117749, -33.814873], [151.0116493, -33.8147893], [151.0114907, -33.8146655], [151.0113551, -33.8145596], [151.0111901, -33.8144175], [151.0110479, -33.8142756], [151.0109289, -33.8141465], [151.0107452, -33.8139539], [151.0107134, -33.8139271], [151.0106865, -33.8139116], [151.010655, -33.8138981], [151.0106251, -33.8138913], [151.0105925, -33.8138903]]]}}, {"type": "Feature", "properties": {"name": "Ferry: F4, Pyrmont Bay => Circular Quay", "ref": "F4", "mode": "ferry", "network": "Sydney Ferries", "from": "Pyrmont Bay", "to": "Circular Quay"}, "geometry": {"type": "MultiLineString", "coordinates": [[[151.2000354, -33.8647904], [151.1994152, -33.8659577], [151.199182, -33.8665698], [151.1989011, -33.8681951], [151.198862, -33.8681952]], [[151.2000825, -33.8643189], [151.2000354, -33.8647904]], [[151.200387, -33.8643909], [151.2003545, -33.8644447], [151.2000825, -33.8643189]], [[151.200387, -33.8643909], [151.2003545, -33.8644447], [151.2000825, -33.8643189]], [[151.2000825, -33.8643189], [151.2000938, -33.8641571], [151.2001017, -33.8639972], [151.2000997, -33.8638026], [151.2000937, -33.8635665], [151.2000656, -33.8633592]], [[151.2000656, -33.8633592], [151.1993661, -33.8611444], [151.1985927, -33.8586679]], [[151.1962419, -33.8568299], [151.1965038, -33.8569021], [151.1968062, -33.8570011], [151.1970624, -33.8570965], [151.1972813, -33.8572035], [151.1974894, -33.8573306], [151.1976764, -33.8574734], [151.197866, -33.8576362], [151.198022, -33.8578093], [151.1982431, -33.858087], [151.1985927, -33.8586679]], [[151.1962419, -33.8568299], [151.1963799, -33.8568163], [151.1964429, -33.8567998], [151.1965092, -33.856772], [151.1965648, -33.8567318], [151.1966107, -33.8566715], [151.1968642, -33.8561762], [151.197162, -33.855688], [151.197679, -33.8549636], [151.1977851, -33.8548174], [151.1978801, -33.8547058], [151.1979995, -33.8546026], [151.1981526, -33.8545144], [151.198273, -33.8544672]], [[151.198273, -33.8544672], [151.1984707, -33.8542739], [151.1986649, -33.8541118], [151.1988382, -33.853975], [151.1990424, -33.8538434], [151.1994634, -33.8535948], [151.199931, -33.853372], [151.2004781, -33.8531459]], [[151.2004781, -33.8531459], [151.2014115, -33.8527108], [151.2019973, -33.8524438], [151.2026173, -33.8521488], [151.2030421, -33.8519304], [151.2033592, -33.8517673], [151.2042613, -33.8513441], [151.2052051, -33.8507772], [151.2055503, -33.8505349], [151.2058419, -33.8503072], [151.2062088, -33.8499499], [151.2066415, -33.8494563], [151.2067266, -33.8493086], [151.206779, -33.8491561], [151.2067941, -33.8490233], [151.2067787, -33.8489351], [151.2067462, -33.8488899], [151.2066882, -33.8488684]], [[151.2104494, -33.8493116], [151.2103211, -33.8492699], [151.2101437, -33.8492012], [151.2099655, -33.8491352], [151.2097764, -33.8490706], [151.2095447, -33.8490049], [151.2093362, -33.8489529], [151.2079472, -33.8486485], [151.2077431, -33.8486104], [151.2075482, -33.8485882], [151.20733, -33.8485818], [151.207128, -33.8485909], [151.2069673, -33.848621], [151.2068438, -33.8486676], [151.2067668, -33.8487253], [151.2067212, -33.8487902], [151.2066882, -33.8488684]], [[151.2107602, -33.8602886], [151.2108385, -33.8601523], [151.2109098, -33.860052], [151.2109683, -33.8599874], [151.2110818, -33.859836], [151.2111278, -33.8597631], [151.2111592, -33.8596949], [151.2113198, -33.8592874], [151.2115295, -33.8583921], [151.212307, -33.855461], [151.212933, -33.8537551], [151.2129451, -33.8536183], [151.2129301, -33.8534491], [151.2128961, -33.8532866], [151.2128362, -33.8530886], [151.2127677, -33.8528944], [151.2126687, -33.8526643], [151.2124503, -33.8521912], [151.2121905, -33.8516637], [151.2118944, -33.8511902], [151.2114029, -33.8504941], [151.2112185, -33.8502594], [151.2109579, -33.8499408], [151.2107515, -33.8496871], [151.2104494, -33.8493116]], [[151.210615, -33.8605384], [151.2107116, -33.8605466], [151.2107602, -33.8602886]]]}}, {"type": "Feature", "properties": {"name": "Ferry: F5, Circular Quay => Neutral Bay", "ref": "F5", "mode": "ferry", "network": "Sydney Ferries", "from": "Circular Quay", "to": "Neutral Bay"}, "geometry": {"type": "MultiLineString", "coordinates": [[[151.2109195, -33.860582], [151.2108243, -33.8605721], [151.2108598, -33.8603931], [151.2108841, -33.8603206], [151.2109319, -33.8602451], [151.2109862, -33.860173], [151.2111194, -33.8599393], [151.211239, -33.8597499], [151.2113198, -33.8592874], [151.2116617, -33.8584247], [151.212595, -33.8555037], [151.2131464, -33.854003], [151.2132229, -33.8538216], [151.2133045, -33.8536941], [151.2133876, -33.8535984], [151.2135106, -33.8535195], [151.2136612, -33.8534636], [151.2138236, -33.8534229], [151.2139939, -33.8533946], [151.2141843, -33.853379], [151.2143803, -33.8533642], [151.2196306, -33.8531632], [151.2199134, -33.853134], [151.2201806, -33.8530822], [151.2204197, -33.8530051], [151.22064, -33.8528825], [151.2207939, -33.8527099], [151.2208777, -33.8525212], [151.2209237, -33.8523113], [151.2209, -33.8520258], [151.2208344, -33.8517534], [151.2207601, -33.8514946], [151.2204469, -33.8504688], [151.2204236, -33.8503521], [151.2204173, -33.8502019], [151.2204569, -33.8499599], [151.2205075, -33.8497548], [151.2205279, -33.8495772], [151.2205164, -33.8494946], [151.2204926, -33.8493903]], [[151.2204926, -33.8493903], [151.2206714, -33.8489639], [151.2207866, -33.8486724], [151.2208996, -33.8482709], [151.2209373, -33.8481081], [151.2209609, -33.8479221], [151.2209796, -33.8477546], [151.2209843, -33.8475794], [151.2209625, -33.8473516], [151.220905, -33.8471183], [151.2208359, -33.8469257], [151.2207434, -33.846744], [151.2205935, -33.8465331], [151.2204499, -33.8463826], [151.2189666, -33.8449058], [151.2189155, -33.8448436], [151.2188739, -33.8447746], [151.2188413, -33.8447042]], [[151.2188413, -33.8447042], [151.218852, -33.8446352], [151.2188422, -33.8445695], [151.2188113, -33.8445027], [151.2187625, -33.8444149], [151.2187149, -33.8443229], [151.2186713, -33.8442208], [151.2183971, -33.8435041], [151.2183625, -33.8433429], [151.218358, -33.8432136], [151.2183732, -33.8430955], [151.2184081, -33.8429932], [151.2184741, -33.8429005], [151.2190004, -33.8424401], [151.2190627, -33.8424012], [151.2191352, -33.8423762], [151.2192113, -33.8423637], [151.2192846, -33.8423673], [151.2193562, -33.8423786]]]}}, {"type": "Feature", "properties": {"name": "Ferry: F6, Circular Quay => Mosman Bay", "ref": "F6", "mode": "ferry", "network": "Sydney Ferries", "from": "Circular Quay", "to": "Mosman Bay"}, "geometry": {"type": "MultiLineString", "coordinates": [[[151.2110973, -33.8606009], [151.2111891, -33.8606096], [151.2112273, -33.8604045], [151.2112557, -33.8603207]], [[151.2112557, -33.8603207], [151.2112733, -33.860034], [151.2112854, -33.8598265], [151.2113198, -33.8592874], [151.2117923, -33.8583903], [151.2128923, -33.8555478], [151.2131347, -33.8550101], [151.2134616, -33.8543004], [151.2135393, -33.8541805], [151.2136409, -33.8540867], [151.2137724, -33.8540118], [151.2139317, -33.8539542], [151.2141077, -33.8539209], [151.2145133, -33.8538666], [151.2151146, -33.8538169], [151.2196928, -33.8534631], [151.2204823, -33.8533884], [151.2211765, -33.8532535], [151.2219625, -33.8530134], [151.2226816, -33.8526334], [151.2234011, -33.8521712], [151.2253739, -33.8507059], [151.2270556, -33.8493902], [151.2274888, -33.8490529], [151.227958, -33.848733], [151.2284499, -33.848498], [151.2290001, -33.8483047], [151.2295559, -33.8481933], [151.2301228, -33.848116], [151.2309883, -33.8480228]], [[151.2309883, -33.8480228], [151.231091, -33.84829], [151.23125, -33.8485937], [151.2315256, -33.8490237], [151.231794, -33.8493386], [151.2320294, -33.8495572], [151.2322892, -33.8497113], [151.2326242, -33.8498156], [151.2329838, -33.8498405], [151.2334159, -33.8497521], [151.2337289, -33.8496033], [151.2339996, -33.8494074], [151.2342042, -33.8490801], [151.2342584, -33.8487697], [151.234245, -33.8483604], [151.2341785, -33.8479229], [151.2339815, -33.8473046], [151.2329327, -33.8448456], [151.2328448, -33.8446889], [151.2324995, -33.8438301], [151.2324468, -33.8436496], [151.2324266, -33.8435181], [151.2324371, -33.8434122], [151.2324833, -33.8433333], [151.2325622, -33.8432439]], [[151.2325622, -33.8432439], [151.232454, -33.8432292], [151.2323579, -33.8431914], [151.2322554, -33.8431307], [151.2321624, -33.8430587], [151.2320426, -33.8429422], [151.2317754, -33.8422401], [151.2312426, -33.8416359], [151.2309828, -33.8413301], [151.23083, -33.8410693], [151.2307258, -33.8409212], [151.2306564, -33.8408401], [151.2305747, -33.8407795], [151.2304646, -33.8407337]], [[151.2304646, -33.8407337], [151.2305444, -33.8406543], [151.2306125, -33.8405601], [151.230661, -33.84047], [151.2307094, -33.8403573], [151.2307526, -33.8401648], [151.2308344, -33.8396444], [151.2308869, -33.8394552], [151.2309746, -33.8392534], [151.2311014, -33.83908], [151.2314317, -33.8387804], [151.2315612, -33.8386762], [151.2317386, -33.8385646], [151.2320027, -33.8384485], [151.2322281, -33.8384067], [151.2322395, -33.8384528]]]}}, {"type": "Feature", "properties": {"name": "Ferry: F7, Circular Quay => Watsons Bay", "ref": "F7", "mode": "ferry", "network": "Sydney Ferries", "from": "Circular Quay", "to": "Double Bay"}, "geometry": {"type": "MultiLineString", "coordinates": [[[151.2119493, -33.8606782], [151.2118571, -33.8606728], [151.2118809, -33.8604061]], [[151.2118809, -33.8604061], [151.2119397, -33.8603004], [151.2119582, -33.8602424], [151.2119871, -33.8601658], [151.2119783, -33.8600612], [151.2119458, -33.8599473], [151.2113198, -33.8592874], [151.2122109, -33.8585398], [151.2141764, -33.8557384], [151.2142618, -33.8556502], [151.2143808, -33.8555678], [151.2145195, -33.8554907], [151.2146977, -33.8554074], [151.2148785, -33.855357], [151.2150455, -33.8553297], [151.2152115, -33.8553182], [151.2154141, -33.8553176], [151.223419, -33.8559433], [151.2254697, -33.8561905], [151.2265499, -33.856405], [151.2274935, -33.8566022], [151.2283839, -33.856836], [151.2294351, -33.8571282], [151.2310067, -33.8576106], [151.2326437, -33.8581433], [151.2329525, -33.8582443], [151.2332418, -33.8583594], [151.2335947, -33.85852], [151.2339388, -33.8587329], [151.2342289, -33.8589957], [151.2347917, -33.8595729], [151.2356668, -33.8606287], [151.2371459, -33.8629026]], [[151.2371459, -33.8629026], [151.2381773, -33.8644103], [151.2395702, -33.8664091]], [[151.2395702, -33.8664091], [151.2396098, -33.8663708], [151.2396596, -33.8663365], [151.2400554, -33.8661566], [151.240551, -33.8660318], [151.2409531, -33.8659843], [151.2413552, -33.8660081], [151.2417539, -33.8660556], [151.2421312, -33.8661566], [151.2426484, -33.8663988]], [[151.2426484, -33.8663988], [151.2428426, -33.866657], [151.2429583, -33.8669043], [151.2430757, -33.8672628], [151.2431828, -33.8677224], [151.2433687, -33.8689595], [151.2434053, -33.869366], [151.2434124, -33.8697092], [151.2433757, -33.8700446], [151.2427609, -33.872811], [151.2427135, -33.8728027]]]}}, {"type": "Feature", "properties": {"name": "Ferry: F8, Circular Quay => Cockatoo Island", "ref": "F8", "mode": "ferry", "network": "Sydney Ferries", "from": "Circular Quay", "to": "Cockatoo Island"}, "geometry": {"type": "MultiLineString", "coordinates": [[[151.2104245, -33.8605165], [151.2103489, -33.8605082], [151.2103684, -33.8603798], [151.2104085, -33.8602793], [151.2104656, -33.8601709], [151.2105695, -33.8600112], [151.2113198, -33.8592874], [151.2112959, -33.8583708], [151.2116869, -33.8553689], [151.2117242, -33.8550168], [151.2116987, -33.8545107], [151.2116012, -33.8540656], [151.2114397, -33.8536242], [151.2112211, -33.8532593], [151.2110141, -33.8529472], [151.2108071, -33.8526918], [151.2104898, -33.852388], [151.2102238, -33.8522048], [151.2099969, -33.8520688], [151.2097615, -33.8519824], [151.2095052, -33.8519203], [151.2092659, -33.8518866], [151.2089358, -33.8518467], [151.2086056, -33.8518494], [151.2058617, -33.8522683], [151.2024141, -33.8528998], [151.2013525, -33.8531806], [151.2007922, -33.853359], [151.2001688, -33.8536424], [151.1998563, -33.8538081], [151.1996151, -33.85395], [151.1993164, -33.8541249], [151.1990648, -33.8542554], [151.1988087, -33.8543529], [151.1985559, -33.8544179], [151.198273, -33.8544672], [151.1976713, -33.8545665], [151.1972224, -33.8546048], [151.1967614, -33.8545903], [151.1962915, -33.8545317], [151.1958708, -33.8544279], [151.1955226, -33.8543095], [151.1950713, -33.8541384], [151.1947127, -33.8540108], [151.1938371, -33.8537859], [151.1934065, -33.8537058], [151.1930213, -33.8536553], [151.1925845, -33.8535733], [151.1921276, -33.8535202], [151.1917868, -33.8534986], [151.1914303, -33.8535102], [151.1911202, -33.8535524], [151.1907868, -33.853645], [151.1901332, -33.8538623], [151.1885847, -33.8543612], [151.1878585, -33.8545369], [151.1874041, -33.8545876], [151.1870661, -33.8546257], [151.1863011, -33.8545307]], [[151.1863011, -33.8545307], [151.1879934, -33.8539713], [151.1888474, -33.8536873], [151.1896719, -33.8534253], [151.1905269, -33.8531027], [151.1908329, -33.8529438], [151.1910699, -33.8527526], [151.191213, -33.8525383], [151.1913135, -33.8522676], [151.1913754, -33.85203], [151.1914219, -33.8516896], [151.1914281, -33.8509217], [151.19143, -33.8505158], [151.191432, -33.8502316], [151.1913955, -33.8499663]], [[151.1913955, -33.8499663], [151.1910349, -33.8495484]], [[151.1910349, -33.8495484], [151.1908477, -33.8493676], [151.1905897, -33.8490849], [151.1901835, -33.8486587], [151.18892, -33.8475299], [151.1885381, -33.8471831], [151.1882364, -33.8469447], [151.1879348, -33.8468009], [151.187434, -33.8466648], [151.1864566, -33.8463698]], [[151.1864566, -33.8463698], [151.1861323, -33.8461058], [151.186043, -33.8460186], [151.1859601, -33.8459205], [151.1858952, -33.8458276], [151.1858157, -33.8456842], [151.1857417, -33.8455443], [151.1856759, -33.8454375], [151.1855947, -33.8453257], [151.1854743, -33.8451902], [151.1853382, -33.8450754], [151.1851744, -33.8449682], [151.1849303, -33.8448428], [151.1846432, -33.8447085], [151.1816874, -33.843641], [151.1813222, -33.8435044], [151.1810882, -33.8433822], [151.1808925, -33.8432296], [151.180754, -33.8430513], [151.1806503, -33.8428746], [151.1805985, -33.842689], [151.1806001, -33.8425137], [151.1806722, -33.8420141]], [[151.1806722, -33.8420141], [151.1798856, -33.8418571], [151.1795062, -33.8417544], [151.1791291, -33.8416199], [151.1788076, -33.8414604], [151.177715, -33.8408268], [151.1774454, -33.8406428], [151.177212, -33.8404346], [151.1769893, -33.8402001], [151.1764312, -33.8395144], [151.1763283, -33.8393627], [151.1762578, -33.8392386], [151.176204, -33.8391046], [151.1761614, -33.8389054]], [[151.1761614, -33.8389054], [151.1759584, -33.8422907], [151.17589, -33.8427144], [151.1757534, -33.8431026], [151.1755037, -33.8434738], [151.1752155, -33.8438051], [151.1748152, -33.8441315], [151.1739717, -33.8446786], [151.1737632, -33.8448453], [151.1736233, -33.8450058], [151.1735278, -33.8451605], [151.1734822, -33.8452982], [151.1734436, -33.8454805]]]}}, {"type": "Feature", "properties": {"name": "Circular Quay to Watsons Bay", "ref": "F9", "mode": "ferry", "network": "Sydney Ferries", "from": "Circular Quay", "to": "Watsons Bay"}, "geometry": {"type": "MultiLineString", "coordinates": [[[151.2119493, -33.8606782], [151.2118571, -33.8606728], [151.2118809, -33.8604061]], [[151.2621302, -33.8705812], [151.2615441, -33.8690614], [151.2607904, -33.8672324], [151.2601594, -33.8658739], [151.2597241, -33.8650678], [151.2592245, -33.8642438], [151.2586805, -33.8635057], [151.2581494, -33.8630017], [151.257682, -33.8627106], [151.257121, -33.8624738], [151.2563653, -33.8622813], [151.2554383, -33.8621478], [151.2537662, -33.8619658], [151.2528843, -33.8618968], [151.2521717, -33.8618755], [151.2485399, -33.8617856], [151.2470526, -33.8616831], [151.2463637, -33.8615717], [151.2455262, -33.8613857], [151.2343808, -33.8573787], [151.2322743, -33.8567678], [151.2312477, -33.8565032], [151.2301754, -33.856308], [151.229143, -33.8561684], [151.227918, -33.8560476], [151.2261176, -33.8559262], [151.223431, -33.8557706], [151.215425, -33.855177], [151.2150641, -33.8551791], [151.2148564, -33.8551885], [151.2146301, -33.8552288], [151.2143189, -33.8553218], [151.2141129, -33.8554212], [151.2139295, -33.8555603], [151.2138205, -33.8556856], [151.2120982, -33.8584943], [151.2113198, -33.8592874], [151.2117593, -33.8598761], [151.2118506, -33.8600025], [151.2118933, -33.8601117], [151.2119136, -33.8602063], [151.2118809, -33.8604061]], [[151.2621302, -33.8705812], [151.2616889, -33.8689794], [151.2615609, -33.8683746], [151.2614847, -33.8678582], [151.2614281, -33.867315], [151.261141, -33.8631376], [151.260482, -33.8554665], [151.2604632, -33.8544044], [151.2605344, -33.853453], [151.2606688, -33.852557], [151.2608788, -33.8517664], [151.2611315, -33.851155], [151.2614033, -33.8506896], [151.2616804, -33.8503183], [151.2620066, -33.8499366], [151.2623149, -33.8496431], [151.2627698, -33.8492736], [151.2631831, -33.8489949], [151.2656049, -33.8475523], [151.2666366, -33.8469957], [151.2673461, -33.8466594], [151.2681665, -33.8462969], [151.2702838, -33.8454786], [151.2712497, -33.8451627], [151.2722308, -33.8448687], [151.2731353, -33.8446439], [151.274196, -33.8444369], [151.2762916, -33.8440971], [151.2787799, -33.843757], [151.2808072, -33.8435915], [151.280875, -33.8435795], [151.2809291, -33.8435628], [151.2809765, -33.8435261]]]}}]}