{"type": "FeatureCollection", "features": [{"type": "Feature", "properties": {"kind": "lga-border"}, "geometry": {"type": "MultiLineString", "coordinates": [[[150.6286, -33.9725], [150.6356, -33.9548], [150.6381, -33.9562], [150.6445, -33.9577], [150.6551, -33.9572], [150.6618, -33.9504], [150.6779, -33.9475], [150.7002, -33.9466], [150.708, -33.9388], [150.7661, -33.9451], [150.8217, -33.9566], [150.8123, -33.9779], [150.8095, -33.9832], [150.8069, -33.9836], [150.7975, -33.998], [150.7942, -34.008], [150.7959, -34.0118], [150.7918, -34.0201], [150.7893, -34.0236], [150.7926, -34.036], [150.7965, -34.044], [150.7888, -34.0405], [150.7823, -34.059], [150.7747, -34.0703], [150.7535, -34.0795], [150.7402, -34.0781], [150.7155, -34.0788], [150.7158, -34.0849], [150.7094, -34.0934], [150.6489, -34.082], [150.6597, -34.0705], [150.6568, -34.0648], [150.658, -34.0559], [150.6661, -34.0376], [150.6694, -34.0316], [150.6705, -34.0263], [150.6607, -34.0271], [150.6499, -34.0084], [150.6708, -33.9877], [150.6509, -33.9853], [150.6286, -33.9725], [150.6232, -33.9602], [150.6326, -33.9534], [150.6361, -33.9582], [150.6438, -33.9598], [150.6501, -33.9595], [150.6569, -33.9523], [150.6639, -33.9472], [150.6881, -33.9449], [150.7013, -33.9403], [150.7518, -33.9413], [150.8226, -33.952], [150.8151, -33.9679], [150.8284, -33.9735], [150.8445, -33.9844], [150.8691, -33.9698], [150.8904, -33.961], [150.9007, -33.9654], [150.9132, -33.9648], [150.909, -33.9978], [150.9015, -34.0072], [150.9069, -34.0174], [150.8929, -34.0195], [150.8892, -34.0046], [150.8953, -34.0353], [150.9066, -34.0335], [150.9481, -34.0411], [150.9684, -34.0258], [150.9844, -33.9987], [150.9875, -33.9926], [150.9901, -33.989], [150.9884, -33.9769], [150.9889, -33.9659], [150.9941, -33.979], [151.0003, -33.9826], [151.0059, -33.9825], [151.0157, -33.982], [151.0254, -33.9788], [151.0377, -33.9818], [151.0292, -33.9869], [151.032, -33.9916], [151.0522, -33.9946], [151.0606, -33.9884], [151.0656, -33.9912], [151.0579, -33.9944], [151.0531, -34.0023], [151.0447, -34.0091], [151.0477, -34.0142], [151.0449, -34.0279], [151.0429, -34.0292], [151.0501, -34.0215], [151.0514, -34.0167], [151.0468, -34.007], [151.0497, -34.0082], [151.0525, -34.005], [151.056, -34.0004], [151.071, -33.9975], [151.0708, -33.9999], [151.0756, -33.9977], [151.0799, -34.0006], [151.0828, -33.9959], [151.0898, -34.0006], [151.0889, -34.0056], [151.084, -34.0052], [151.0823, -34.0078], [151.0825, -34.0092], [151.0879, -34.0115], [151.092, -34.0066], [151.0949, -33.9978], [151.0977, -34.0059], [151.1095, -34.0067], [151.1158, -34.0071], [151.1181, -34.0144], [151.1129, -34.0134], [151.1079, -34.0144], [151.1095, -34.0178], [151.1128, -34.0166], [151.1123, -34.0186], [151.112, -34.0198], [151.1104, -34.0237], [151.1155, -34.0218], [151.116, -34.0168], [151.117, -34.0152], [151.1181, -34.0144], [151.1218, -34.0118], [151.128, -34.012], [151.1294, -34.0216], [151.1316, -34.0261], [151.1375, -34.037], [151.1473, -34.0387], [151.1549, -34.0353], [151.1613, -34.0285], [151.1418, -34.0144], [151.1494, -34.0161], [151.1574, -34.0132], [151.1556, -34.0057], [151.1735, -34.0071], [151.1786, -34.0128], [151.1681, -34.013], [151.1556, -34.0163], [151.1605, -34.022], [151.169, -34.0235], [151.1745, -34.0237], [151.1858, -34.0195], [151.19, -34.0206], [151.1931, -34.0208], [151.2064, -34.0146], [151.1983, -34.0124], [151.1989, -34.0102], [151.2113, -34.0079], [151.2284, -34.0043], [151.2319, -34.0162], [151.2303, -34.0264], [151.2145, -34.0419], [151.2011, -34.0378], [151.1988, -34.0417], [151.1859, -34.0346], [151.1559, -34.0518], [151.1584, -34.0584], [151.1584, -34.0669], [151.1474, -34.0734], [151.1506, -34.0577], [151.1423, -34.0574], [151.1392, -34.0647], [151.1403, -34.0738], [151.1381, -34.0561], [151.135, -34.0581], [151.1315, -34.0641], [151.1263, -34.0641], [151.1297, -34.0693], [151.1193, -34.0678], [151.1117, -34.0725], [151.116, -34.0658], [151.1144, -34.0618], [151.111, -34.0618], [151.106, -34.0592], [151.109, -34.0507], [151.1093, -34.0447], [151.1086, -34.0468], [151.102, -34.0589], [151.1013, -34.0515], [151.0977, -34.049], [151.0951, -34.0521], [151.0858, -34.0538], [151.0786, -34.0564], [151.0836, -34.0579], [151.0891, -34.0582], [151.0865, -34.062], [151.0893, -34.0653], [151.0823, -34.0605], [151.0821, -34.0625], [151.0595, -34.068], [151.0568, -34.073]], [[151.3446, -33.4968], [151.3434, -33.4958], [151.3485, -33.5005], [151.3479, -33.4982], [151.3468, -33.5031], [151.352, -33.5069], [151.359, -33.5111], [151.3604, -33.5204], [151.3567, -33.5254], [151.3468, -33.5272], [151.3359, -33.5223], [151.337, -33.537], [151.3424, -33.543], [151.3485, -33.5399], [151.3728, -33.5289], [151.3736, -33.5315], [151.3807, -33.5333], [151.3869, -33.5246], [151.3961, -33.525], [151.3971, -33.5265], [151.4104, -33.5224], [151.4215, -33.5184], [151.4227, -33.5111], [151.4292, -33.5052], [151.4252, -33.5002], [151.4331, -33.4911], [151.445, -33.487], [151.4426, -33.4817], [151.4407, -33.4713], [151.4404, -33.4582], [151.4526, -33.4511], [151.4501, -33.4462], [151.4467, -33.4478], [151.4449, -33.4356], [151.4628, -33.4185], [151.4682, -33.4103], [151.4792, -33.4025], [151.4845, -33.3948], [151.4872, -33.3909], [151.4887, -33.3818], [151.4874, -33.3745], [151.5044, -33.3625], [151.5021, -33.3547], [151.5032, -33.3489], [151.5022, -33.3455], [151.494, -33.3365], [151.4905, -33.3432], [151.4741, -33.3658], [151.4488, -33.3546], [151.4418, -33.3299], [151.4533, -33.3253], [151.4665, -33.3297], [151.449, -33.3199], [151.443, -33.3076], [151.4421, -33.3095], [151.4525, -33.2986], [151.465, -33.3019], [151.4651, -33.2978], [151.4723, -33.2948], [151.4751, -33.2824], [151.489, -33.2771], [151.4913, -33.2687], [151.4999, -33.2624], [151.5096, -33.2599], [151.5144, -33.2491], [151.507, -33.2321], [151.5197, -33.2193], [151.5251, -33.2225], [151.527, -33.2253], [151.5285, -33.2319], [151.5382, -33.2357], [151.5443, -33.2337], [151.5616, -33.2397], [151.556, -33.2298], [151.5609, -33.2131], [151.5637, -33.2075], [151.5554, -33.199], [151.5775, -33.1968], [151.5835, -33.2047], [151.5813, -33.2118], [151.5705, -33.2316], [151.5642, -33.2433], [151.558, -33.2519], [151.5569, -33.2452], [151.5533, -33.2461], [151.5204, -33.2627], [151.5236, -33.2631], [151.5373, -33.2669], [151.5456, -33.2777], [151.522, -33.3012], [151.5106, -33.3253], [151.5019, -33.3438], [151.5091, -33.3313], [151.5503, -33.2998], [151.564, -33.2966], [151.5642, -33.2918], [151.5717, -33.2856], [151.5765, -33.2794], [151.5722, -33.2787], [151.5636, -33.2717], [151.5642, -33.2489], [151.5998, -33.2107], [151.6164, -33.2024], [151.6251, -33.198], [151.6241, -33.194], [151.6242, -33.1869], [151.6283, -33.1791], [151.597, -33.1719], [151.5959, -33.1632], [151.5879, -33.1499], [151.5873, -33.1375], [151.5871, -33.1309], [151.5891, -33.1236], [151.5888, -33.1186], [151.5805, -33.1054], [151.5792, -33.1043], [151.5851, -33.1192], [151.5796, -33.1248], [151.5667, -33.1303], [151.5667, -33.1363], [151.556, -33.1409], [151.5673, -33.1506], [151.5719, -33.1574], [151.5689, -33.1686], [151.5594, -33.1715], [151.5537, -33.1598], [151.5442, -33.1508], [151.5417, -33.1443], [151.5377, -33.1455], [151.5279, -33.1591], [151.5262, -33.1575], [151.5263, -33.174], [151.5155, -33.1839], [151.5029, -33.1924], [151.4886, -33.1881], [151.4644, -33.1939], [151.4551, -33.2028], [151.4447, -33.1933], [151.4354, -33.1999], [151.4332, -33.1942], [151.4179, -33.1951], [151.4124, -33.1893], [151.3986, -33.1857], [151.4035, -33.1762], [151.3994, -33.1729], [151.39, -33.1699], [151.3925, -33.1578], [151.3883, -33.1501], [151.3831, -33.1398], [151.3809, -33.1266], [151.3823, -33.116], [151.3824, -33.1092], [151.3789, -33.0997], [151.3636, -33.0942], [151.3566, -33.09], [151.333, -33.0693], [151.3258, -33.0598], [151.3097, -33.0477], [151.3017, -33.0452], [151.2959, -33.0549], [151.2816, -33.0583], [151.2664, -33.0576], [151.2622, -33.075], [151.2623, -33.0871], [151.26, -33.0948], [151.2617, -33.0989], [151.2489, -33.1], [151.2325, -33.1085], [151.2322, -33.1141], [151.2183, -33.1294], [151.2054, -33.1339], [151.163, -33.1243], [151.1338, -33.111], [151.117, -33.1248], [151.1355, -33.1104], [151.1305, -33.1008], [151.1145, -33.0912], [151.104, -33.077], [151.093, -33.0766], [151.0839, -33.0752], [151.0696, -33.0797], [151.0525, -33.0799], [151.0419, -33.0911], [151.0397, -33.0971], [151.0387, -33.1103], [151.0372, -33.1235], [151.0254, -33.1257], [151.0124, -33.1219], [151.0036, -33.1261], [150.9881, -33.1247], [150.9805, -33.1263], [150.9659, -33.1299], [150.9597, -33.1279], [150.9539, -33.1263], [150.942, -33.1232], [150.9314, -33.1131], [150.9164, -33.1116], [150.9, -33.1212], [150.8734, -33.1142], [150.8725, -33.1043], [150.8655, -33.0995], [150.8537, -33.0941], [150.847, -33.0981], [150.8517, -33.09], [150.8532, -33.0834], [150.8484, -33.0745], [150.8513, -33.0662], [150.857, -33.0642], [150.8534, -33.0593], [150.8532, -33.0527], [150.8525, -33.049], [150.8545, -33.0462], [150.8512, -33.042], [150.858, -33.0431], [150.8528, -33.037], [150.8545, -33.0319], [150.8466, -33.0354], [150.8385, -33.0346], [150.8302, -33.0331], [150.8272, -33.0287], [150.8185, -33.0236], [150.8207, -33.0171], [150.8148, -33.0157], [150.8057, -33.0104], [150.7638, -33.0003], [150.7567, -33.0153], [150.7512, -33.0205], [150.7445, -33.0197], [150.7416, -33.0184], [150.7356, -33.0161], [150.7264, -33.013], [150.7114, -33.0145], [150.7032, -33.0106], [150.7039, -33.0053], [150.6966, -32.9985], [150.694, -32.9961], [150.6873, -33.0014], [150.6772, -33.0133], [150.6724, -33.0268], [150.6822, -33.0319], [150.6966, -33.0418], [150.7052, -33.0552], [150.7159, -33.0644], [150.7279, -33.072], [150.6296, -33.0615], [150.6116, -33.0709], [150.6056, -33.0739], [150.6142, -33.0735], [150.6136, -33.0892], [150.6123, -33.0926], [150.6068, -33.101], [150.6059, -33.1031], [150.6175, -33.1038], [150.6099, -33.1084], [150.6124, -33.1153], [150.6082, -33.1199], [150.6017, -33.1226], [150.6044, -33.132], [150.6118, -33.1389], [150.6047, -33.1473], [150.5929, -33.1476], [150.5898, -33.1603], [150.5856, -33.166], [150.5697, -33.168], [150.5698, -33.1559], [150.5642, -33.162], [150.5552, -33.1674], [150.5558, -33.1753], [150.544, -33.185], [150.539, -33.1878], [150.5313, -33.1913], [150.5238, -33.1946], [150.5333, -33.2106], [150.5443, -33.2209], [150.5296, -33.2276], [150.5257, -33.239], [150.5439, -33.256], [150.555, -33.2542], [150.5626, -33.2653], [150.5532, -33.2748], [150.5756, -33.2896], [150.5608, -33.2889], [150.5568, -33.294], [150.5667, -33.3063], [150.5515, -33.3112], [150.5596, -33.3203], [150.5856, -33.3253], [150.591, -33.3369], [150.5884, -33.3436], [150.581, -33.3514], [150.5748, -33.3578], [150.5666, -33.3597], [150.5591, -33.366], [150.5417, -33.3762], [150.5343, -33.3821], [150.5292, -33.3908], [150.5184, -33.4091], [150.5012, -33.4208], [150.5004, -33.4286], [150.4926, -33.4407], [150.4864, -33.4541], [150.4831, -33.4689], [150.4846, -33.4806], [150.4867, -33.4847], [150.4784, -33.4924], [150.4638, -33.5012], [150.4575, -33.5069], [150.4474, -33.5117], [150.4302, -33.5379], [150.4355, -33.5482], [150.447, -33.5645], [150.4507, -33.574], [150.4648, -33.5757], [150.4763, -33.5828], [150.4879, -33.5831], [150.5103, -33.5829], [150.5157, -33.5778], [150.5307, -33.5693], [150.5339, -33.5573], [150.5451, -33.5614], [150.547, -33.5696], [150.5509, -33.573], [150.5649, -33.5755], [150.5645, -33.5901], [150.5631, -33.6101], [150.5817, -33.6228], [150.6009, -33.6145], [150.616, -33.6141], [150.6074, -33.6629], [150.616, -33.662], [150.6337, -33.6587], [150.6533, -33.681], [150.659, -33.6855], [150.6558, -33.7169], [150.6484, -33.7218], [150.6425, -33.7302], [150.6463, -33.7344], [150.6406, -33.748], [150.6449, -33.752], [150.6428, -33.7751], [150.643, -33.7798], [150.6091, -33.8226], [150.5904, -33.8374], [150.5927, -33.8554], [150.6091, -33.8571], [150.5944, -33.8699], [150.6128, -33.8618], [150.62, -33.861], [150.6354, -33.856], [150.6367, -33.8665], [150.6395, -33.8763], [150.6346, -33.8868], [150.6399, -33.8783], [150.6367, -33.8665]], [[150.6395, -33.8763], [150.6894, -33.8797], [150.6983, -33.864], [150.7195, -33.8692], [150.815, -33.8794], [150.8286, -33.8756], [150.8522, -33.8834], [150.8571, -33.8944], [150.8964, -33.9074], [150.9078, -33.9142], [150.915, -33.9082], [150.9279, -33.9074], [150.9298, -33.9072], [150.9362, -33.9033], [150.9418, -33.9048], [150.9409, -33.9061], [150.9498, -33.9054], [150.964, -33.899], [150.9616, -33.903], [150.9681, -33.9108], [150.9739, -33.9185], [150.9774, -33.9092], [150.9734, -33.901], [150.9684, -33.8965], [150.9733, -33.8894], [150.9956, -33.8689], [151.0394, -33.8877], [151.0586, -33.8843], [151.0551, -33.8886], [151.0682, -33.8858], [151.0686, -33.9056], [151.0643, -33.9078], [151.0877, -33.9], [151.0994, -33.9028], [151.0974, -33.9037]], [[150.8104, -33.7942], [150.8115, -33.7881], [150.8101, -33.7839], [150.8062, -33.7783], [150.8021, -33.7701], [150.7917, -33.756], [150.7888, -33.7512], [150.7866, -33.7462], [150.7786, -33.74], [150.769, -33.7331], [150.7618, -33.7352], [150.764, -33.7263], [150.7657, -33.7189], [150.7661, -33.7055], [150.7762, -33.7041], [150.779, -33.6969], [150.7904, -33.6867], [150.7968, -33.6791], [150.8044, -33.6744], [150.7955, -33.6846], [150.7912, -33.6888], [150.7788, -33.7021], [150.772, -33.7014], [150.7677, -33.7135], [150.7625, -33.721], [150.7596, -33.7301], [150.7673, -33.7356], [150.7777, -33.7378], [150.7833, -33.7404], [150.7892, -33.7468], [150.793, -33.7535], [150.7955, -33.7641], [150.8034, -33.7771], [150.8082, -33.7837], [150.8094, -33.7879], [150.8104, -33.7942], [150.8157, -33.8077], [150.8158, -33.817], [150.8208, -33.8267], [150.8235, -33.8359], [150.8203, -33.8807], [150.8398, -33.8747], [150.8646, -33.8835], [150.8678, -33.8958], [150.9037, -33.9086], [150.9113, -33.9082], [150.9173, -33.9039], [150.9287, -33.9052], [150.9335, -33.9067], [150.9415, -33.9029], [150.9392, -33.9047], [150.9493, -33.9024], [150.9607, -33.8988], [150.9665, -33.9027], [150.9662, -33.9097], [150.9737, -33.907], [150.9793, -33.9057], [150.9725, -33.8981], [150.9672, -33.8901], [150.9905, -33.8641], [150.9615, -33.8699], [150.9616, -33.8634], [150.9562, -33.8577], [150.9469, -33.8541], [150.9574, -33.8605], [150.9599, -33.8646], [150.9825, -33.8572], [151.0301, -33.8878], [151.0491, -33.8858], [151.0664, -33.8737], [151.0567, -33.8645], [151.0605, -33.8612], [151.0537, -33.8508], [151.0814, -33.85], [151.0807, -33.8444], [151.0824, -33.8393], [151.0832, -33.8279], [151.0895, -33.8228], [151.0932, -33.8284], [151.0913, -33.8347], [151.0968, -33.8307], [151.0989, -33.8358], [151.1025, -33.8384], [151.1026, -33.8441], [151.1041, -33.8344], [151.1117, -33.8378], [151.1166, -33.8413], [151.1151, -33.8497], [151.1138, -33.854], [151.1218, -33.8574], [151.1188, -33.8646], [151.1258, -33.8507], [151.1277, -33.8438], [151.1331, -33.8495], [151.1438, -33.8489], [151.1423, -33.8533], [151.1495, -33.8469], [151.1444, -33.8435], [151.154, -33.8421], [151.157, -33.8456], [151.1631, -33.8546], [151.1609, -33.8583], [151.1566, -33.8594], [151.1496, -33.8621], [151.1454, -33.8648], [151.1417, -33.8683], [151.1372, -33.873], [151.1233, -33.8715], [151.0945, -33.8719], [151.083, -33.8546], [151.0811, -33.8489]], [[150.8963, -33.4374], [150.8993, -33.4344], [150.8938, -33.4272], [150.9245, -33.4183], [150.9036, -33.4195], [150.8933, -33.4303], [150.8963, -33.4374], [150.8854, -33.4462], [150.879, -33.4557], [150.8983, -33.4517], [150.9048, -33.472], [150.8766, -33.4708], [150.879, -33.4865], [150.8697, -33.4977], [150.8746, -33.5014], [150.9009, -33.4894], [150.9255, -33.502], [150.9247, -33.5113], [150.9127, -33.5165], [150.8985, -33.5123], [150.9078, -33.5226], [150.8958, -33.5355], [150.8931, -33.5486], [150.8897, -33.5615], [150.8939, -33.5608], [150.8995, -33.5562], [150.909, -33.5577], [150.9204, -33.5572], [150.9264, -33.5587], [150.9325, -33.5595], [150.874, -33.6567], [150.8947, -33.663], [150.8587, -33.6463], [150.9357, -33.5648], [150.9293, -33.5615], [150.9218, -33.5611], [150.9166, -33.5546], [150.9038, -33.5545], [150.8961, -33.5553], [150.8897, -33.5615]], [[150.2248, -33.5603], [150.2255, -33.5717], [150.2282, -33.575], [150.2354, -33.5814], [150.2369, -33.5933], [150.2432, -33.6024], [150.249, -33.6091], [150.259, -33.6175], [150.2708, -33.6229], [150.2671, -33.6316], [150.2619, -33.6417], [150.2378, -33.6512], [150.2482, -33.6641], [150.2314, -33.663], [150.2148, -33.6748], [150.1811, -33.7044], [150.1775, -33.7161], [150.1792, -33.7221], [150.1957, -33.7129], [150.1991, -33.7168], [150.2072, -33.714], [150.2099, -33.7261], [150.1952, -33.7343], [150.1797, -33.7435], [150.1858, -33.7508], [150.1957, -33.758], [150.1957, -33.7666], [150.189, -33.7763], [150.179, -33.7846], [150.1715, -33.7882], [150.1687, -33.7951], [150.1794, -33.7969], [150.1736, -33.8165], [150.1693, -33.827], [150.1786, -33.8304], [150.1854, -33.8377], [150.1818, -33.8479], [150.1757, -33.8612], [150.1662, -33.8656], [150.1792, -33.8731], [150.1963, -33.8777], [150.2143, -33.8822], [150.239, -33.8791], [150.2471, -33.8692], [150.2653, -33.8651], [150.2719, -33.8598], [150.2903, -33.8519], [150.3049, -33.8454], [150.321, -33.8494], [150.3246, -33.8561], [150.3389, -33.8504], [150.3406, -33.8565], [150.3198, -33.8531], [150.3121, -33.8517], [150.3016, -33.8455], [150.2796, -33.8508], [150.2661, -33.8591], [150.2541, -33.8718], [150.2456, -33.8779], [150.2352, -33.8844], [150.2066, -33.8851], [150.1898, -33.886], [150.1852, -33.8804], [150.1786, -33.8839], [150.1714, -33.8883], [150.1642, -33.8862], [150.1562, -33.8944], [150.169, -33.8988], [150.1652, -33.9154], [150.1712, -33.9289], [150.1752, -33.939], [150.1803, -33.9455], [150.1904, -33.9503], [150.21, -33.9374], [150.2188, -33.9384], [150.2412, -33.952], [150.2372, -33.9655], [150.2322, -33.9713], [150.2285, -33.9787], [150.2166, -33.9874], [150.209, -33.9978], [150.2016, -34.0049], [150.1903, -34.0105], [150.1814, -34.0183], [150.1714, -34.0228], [150.1669, -34.0215], [150.1694, -34.0273], [150.1672, -34.033], [150.1603, -34.0378], [150.1547, -34.0355], [150.1534, -34.0429], [150.1471, -34.0453], [150.1407, -34.051], [150.1423, -34.0733], [150.1369, -34.0743], [150.128, -34.0769], [150.1328, -34.0821], [150.117, -34.0779], [150.1186, -34.0891], [150.1149, -34.0904], [150.109, -34.0849], [150.1068, -34.091], [150.1113, -34.1006], [150.1048, -34.1094], [150.1128, -34.1267], [150.1133, -34.1365], [150.1234, -34.1413], [150.1149, -34.151], [150.1077, -34.1463], [150.1052, -34.1385], [150.0889, -34.1311], [150.0855, -34.1206], [150.0712, -34.1316], [150.0414, -34.1204], [150.0315, -34.1277], [150.0216, -34.1292], [150.0205, -34.1347], [150.0224, -34.1442], [150.029, -34.1473], [150.0295, -34.1438], [150.0362, -34.1451], [150.0419, -34.1483], [150.0464, -34.1477], [150.0445, -34.1525], [150.046, -34.1601], [150.055, -34.1734], [150.0619, -34.1762], [150.0634, -34.1831], [150.066, -34.1953], [150.0648, -34.2], [150.0639, -34.2061], [150.0573, -34.2104], [150.0515, -34.2254], [150.0498, -34.2342], [150.0618, -34.2377], [150.0574, -34.2438], [150.0542, -34.2474], [150.0576, -34.2516], [150.0601, -34.2581], [150.0606, -34.2686], [150.0835, -34.2723], [150.0962, -34.2664], [150.0968, -34.2783], [150.1247, -34.2881], [150.1359, -34.2938], [150.1499, -34.2955], [150.157, -34.3058], [150.1781, -34.3078], [150.197, -34.3041], [150.213, -34.2792], [150.2248, -34.2718], [150.2311, -34.2446], [150.2353, -34.228], [150.261, -34.2151], [150.2697, -34.2143], [150.2716, -34.2225], [150.2782, -34.2244], [150.2859, -34.2285], [150.3313, -34.2322], [150.3412, -34.2343], [150.3518, -34.239], [150.3572, -34.2369], [150.5514, -34.2666], [150.5457, -34.2806], [150.5393, -34.2899], [150.5418, -34.2945], [150.5617, -34.3048], [150.5652, -34.311], [150.5657, -34.3234], [150.5621, -34.3312], [150.5944, -34.3193], [150.7457, -34.3374], [150.6363, -34.5461], [150.6493, -34.5456], [150.6664, -34.5487], [150.6789, -34.5535], [150.6785, -34.5462], [150.6851, -34.5448], [150.687, -34.5489], [150.6933, -34.5478], [150.6971, -34.5474], [150.7128, -34.549], [150.7287, -34.5496], [150.7422, -34.5528], [150.7467, -34.5537], [150.7643, -34.5537], [150.7708, -34.5535], [150.781, -34.5472], [150.7992, -34.5523], [150.8065, -34.5507], [150.805, -34.5471], [150.8008, -34.5514], [150.8014, -34.5428], [150.8135, -34.5342], [150.8076, -34.5251], [150.8089, -34.5249], [150.8193, -34.5186], [150.8117, -34.5092], [150.8204, -34.5007], [150.8302, -34.5015], [150.8312, -34.4919], [150.8372, -34.4888], [150.8539, -34.4836], [150.8586, -34.4882], [150.8705, -34.4922], [150.8869, -34.4978], [150.8735, -34.4988], [150.8694, -34.5247], [150.8655, -34.5335], [150.8719, -34.5411], [150.878, -34.5259], [150.9088, -34.4932], [150.9177, -34.491], [150.9187, -34.4866], [150.9137, -34.481], [150.9131, -34.4748], [150.9028, -34.4726], [150.904, -34.4697], [150.9046, -34.4675], [150.9026, -34.467], [150.9, -34.4648], [150.887, -34.4573], [150.8841, -34.458], [150.8884, -34.4522], [150.8929, -34.4561], [150.8988, -34.462], [150.9022, -34.4627], [150.9005, -34.4511], [150.9024, -34.4332], [150.9109, -34.4213], [150.9021, -34.4077], [150.9136, -34.3867], [150.9159, -34.3839], [150.9267, -34.3757], [150.9313, -34.3687], [150.9211, -34.3636], [150.9213, -34.3491], [150.9226, -34.3462], [150.9275, -34.3396], [150.9257, -34.3334], [150.9244, -34.3274], [150.9357, -34.3064], [150.9382, -34.3037], [150.9417, -34.2975], [150.9475, -34.2905], [150.9497, -34.2863], [150.9562, -34.2783], [150.9643, -34.2705], [150.968, -34.2672], [150.9737, -34.2585], [150.9774, -34.2517], [150.9787, -34.2493], [150.9862, -34.2366], [150.9933, -34.228], [151.0044, -34.221], [151.0129, -34.2131], [151.0258, -34.2028], [151.0386, -34.1949], [151.0548, -34.1851], [151.0575, -34.1783], [151.0662, -34.1723], [151.0608, -34.1685], [151.0545, -34.1715], [151.0141, -34.1632], [151.0189, -34.1559], [151.0137, -34.1545], [150.9799, -34.1384], [150.9236, -34.1265]], [[151.2783, -33.861], [151.2863, -33.8576], [151.2807, -33.8327], [151.2792, -33.8392], [151.2817, -33.8436], [151.2776, -33.847], [151.2746, -33.8486], [151.27, -33.8473], [151.269, -33.8582], [151.2706, -33.8659], [151.2628, -33.8703], [151.2563, -33.8715], [151.2567, -33.8642], [151.2485, -33.8663], [151.243, -33.8738], [151.2419, -33.8686], [151.237, -33.8671], [151.2342, -33.8736], [151.2278, -33.879], [151.2367, -33.8906], [151.2662, -33.8867], [151.2719, -33.8761], [151.2783, -33.861]], [[151.0901, -33.4806], [151.0798, -33.4488], [151.0786, -33.4576], [151.0719, -33.463], [151.0632, -33.4425], [151.0441, -33.4297], [151.0323, -33.4273], [151.0338, -33.4094], [151.0212, -33.4006], [150.9948, -33.3994], [150.9891, -33.3792], [150.9887, -33.3825], [150.9853, -33.3877], [150.9856, -33.4018], [150.9798, -33.4124], [150.9721, -33.4217], [150.9929, -33.4458], [151.0051, -33.4661], [151.0102, -33.4834], [151.0212, -33.4921], [151.0291, -33.517], [151.0111, -33.532], [151.0101, -33.5443], [151.0088, -33.5547], [151.008, -33.5692], [151.0113, -33.5819], [151.007, -33.593], [151.0074, -33.6011], [151.0193, -33.6145], [151.0219, -33.6279], [151.0198, -33.6518], [151.0253, -33.6722], [151.0276, -33.6873], [151.0302, -33.696], [151.0144, -33.7041], [151.0112, -33.7101], [151.0168, -33.7307], [151.0327, -33.7381], [151.0499, -33.748], [151.049, -33.7588], [151.0707, -33.7618], [151.1015, -33.7624], [151.1053, -33.7575], [151.1006, -33.7548], [151.0935, -33.7478], [151.0922, -33.7409], [151.0937, -33.7295], [151.1066, -33.7276], [151.1099, -33.7187], [151.1183, -33.6995], [151.1288, -33.6897], [151.1363, -33.6823], [151.1469, -33.6747], [151.1554, -33.667], [151.1588, -33.6623], [151.1589, -33.6524], [151.1495, -33.6555], [151.1592, -33.6453], [151.1623, -33.642], [151.1616, -33.6401], [151.1623, -33.6359], [151.1704, -33.6291], [151.1666, -33.6266], [151.1756, -33.6202], [151.1872, -33.6179], [151.1987, -33.6149], [151.2014, -33.6123], [151.2084, -33.6105], [151.2131, -33.6016], [151.2139, -33.5969], [151.2044, -33.5929], [151.2017, -33.592], [151.1918, -33.5917], [151.2113, -33.59], [151.2195, -33.5943], [151.2245, -33.5938], [151.2328, -33.594], [151.2375, -33.5859], [151.244, -33.5828], [151.2471, -33.579], [151.2403, -33.5726], [151.2345, -33.5656], [151.2256, -33.5674], [151.2235, -33.5722], [151.2219, -33.5759], [151.2153, -33.5717], [151.2141, -33.5691], [151.222, -33.5694], [151.2256, -33.5589], [151.2284, -33.5544], [151.2314, -33.5508], [151.2331, -33.5475], [151.231, -33.5385], [151.2185, -33.542], [151.2022, -33.544], [151.229, -33.5415], [151.2192, -33.5455], [151.1997, -33.5468], [151.1999, -33.5418], [151.1851, -33.5293], [151.1812, -33.5254], [151.1725, -33.5242], [151.1654, -33.5355], [151.1605, -33.5342], [151.1489, -33.5368], [151.1549, -33.5429], [151.1585, -33.5491], [151.1696, -33.5585], [151.158, -33.5524], [151.1518, -33.5514], [151.1598, -33.5621], [151.1592, -33.5682], [151.1554, -33.5702], [151.157, -33.5744], [151.1464, -33.5722], [151.1409, -33.5731], [151.1337, -33.5709], [151.1369, -33.5793], [151.1416, -33.5835], [151.1437, -33.5836], [151.1326, -33.5814], [151.1261, -33.5848], [151.1234, -33.5858], [151.1245, -33.5949], [151.1208, -33.5995], [151.1227, -33.5965], [151.1161, -33.5875], [151.1086, -33.5876], [151.1201, -33.586], [151.1296, -33.5773], [151.1285, -33.5719], [151.1415, -33.566], [151.1443, -33.5652], [151.1446, -33.5637], [151.1515, -33.5622], [151.1484, -33.548], [151.1449, -33.5421], [151.1388, -33.5505], [151.1313, -33.5492], [151.1283, -33.5416], [151.1187, -33.5427], [151.1381, -33.5415], [151.138, -33.5284], [151.1367, -33.5259], [151.1264, -33.5311], [151.1313, -33.5193], [151.1225, -33.5187], [151.1118, -33.5089], [151.117, -33.5047], [151.1213, -33.5106], [151.1278, -33.5172], [151.1338, -33.5134], [151.1355, -33.5178], [151.1408, -33.5244], [151.1485, -33.523], [151.1539, -33.5239], [151.1553, -33.4989], [151.1425, -33.4966], [151.1345, -33.4881], [151.1438, -33.4905], [151.1527, -33.4735], [151.1546, -33.4653], [151.1388, -33.4754], [151.126, -33.4667], [151.121, -33.4682], [151.1158, -33.4714]], [[151.2841, -33.6317], [151.287, -33.6304], [151.2832, -33.624], [151.2873, -33.6228], [151.2945, -33.6229], [151.3003, -33.6152], [151.3017, -33.6102], [151.2925, -33.6053], [151.3031, -33.5947], [151.3013, -33.5892], [151.3108, -33.5796], [151.2981, -33.5724], [151.2895, -33.5736], [151.2812, -33.58], [151.2723, -33.583], [151.2685, -33.5861], [151.2495, -33.5886], [151.2587, -33.5933], [151.2626, -33.5977], [151.2563, -33.5968], [151.2525, -33.6013], [151.2467, -33.6025], [151.2435, -33.5944], [151.2391, -33.5997], [151.2316, -33.6035], [151.2232, -33.6038], [151.2184, -33.6018], [151.226, -33.6074], [151.2249, -33.6144], [151.2236, -33.617], [151.2185, -33.6091], [151.2045, -33.6156], [151.1855, -33.6223], [151.1799, -33.6259], [151.1734, -33.6319], [151.1692, -33.637], [151.1669, -33.6378], [151.1648, -33.6483], [151.1631, -33.6494], [151.1613, -33.6541], [151.1615, -33.6605], [151.1672, -33.6732], [151.1657, -33.6859], [151.1726, -33.6931], [151.1885, -33.6986], [151.1878, -33.7206], [151.1917, -33.7283], [151.1826, -33.7324], [151.185, -33.7439], [151.1939, -33.7502], [151.1958, -33.754], [151.1933, -33.7602], [151.1985, -33.7682], [151.2023, -33.7734], [151.2121, -33.7765], [151.2144, -33.7822], [151.2294, -33.7825], [151.2291, -33.7745], [151.2331, -33.7768], [151.2366, -33.7892], [151.2389, -33.7984], [151.242, -33.8041], [151.2499, -33.803], [151.2512, -33.8073], [151.2597, -33.8123], [151.2692, -33.8111], [151.2751, -33.81], [151.2703, -33.804], [151.2654, -33.7998], [151.2689, -33.7978], [151.2817, -33.7987], [151.2865, -33.8023], [151.2826, -33.8092], [151.2872, -33.8093], [151.2864, -33.8153], [151.2855, -33.8188], [151.2911, -33.8204], [151.302, -33.8226], [151.3036, -33.8159], [151.3062, -33.8117], [151.3036, -33.8064], [151.2941, -33.8009], [151.2879, -33.7919], [151.2913, -33.7858], [151.2925, -33.7807], [151.2932, -33.7732], [151.3025, -33.7682], [151.2975, -33.7536], [151.2995, -33.7474], [151.2914, -33.7467], [151.3042, -33.7465], [151.3133, -33.7386], [151.3002, -33.727], [151.3079, -33.7035], [151.2932, -33.7214], [151.2826, -33.7135], [151.2715, -33.7201], [151.2706, -33.7176], [151.2812, -33.7087], [151.2919, -33.7145], [151.2955, -33.7109], [151.2978, -33.7036], [151.3102, -33.7038], [151.3107, -33.6979], [151.3088, -33.6919], [151.3143, -33.6791], [151.3163, -33.6758], [151.3182, -33.6713], [151.3261, -33.6623], [151.3255, -33.6497], [151.3275, -33.6467], [151.3343, -33.6438], [151.3348, -33.6335], [151.3403, -33.6261], [151.3391, -33.6173], [151.3318, -33.6128], [151.3364, -33.6066], [151.331, -33.6018], [151.327, -33.6], [151.3287, -33.584], [151.3353, -33.5823], [151.3235, -33.579], [151.3257, -33.5815], [151.3188, -33.5935], [151.3159, -33.6022], [151.3268, -33.618], [151.3212, -33.6211], [151.317, -33.6239], [151.3111, -33.6349], [151.3053, -33.638], [151.3052, -33.6439], [151.3023, -33.6483], [151.304, -33.652], [151.3026, -33.6558], [151.3084, -33.6555], [151.3084, -33.6595], [151.3085, -33.6621], [151.3097, -33.6634], [151.3101, -33.6669], [151.3011, -33.6673], [151.3017, -33.6609], [151.2973, -33.6591], [151.2892, -33.6534], [151.287, -33.65], [151.2791, -33.6457], [151.2804, -33.653], [151.2722, -33.659], [151.2698, -33.6556], [151.2746, -33.6451], [151.2768, -33.6381], [151.2827, -33.6366], [151.2704, -33.6315], [151.2841, -33.6317]], [[150.3389, -33.8504], [150.3388, -33.8467], [150.3421, -33.8451], [150.3478, -33.8441], [150.3539, -33.8425], [150.3592, -33.8377], [150.3531, -33.8336], [150.3568, -33.8257], [150.36, -33.8166], [150.3649, -33.8112], [150.3612, -33.8077], [150.4179, -33.8094], [150.4095, -33.8299], [150.4067, -33.8474], [150.4051, -33.856], [150.4084, -33.8664], [150.4197, -33.8757], [150.4258, -33.883], [150.449, -33.8865], [150.4577, -33.8928], [150.4678, -33.8994], [150.4817, -33.8873], [150.4919, -33.8844], [150.4889, -33.8748], [150.5017, -33.8649], [150.5152, -33.8699], [150.5296, -33.8765], [150.5395, -33.8857], [150.5228, -33.8769], [150.5066, -33.8685], [150.4889, -33.8727], [150.4934, -33.8768], [150.4872, -33.8839], [150.4766, -33.8867], [150.4642, -33.9006], [150.4577, -33.8928]], [[151.138, -33.6781], [151.1488, -33.6698], [151.1543, -33.6637], [151.1606, -33.6596], [151.1689, -33.6681], [151.1719, -33.6775], [151.1675, -33.6881], [151.1738, -33.6918], [151.1762, -33.6978], [151.1914, -33.7027], [151.189, -33.7257], [151.1871, -33.7284], [151.1804, -33.7407], [151.1884, -33.7436], [151.1936, -33.7527], [151.1913, -33.7559], [151.1983, -33.7622], [151.2025, -33.7701], [151.2075, -33.7773], [151.1715, -33.7911], [151.1591, -33.7987], [151.1525, -33.7904], [151.1469, -33.7883], [151.1448, -33.7856], [151.1397, -33.7823], [151.1368, -33.776], [151.1329, -33.7731], [151.1199, -33.7684], [151.1168, -33.7613], [151.1055, -33.7614], [151.102, -33.7542], [151.0986, -33.7485], [151.0908, -33.7445], [151.09, -33.7354], [151.1006, -33.7304], [151.1083, -33.7183], [151.1163, -33.7103], [151.1234, -33.6892], [151.1378, -33.6844], [151.138, -33.6781]], [[151.0251, -33.9712], [151.0412, -33.9732], [151.0446, -33.9693], [151.0419, -33.9474], [151.0788, -33.9471], [151.0446, -33.9477], [151.0421, -33.9628], [151.0465, -33.9705], [151.0394, -33.9801], [151.0335, -33.9846], [151.034, -33.987], [151.0529, -33.991], [151.0494, -33.9802], [151.0618, -33.9752], [151.0597, -33.9775], [151.0575, -33.9862], [151.0653, -33.9828], [151.0668, -33.9882], [151.071, -33.9863], [151.0748, -33.984], [151.0717, -33.9942], [151.076, -33.994], [151.0821, -33.9894], [151.0882, -33.9826], [151.0887, -33.9867], [151.0871, -33.9913], [151.0919, -33.991], [151.0965, -33.9909], [151.0992, -33.9935], [151.1039, -33.9895], [151.1048, -33.997], [151.1093, -34.0005], [151.1103, -33.997], [151.1155, -33.9973], [151.1152, -34.0014], [151.121, -33.9911], [151.1307, -33.9839], [151.1215, -34.0004], [151.1262, -34.0017], [151.1377, -33.9595], [151.1306, -33.9661], [151.102, -33.9497], [151.094, -33.9412], [151.1158, -33.9367], [151.1008, -33.9392], [151.1189, -33.9694], [151.1348, -33.9562], [151.136, -33.9858], [151.1282, -34.006], [151.1419, -33.9973], [151.1483, -33.9851], [151.1578, -33.9593], [151.1689, -33.95], [151.1786, -33.9659], [151.1868, -33.9645], [151.1822, -33.9613], [151.1821, -33.9524], [151.1914, -33.9727], [151.1956, -33.9727], [151.1924, -33.9542], [151.2088, -33.9644], [151.2125, -33.9635], [151.2048, -33.9617], [151.2021, -33.9713], [151.2209, -33.9684], [151.2303, -33.9556], [151.2268, -33.9452], [151.2282, -33.9251], [151.2114, -33.9214], [151.1776, -33.9188], [151.1813, -33.9159], [151.1778, -33.8991], [151.1753, -33.883], [151.1735, -33.8711], [151.1875, -33.8637], [151.1851, -33.8621], [151.1904, -33.8602], [151.1966, -33.8594], [151.1888, -33.8567], [151.1846, -33.8536], [151.1823, -33.8491], [151.1808, -33.8477], [151.1714, -33.8528], [151.1686, -33.855], [151.153, -33.8664], [151.1448, -33.8697], [151.1276, -33.8743], [151.1182, -33.8767], [151.1207, -33.877], [151.1126, -33.8866], [151.1124, -33.8943], [151.0996, -33.8975], [151.0994, -33.9028], [151.1124, -33.8943], [151.1251, -33.8957], [151.126, -33.9075], [151.1344, -33.9057], [151.14, -33.9163], [151.1417, -33.9228], [151.1547, -33.9236], [151.1524, -33.9277], [151.1376, -33.9303], [151.1328, -33.9318], [151.1158, -33.9367]], [[151.1951, -33.531], [151.197, -33.5275], [151.1897, -33.5114], [151.1704, -33.502], [151.1598, -33.511], [151.16, -33.4885], [151.1535, -33.4867], [151.165, -33.4681], [151.1721, -33.4694], [151.1598, -33.4599], [151.1544, -33.4573], [151.1597, -33.4503], [151.1668, -33.4423], [151.1729, -33.438], [151.1709, -33.4311], [151.1637, -33.4271], [151.1642, -33.4342], [151.1589, -33.4367], [151.1457, -33.4479], [151.1482, -33.4612], [151.1403, -33.469], [151.1227, -33.4625], [151.1074, -33.4709], [151.0971, -33.4803], [151.086, -33.4554], [151.0751, -33.4462], [151.0756, -33.4581], [151.0691, -33.4569], [151.064, -33.4544], [151.0517, -33.4407], [151.0357, -33.4292], [151.0309, -33.4221], [151.0318, -33.4053], [151.0012, -33.4016], [150.9924, -33.3839], [150.99, -33.3779], [150.9767, -33.4002], [150.9517, -33.4137], [150.9516, -33.4275], [150.9437, -33.4249], [150.9343, -33.4165], [150.9277, -33.432], [150.9215, -33.4291], [150.9245, -33.4183], [150.925, -33.4324], [150.9343, -33.4165]], [[151.0807, -33.8444], [151.0767, -33.8351], [151.0841, -33.8222], [151.0649, -33.8249], [151.0702, -33.8062], [151.0657, -33.7909], [151.0662, -33.803], [151.0732, -33.8188], [151.0897, -33.821], [151.0943, -33.8222], [151.1015, -33.8308], [151.1087, -33.8356], [151.1108, -33.8298], [151.1162, -33.8338], [151.1159, -33.8372], [151.1212, -33.8351], [151.1254, -33.8418], [151.1283, -33.8417], [151.1377, -33.8186], [151.1394, -33.8185], [151.1469, -33.82], [151.1436, -33.8253], [151.1455, -33.8303], [151.1531, -33.8308], [151.1607, -33.8361], [151.1693, -33.8393], [151.1803, -33.8363], [151.1743, -33.8431], [151.1615, -33.8448], [151.1359, -33.8365], [151.1466, -33.8411], [151.1416, -33.8421], [151.138, -33.8447], [151.133, -33.8407], [151.1276, -33.8297], [151.1377, -33.8186], [151.1438, -33.8165], [151.1418, -33.8098], [151.144, -33.8044], [151.1489, -33.7991], [151.1591, -33.7987], [151.1523, -33.7989], [151.1439, -33.8008], [151.172, -33.8077], [151.1755, -33.812], [151.1948, -33.8221], [151.2026, -33.82], [151.2141, -33.8157], [151.2244, -33.8164], [151.2272, -33.8155], [151.2302, -33.8122], [151.2306, -33.8055], [151.2225, -33.8068], [151.2227, -33.8048], [151.224, -33.8012], [151.2308, -33.7954], [151.2269, -33.7967], [151.2214, -33.7966], [151.2195, -33.792], [151.2147, -33.7901], [151.2257, -33.7915], [151.233, -33.7897], [151.2226, -33.7863], [151.2115, -33.7787], [151.1715, -33.7911], [151.1525, -33.7904]], [[151.197, -33.5275], [151.1965, -33.5326], [151.2035, -33.5294], [151.2045, -33.5249], [151.2032, -33.5196], [151.1993, -33.522], [151.1936, -33.512], [151.1945, -33.5077], [151.1951, -33.5051], [151.1919, -33.4888], [151.2023, -33.4825], [151.2083, -33.4756], [151.2147, -33.4704], [151.2209, -33.4727], [151.2262, -33.4755], [151.232, -33.4731], [151.2285, -33.4664], [151.2293, -33.4563], [151.2336, -33.4578], [151.2371, -33.4685], [151.235, -33.4737], [151.2302, -33.4765], [151.225, -33.4782], [151.2143, -33.4764], [151.2127, -33.4862], [151.1981, -33.4914], [151.2002, -33.4984], [151.2031, -33.5047], [151.2062, -33.509], [151.2104, -33.5133], [151.2253, -33.5213], [151.2253, -33.5291], [151.2291, -33.5297], [151.2329, -33.5143], [151.2397, -33.5043], [151.2495, -33.4942], [151.2657, -33.4849], [151.2629, -33.4918], [151.2591, -33.4991], [151.2457, -33.4997], [151.247, -33.5083], [151.2373, -33.5109], [151.2376, -33.5195], [151.2368, -33.5281], [151.255, -33.5353], [151.2459, -33.5556], [151.2587, -33.5706], [151.2679, -33.565], [151.2712, -33.5612], [151.2739, -33.5509], [151.2788, -33.5536], [151.3019, -33.5569], [151.3086, -33.5509], [151.3085, -33.5456], [151.3149, -33.5354], [151.3127, -33.5298], [151.3306, -33.5244], [151.3445, -33.5176], [151.3487, -33.5115], [151.3459, -33.5075], [151.3366, -33.5018], [151.3304, -33.4983], [151.324, -33.4832], [151.3064, -33.4963], [151.3059, -33.4945], [151.3094, -33.4914], [151.318, -33.4862], [151.3045, -33.4816], [151.3014, -33.4749], [151.3071, -33.4679], [151.3158, -33.4791], [151.3201, -33.4779], [151.3243, -33.4742], [151.3199, -33.4646], [151.3184, -33.4517], [151.3321, -33.4363], [151.3198, -33.4337], [151.3203, -33.4303], [151.3228, -33.4278], [151.3311, -33.428], [151.3414, -33.4335], [151.3398, -33.4368], [151.3419, -33.4506], [151.3505, -33.4411], [151.3571, -33.4426], [151.3655, -33.437], [151.3683, -33.4406], [151.3671, -33.4456], [151.3611, -33.4504], [151.3538, -33.4597], [151.3599, -33.4695], [151.3416, -33.4715], [151.342, -33.4811], [151.3518, -33.4825], [151.3528, -33.489], [151.3646, -33.4906], [151.3741, -33.4897], [151.3649, -33.4813], [151.3794, -33.4703], [151.3789, -33.4761], [151.379, -33.4801], [151.373, -33.4862], [151.3812, -33.4892], [151.3789, -33.4979], [151.3711, -33.4995], [151.3643, -33.4996], [151.3699, -33.4937], [151.3586, -33.4898], [151.3525, -33.5014], [151.3514, -33.4995], [151.3487, -33.4973], [151.3477, -33.4962], [151.3478, -33.4925], [151.3434, -33.4958]], [[151.117, -33.1248], [151.1022, -33.1348], [151.1058, -33.1515], [151.1011, -33.1774], [151.0996, -33.1845], [151.1012, -33.1977], [151.0999, -33.2121], [151.0992, -33.2214], [151.1068, -33.2312], [151.1006, -33.2488], [151.0997, -33.2532], [151.0969, -33.2593], [151.0947, -33.2617], [151.0869, -33.269], [151.0915, -33.2793], [151.0938, -33.2847], [151.0953, -33.2916], [151.0961, -33.2998], [151.0945, -33.3085], [151.0842, -33.3185], [151.0896, -33.3269], [151.0702, -33.3329], [151.0668, -33.34], [151.0564, -33.3431], [151.0491, -33.344], [151.0395, -33.3471], [151.0245, -33.3496], [151.0164, -33.3536], [151.0003, -33.3506], [150.9874, -33.3646], [150.9867, -33.3664], [150.9842, -33.3716], [150.99, -33.3779]], [[151.2689, -33.8273], [151.2612, -33.8379], [151.2543, -33.844], [151.2481, -33.8462], [151.2462, -33.8536], [151.2369, -33.8449], [151.2334, -33.8442], [151.2329, -33.8364], [151.2313, -33.8259], [151.2329, -33.8183], [151.2391, -33.8169], [151.2378, -33.808], [151.2459, -33.8033], [151.2472, -33.8125], [151.2515, -33.8213], [151.2514, -33.8242], [151.2554, -33.8283], [151.2689, -33.8273]], [[151.1753, -33.883], [151.1748, -33.8727], [151.1893, -33.8758], [151.186, -33.8684], [151.1936, -33.8644], [151.1944, -33.8654], [151.1961, -33.8675], [151.1995, -33.8722], [151.2002, -33.8554], [151.2039, -33.8549], [151.2052, -33.8543], [151.2062, -33.8538], [151.2081, -33.8535], [151.2092, -33.8561], [151.2125, -33.8609], [151.2179, -33.8632], [151.223, -33.8623], [151.2218, -33.8657], [151.2233, -33.8666], [151.2255, -33.862], [151.2284, -33.8578], [151.2275, -33.8685], [151.2297, -33.8766], [151.2192, -33.8816], [151.2294, -33.8964], [151.242, -33.8902], [151.2529, -33.904], [151.2594, -33.9088], [151.2686, -33.9039], [151.2763, -33.899], [151.2813, -33.891], [151.2859, -33.8919], [151.2827, -33.8774], [151.2828, -33.8625], [151.2824, -33.8571], [151.2773, -33.8686], [151.2537, -33.8909], [151.242, -33.8902], [151.2486, -33.9034], [151.2542, -33.9067], [151.2708, -33.911], [151.2701, -33.9148], [151.2683, -33.9152], [151.2614, -33.9149], [151.2577, -33.922], [151.2598, -33.9296], [151.2595, -33.9373], [151.2586, -33.9456], [151.2657, -33.9588], [151.266, -33.968], [151.259, -33.9758], [151.2541, -33.9833], [151.2531, -33.9913], [151.2481, -33.9984], [151.2424, -34.0001], [151.2383, -33.9916], [151.2308, -33.9925], [151.2286, -33.9889], [151.2311, -33.9852], [151.2287, -33.9787], [151.2191, -33.9779], [151.2089, -33.9821], [151.2209, -33.9684]], [[150.2156, -33.548], [150.2261, -33.5605], [150.2363, -33.5598], [150.2413, -33.5568], [150.2577, -33.5187], [150.2568, -33.4943], [150.2727, -33.4972], [150.2768, -33.4992], [150.3119, -33.5201], [150.3356, -33.5119], [150.3445, -33.5095], [150.3492, -33.5048], [150.3474, -33.499], [150.3558, -33.4959], [150.3512, -33.4949], [150.3536, -33.4906], [150.3549, -33.4858], [150.3595, -33.4893], [150.3654, -33.4913], [150.3694, -33.4876], [150.3828, -33.4876], [150.3865, -33.4794], [150.389, -33.4847], [150.4006, -33.483], [150.3973, -33.4796], [150.4032, -33.4768], [150.4061, -33.4747], [150.4111, -33.479], [150.4126, -33.4834], [150.4169, -33.4866], [150.4247, -33.4815], [150.4418, -33.4827], [150.4483, -33.4801], [150.4493, -33.4761], [150.4499, -33.4706], [150.4508, -33.467], [150.4618, -33.456], [150.4684, -33.4541], [150.4728, -33.4386], [150.4792, -33.4297], [150.4785, -33.4253], [150.4796, -33.4214], [150.4804, -33.4149], [150.4803, -33.4087], [150.4798, -33.4033], [150.4782, -33.3968], [150.4834, -33.3912], [150.4822, -33.383], [150.4886, -33.3774], [150.4977, -33.3768], [150.5054, -33.3756], [150.5131, -33.3748], [150.5204, -33.3738], [150.5282, -33.3707], [150.5361, -33.3663], [150.5408, -33.3635], [150.5472, -33.3636], [150.5494, -33.3687], [150.5417, -33.3762]], [[150.8451, -34.1758], [150.8166, -34.1732], [150.7521, -34.1639], [150.8451, -34.1758], [150.8519, -34.1789], [150.8542, -34.1846], [150.8556, -34.1776], [150.8701, -34.1817], [150.8796, -34.1869], [150.8853, -34.1875], [150.8991, -34.1871], [150.9068, -34.1648], [150.9166, -34.1525], [150.9184, -34.1469], [150.9181, -34.138], [150.9225, -34.1278], [150.9252, -34.1164], [150.9296, -34.1103], [150.9366, -34.0951], [150.9233, -34.0898], [150.9342, -34.0816], [150.9372, -34.0753], [150.9357, -34.0685], [150.9343, -34.0586], [150.9357, -34.05], [150.9079, -34.0353], [150.8998, -34.0358], [150.8867, -34.0321], [150.8923, -34.0056], [150.8993, -34.0208], [150.9035, -34.0149], [150.9126, -34.0003], [150.9078, -33.9903], [150.903, -33.9634], [150.8993, -33.9619], [150.8868, -33.9582], [150.8518, -33.9764], [150.8335, -33.9792], [150.8212, -33.9762], [150.8095, -33.9759], [150.8085, -33.9809], [150.8081, -33.9853], [150.8025, -33.9938], [150.7988, -33.9996], [150.7964, -34.0096], [150.7877, -34.0154], [150.7897, -34.0208], [150.7907, -34.0337], [150.7899, -34.0393], [150.7933, -34.0456], [150.781, -34.0541], [150.7765, -34.0643], [150.7664, -34.0781], [150.737, -34.1128], [150.7526, -34.1172], [150.7409, -34.1186], [150.7368, -34.1098], [150.7392, -34.0776], [150.7066, -34.0776], [150.7148, -34.0897], [150.6606, -34.087], [150.6539, -34.0716], [150.662, -34.0671], [150.6589, -34.0582], [150.6605, -34.0536], [150.6688, -34.036], [150.6721, -34.0292], [150.6672, -34.028], [150.652, -34.0168], [150.661, -34.0], [150.6696, -33.9859], [150.6509, -33.9853]], [[151.0537, -33.8508], [151.0301, -33.8352], [151.0192, -33.8373], [151.0048, -33.8276], [150.9879, -33.8248], [150.9897, -33.819], [150.994, -33.8151], [150.9909, -33.8097], [150.9751, -33.808], [150.953, -33.7971], [150.9476, -33.7804], [150.9565, -33.78], [150.9653, -33.7794], [150.9682, -33.7713], [150.9276, -33.697], [150.9598, -33.7716], [150.9608, -33.7785], [150.9518, -33.7765], [150.9506, -33.7851], [150.9351, -33.7984], [150.9331, -33.8068], [150.9183, -33.8095], [150.9096, -33.8252], [150.9165, -33.8101], [150.916, -33.8054], [150.936, -33.8029], [150.938, -33.794], [150.953, -33.7971]], [[150.6558, -33.7169], [150.6598, -33.6929], [150.6608, -33.6697], [150.6664, -33.6536], [150.6852, -33.622], [150.6995, -33.6123], [150.7741, -33.6349], [150.7879, -33.6434], [150.8124, -33.6776], [150.8044, -33.6744], [150.8102, -33.6785], [150.8189, -33.6745], [150.8131, -33.6693], [150.8272, -33.6573], [150.8587, -33.6463]], [[151.1755, -33.812], [151.1882, -33.8245], [151.1983, -33.8251], [151.2021, -33.8222], [151.2059, -33.8204], [151.2191, -33.8169], [151.2258, -33.8186], [151.2277, -33.8195], [151.2311, -33.8167], [151.2284, -33.8376], [151.2273, -33.8447], [151.2247, -33.8466], [151.2152, -33.8411], [151.2153, -33.845], [151.2188, -33.8527], [151.2119, -33.8508], [151.2037, -33.8506], [151.1948, -33.8444], [151.1932, -33.8477], [151.1925, -33.8372], [151.1895, -33.8384], [151.1874, -33.8398], [151.1983, -33.8251], [151.185, -33.8388], [151.1794, -33.8404], [151.1819, -33.8333], [151.1794, -33.8326], [151.1705, -33.8309], [151.169, -33.8361], [151.166, -33.8274], [151.1594, -33.8303], [151.152, -33.8218], [151.1522, -33.8285], [151.1496, -33.8245], [151.1452, -33.8159], [151.1447, -33.8063], [151.172, -33.8077]], [[150.8158, -33.817], [150.8564, -33.8208], [150.8709, -33.8238], [150.8782, -33.829], [150.8833, -33.8323], [150.889, -33.834], [150.9096, -33.8252], [150.9124, -33.8347], [150.9226, -33.8395], [150.9293, -33.8415]], [[150.6091, -33.8226], [150.5928, -33.8325], [150.5937, -33.8563], [150.6128, -33.8618], [150.631, -33.8609], [150.6354, -33.856]], [[150.7457, -34.3374], [150.7918, -34.3071], [150.8168, -34.3064], [150.8156, -34.2949], [150.8052, -34.2713], [150.8273, -34.2749], [150.8528, -34.2799], [150.8808, -34.2585], [150.8922, -34.2358], [150.8913, -34.2291], [150.89, -34.2126], [150.9089, -34.2112], [150.9108, -34.1978], [150.9022, -34.19], [150.8701, -34.1817]], [[151.0871, -34.0883], [151.0982, -34.0859], [151.1056, -34.0794], [151.1062, -34.0718], [151.102, -34.0654], [151.1004, -34.0633], [151.0933, -34.0632], [151.0915, -34.067], [151.078, -34.0633], [151.0595, -34.068]], [[151.1745, -33.849], [151.1689, -33.8485], [151.1693, -33.8466], [151.1741, -33.8459], [151.1745, -33.849]], [[151.0643, -33.9078], [151.0835, -33.9021], [151.0945, -33.8719], [151.0814, -33.85], [151.064, -33.8561], [151.0639, -33.8638], [151.0612, -33.8664], [151.0643, -33.8705], [151.0641, -33.8801], [151.0615, -33.883], [151.0551, -33.8886]], [[150.9279, -33.8412], [150.9332, -33.8456], [150.9377, -33.8494], [150.9469, -33.8541]], [[151.3209, -33.5572], [151.318, -33.5585], [151.315, -33.5558], [151.3209, -33.5572]], [[151.0504, -33.7586], [151.0297, -33.7646], [150.9717, -33.7744], [150.9754, -33.773], [151.0191, -33.7628], [151.0349, -33.7609], [151.0477, -33.7537], [151.047, -33.7434], [151.0269, -33.7327], [151.019, -33.717], [151.0113, -33.7063], [151.0189, -33.694], [151.0324, -33.6923], [151.0284, -33.6799], [151.0262, -33.6639], [151.0224, -33.6432], [151.0238, -33.6213], [151.0192, -33.6099], [151.0063, -33.5976], [151.0129, -33.5859], [151.0145, -33.5728], [151.0117, -33.5626], [151.0133, -33.5488], [151.0136, -33.5383], [151.0243, -33.5236], [151.0229, -33.506], [151.0159, -33.4905], [151.0104, -33.4722], [151.0015, -33.4538], [150.9903, -33.4286], [150.9728, -33.4173], [150.9791, -33.4095], [150.9864, -33.3911], [150.984, -33.3879], [150.987, -33.378], [150.9767, -33.4002]], [[151.2428, -33.54], [151.2441, -33.5373], [151.2369, -33.5369], [151.2348, -33.5404], [151.238, -33.5424], [151.2393, -33.5402], [151.2428, -33.54]], [[151.089, -33.9], [151.0931, -33.8785], [151.0957, -33.8671], [151.1194, -33.871], [151.1182, -33.8767], [151.1126, -33.8866], [151.1251, -33.8957]], [[151.0662, -34.1723], [151.0811, -34.1668], [151.0984, -34.1537], [151.1114, -34.148], [151.1101, -34.1455], [151.118, -34.1414], [151.1184, -34.1383], [151.1279, -34.1379], [151.1374, -34.1233], [151.1412, -34.1162], [151.1519, -34.1097], [151.1599, -34.0995], [151.1718, -34.0865], [151.1652, -34.0779], [151.1562, -34.0802], [151.1452, -34.0798], [151.137, -34.0817], [151.1339, -34.0807], [151.1352, -34.0822], [151.1297, -34.0896], [151.1242, -34.0922], [151.1328, -34.0823], [151.1259, -34.0809], [151.1208, -34.0786], [151.1155, -34.0794], [151.1075, -34.0831], [151.0992, -34.0896], [151.0926, -34.0883], [151.0868, -34.0895], [151.0786, -34.0893]], [[150.616, -33.6141], [150.6154, -33.6651], [150.6328, -33.6631], [150.6576, -33.6617], [150.6536, -33.6847], [150.6589, -33.6731], [150.6671, -33.6664], [150.6772, -33.6308], [150.6944, -33.6201], [150.7118, -33.6144], [150.7908, -33.6475], [150.8124, -33.6776], [150.8189, -33.6745]], [[151.2957, -33.6416], [151.2915, -33.6445], [151.2865, -33.6412], [151.2865, -33.6385], [151.2892, -33.6361], [151.2939, -33.6363], [151.2957, -33.6416]], [[150.9357, -34.4929], [150.9278, -34.4884], [150.9267, -34.4923], [150.9291, -34.4919], [150.9311, -34.4909], [150.9346, -34.4939], [150.9357, -34.4929]], [[150.9471, -34.4645], [150.9455, -34.4655], [150.9443, -34.4643], [150.9471, -34.4645]], [[151.2168, -33.5299], [151.2141, -33.5332], [151.2045, -33.5328], [151.2122, -33.5278], [151.2168, -33.5299]], [[150.9739, -33.9185], [150.972, -33.9291], [150.9686, -33.9382], [150.9738, -33.9521], [150.9806, -33.9602], [150.9889, -33.9659]], [[150.8931, -33.5486], [150.8901, -33.5391], [150.9005, -33.5269], [150.8996, -33.5153], [150.9054, -33.5106], [150.9193, -33.5167], [150.927, -33.5031], [150.9009, -33.4894]], [[151.1536, -33.923], [151.156, -33.9316], [151.1684, -33.9277], [151.1794, -33.9202], [151.1776, -33.9188]], [[151.1831, -33.5192], [151.1797, -33.5182], [151.1786, -33.5155], [151.1779, -33.5106], [151.1761, -33.5097], [151.1773, -33.5073], [151.1805, -33.5104], [151.1831, -33.5192]], [[150.6248, -33.9314], [150.6198, -33.9475], [150.6232, -33.9602], [150.618, -33.9546], [150.6271, -33.9354], [150.6177, -33.9296], [150.6392, -33.9297], [150.6442, -33.925], [150.6485, -33.9137], [150.6385, -33.9092], [150.6491, -33.9158], [150.639, -33.9276], [150.6183, -33.9267], [150.6248, -33.9314]], [[151.0657, -33.7909], [151.0824, -33.7888], [151.085, -33.7839], [151.0938, -33.7707], [151.1055, -33.7614]], [[151.1536, -33.5282], [151.152, -33.5277], [151.1533, -33.5252], [151.1536, -33.5282]], [[150.9299, -34.4543], [150.9309, -34.4568], [150.929, -34.4561], [150.9299, -34.4543]], [[150.7195, -33.8692], [150.7934, -33.8807], [150.8235, -33.8359]], [[151.3276, -33.6599], [151.3305, -33.6609]], [[151.1376, -33.9303], [151.148, -33.9272], [151.157, -33.9293], [151.1621, -33.9337], [151.1736, -33.9265], [151.222, -33.9255], [151.2305, -33.9352], [151.2301, -33.9477], [151.2303, -33.9556]], [[150.9108, -34.1978], [150.8994, -34.1896], [150.904, -34.1848], [150.9144, -34.1585], [150.9151, -34.1503], [150.9197, -34.1423], [150.9228, -34.1334], [150.9799, -34.1384]], [[151.2114, -33.9214], [151.2233, -33.9046], [151.2294, -33.8964]], [[150.7521, -34.1639], [150.7496, -34.1512], [150.7549, -34.1356], [150.7537, -34.1284], [150.7526, -34.1172]], [[150.5443, -33.8954], [150.5609, -33.8888], [150.5641, -33.8816], [150.5745, -33.8718], [150.59, -33.8739], [150.5944, -33.8699]], [[150.9357, -34.05], [150.9481, -34.0411]], [[150.6346, -33.8868], [150.6385, -33.9092]], [[151.0707, -33.7618], [151.0938, -33.7707]], [[151.5727, -33.2907], [151.5705, -33.29], [151.5719, -33.2894], [151.5727, -33.2907]], [[150.8208, -33.8267], [150.8129, -33.8223], [150.8564, -33.8208], [150.8782, -33.829]], [[150.4784, -33.4924], [150.4831, -33.4689]], [[151.0157, -33.982], [151.0212, -33.9746], [151.0236, -33.9721], [151.0257, -33.9683]], [[150.9884, -33.9769], [150.9982, -33.9751], [150.9992, -33.9829]], [[150.5395, -33.8857], [150.5426, -33.8954]], [[150.8947, -33.663], [150.9276, -33.697]], [[151.0788, -33.9471], [151.0856, -33.9404], [151.094, -33.9412]], [[150.9682, -33.7713], [150.9717, -33.7744]]]}}]}