{"type": "FeatureCollection", "features": [{"type": "Feature", "properties": {"name": "Abbotsford", "ref": "", "mode": "ferry", "network": "Sydney Ferries", "operator": "Transdev Sydney Ferries", "lga": "City of Canada Bay", "lgaShort": "Canada Bay"}, "geometry": {"type": "Point", "coordinates": [151.1282504, -33.8436238]}}, {"type": "Feature", "properties": {"name": "Balmain", "ref": "", "mode": "ferry", "network": "", "operator": "", "lga": "City of Sydney", "lgaShort": "Sydney"}, "geometry": {"type": "Point", "coordinates": [151.1863011, -33.8545307]}}, {"type": "Feature", "properties": {"name": "Balmain East", "ref": "", "mode": "ferry", "network": "", "operator": "", "lga": "City of Sydney", "lgaShort": "Sydney"}, "geometry": {"type": "Point", "coordinates": [151.1962419, -33.8568299]}}, {"type": "Feature", "properties": {"name": "Balmain West", "ref": "", "mode": "ferry", "network": "Sydney Ferries", "operator": "Transdev Sydney Ferries", "lga": "Inner West Council", "lgaShort": "Inner West"}, "geometry": {"type": "Point", "coordinates": [151.1685498, -33.8549888]}}, {"type": "Feature", "properties": {"name": "Barangaroo", "ref": "", "mode": "ferry", "network": "Sydney Ferries", "operator": "Transdev Sydney Ferries", "lga": "City of Sydney", "lgaShort": "Sydney"}, "geometry": {"type": "Point", "coordinates": [151.2004232, -33.8641723]}}, {"type": "Feature", "properties": {"name": "Beulah Street", "ref": "", "mode": "ferry", "network": "", "operator": "", "lga": "North Sydney Council", "lgaShort": "North Sydney"}, "geometry": {"type": "Point", "coordinates": [151.2170734, -33.8518201]}}, {"type": "Feature", "properties": {"name": "Birchgrove", "ref": "", "mode": "ferry", "network": "", "operator": "", "lga": "North Sydney Council", "lgaShort": "North Sydney"}, "geometry": {"type": "Point", "coordinates": [151.1864566, -33.8463698]}}, {"type": "Feature", "properties": {"name": "Blackwattle Bay", "ref": "", "mode": "ferry", "network": "Sydney Ferries", "operator": "Transdev Sydney Ferries", "lga": "City of Sydney", "lgaShort": "Sydney"}, "geometry": {"type": "Point", "coordinates": [151.1852378, -33.8713832]}}, {"type": "Feature", "properties": {"name": "Bundeena", "ref": "", "mode": "ferry", "network": "", "operator": "", "lga": "Sutherland Shire", "lgaShort": "Sutherland"}, "geometry": {"type": "Point", "coordinates": [151.1506701, -34.0827153]}}, {"type": "Feature", "properties": {"name": "Cabarita", "ref": "", "mode": "ferry", "network": "Sydney Ferries", "operator": "Transdev Sydney Ferries", "lga": "City of Canada Bay", "lgaShort": "Canada Bay"}, "geometry": {"type": "Point", "coordinates": [151.1169013, -33.8406661]}}, {"type": "Feature", "properties": {"name": "Casino", "ref": "", "mode": "ferry", "network": "", "operator": "NSW Maritime", "lga": "City of Sydney", "lgaShort": "Sydney"}, "geometry": {"type": "Point", "coordinates": [151.1963453, -33.8669987]}}, {"type": "Feature", "properties": {"name": "Chiswick", "ref": "", "mode": "ferry", "network": "Sydney Ferries", "operator": "Transdev Sydney Ferries", "lga": "Hunter's Hill", "lgaShort": "Hunters Hill"}, "geometry": {"type": "Point", "coordinates": [151.1418525, -33.8454015]}}, {"type": "Feature", "properties": {"name": "Circular Quay", "ref": "", "mode": "ferry", "network": "", "operator": "", "lga": "City of Sydney", "lgaShort": "Sydney"}, "geometry": {"type": "Point", "coordinates": [151.2121354, -33.8606756]}}, {"type": "Feature", "properties": {"name": "Clarke Road", "ref": "", "mode": "ferry", "network": "", "operator": "", "lga": "Hunter's Hill", "lgaShort": "Hunters Hill"}, "geometry": {"type": "Point", "coordinates": [151.1743189, -33.8412427]}}, {"type": "Feature", "properties": {"name": "Clifton Gardens", "ref": "", "mode": "ferry", "network": "", "operator": "", "lga": "Mosman Council", "lgaShort": "Mosman"}, "geometry": {"type": "Point", "coordinates": [151.2537049, -33.8398627]}}, {"type": "Feature", "properties": {"name": "Cockatoo Island", "ref": "", "mode": "ferry", "network": "Sydney Ferries", "operator": "Transdev Sydney Ferries", "lga": "Lane Cove", "lgaShort": "Lane Cove"}, "geometry": {"type": "Point", "coordinates": [151.1734436, -33.8454805]}}, {"type": "Feature", "properties": {"name": "Cronulla", "ref": "", "mode": "ferry", "network": "", "operator": "", "lga": "Sutherland Shire", "lgaShort": "Sutherland"}, "geometry": {"type": "Point", "coordinates": [151.1496597, -34.0563421]}}, {"type": "Feature", "properties": {"name": "Darling Harbour", "ref": "", "mode": "ferry", "network": "", "operator": "", "lga": "City of Sydney", "lgaShort": "Sydney"}, "geometry": {"type": "Point", "coordinates": [151.2007539, -33.8661252]}}, {"type": "Feature", "properties": {"name": "Darling Point", "ref": "", "mode": "ferry", "network": "", "operator": "", "lga": "Woollahra", "lgaShort": "Woollahra"}, "geometry": {"type": "Point", "coordinates": [151.2395702, -33.8664091]}}, {"type": "Feature", "properties": {"name": "Double Bay", "ref": "20281", "mode": "ferry", "network": "Sydney Ferries", "operator": "Transdev Sydney Ferries", "lga": "Woollahra", "lgaShort": "Woollahra"}, "geometry": {"type": "Point", "coordinates": [151.2426643, -33.8727774]}}, {"type": "Feature", "properties": {"name": "Drummoyne Ferry", "ref": "", "mode": "ferry", "network": "Sydney Ferries", "operator": "Transdev Sydney Ferries", "lga": "Hunter's Hill", "lgaShort": "Hunters Hill"}, "geometry": {"type": "Point", "coordinates": [151.1572043, -33.8454206]}}, {"type": "Feature", "properties": {"name": "Fort Denison", "ref": "", "mode": "ferry", "network": "", "operator": "", "lga": "North Sydney Council", "lgaShort": "North Sydney"}, "geometry": {"type": "Point", "coordinates": [151.225432, -33.8545497]}}, {"type": "Feature", "properties": {"name": "Garden Island", "ref": "", "mode": "ferry", "network": "", "operator": "", "lga": "City of Sydney", "lgaShort": "Sydney"}, "geometry": {"type": "Point", "coordinates": [151.2299574, -33.8581058]}}, {"type": "Feature", "properties": {"name": "Greenwich", "ref": "", "mode": "ferry", "network": "", "operator": "", "lga": "Lane Cove", "lgaShort": "Lane Cove"}, "geometry": {"type": "Point", "coordinates": [151.1822646, -33.8341936]}}, {"type": "Feature", "properties": {"name": "Greenwich Point", "ref": "", "mode": "ferry", "network": "", "operator": "", "lga": "Lane Cove", "lgaShort": "Lane Cove"}, "geometry": {"type": "Point", "coordinates": [151.1806722, -33.8420141]}}, {"type": "Feature", "properties": {"name": "Hunters Hill Ferry", "ref": "", "mode": "ferry", "network": "", "operator": "", "lga": "Lane Cove", "lgaShort": "Lane Cove"}, "geometry": {"type": "Point", "coordinates": [151.1611273, -33.8357841]}}, {"type": "Feature", "properties": {"name": "Huntleys Point", "ref": "", "mode": "ferry", "network": "Sydney Ferries", "operator": "Transdev Sydney Ferries", "lga": "Hunter's Hill", "lgaShort": "Hunters Hill"}, "geometry": {"type": "Point", "coordinates": [151.141965, -33.842211]}}, {"type": "Feature", "properties": {"name": "Jefferys Street", "ref": "", "mode": "ferry", "network": "", "operator": "", "lga": "North Sydney Council", "lgaShort": "North Sydney"}, "geometry": {"type": "Point", "coordinates": [151.2139939, -33.8499776]}}, {"type": "Feature", "properties": {"name": "Kirribilli", "ref": "20614", "mode": "ferry", "network": "Sydney Ferries", "operator": "Transdev Sydney Ferries", "lga": "North Sydney Council", "lgaShort": "North Sydney"}, "geometry": {"type": "Point", "coordinates": [151.2204926, -33.8493903]}}, {"type": "Feature", "properties": {"name": "Kissing Point", "ref": "", "mode": "ferry", "network": "Sydney Ferries", "operator": "Transdev Sydney Ferries", "lga": "City of Canada Bay", "lgaShort": "Canada Bay"}, "geometry": {"type": "Point", "coordinates": [151.1019668, -33.8318083]}}, {"type": "Feature", "properties": {"name": "Kurraba Point", "ref": "20892", "mode": "ferry", "network": "Sydney Ferries", "operator": "Transdev Sydney Ferries", "lga": "North Sydney Council", "lgaShort": "North Sydney"}, "geometry": {"type": "Point", "coordinates": [151.2217027, -33.8433982]}}, {"type": "Feature", "properties": {"name": "Longueville", "ref": "", "mode": "ferry", "network": "", "operator": "", "lga": "Lane Cove", "lgaShort": "Lane Cove"}, "geometry": {"type": "Point", "coordinates": [151.1693958, -33.8361656]}}, {"type": "Feature", "properties": {"name": "Manly", "ref": "20951", "mode": "ferry", "network": "", "operator": "", "lga": "Mosman Council", "lgaShort": "Mosman"}, "geometry": {"type": "Point", "coordinates": [151.2837119, -33.8004511]}}, {"type": "Feature", "properties": {"name": "Manly Fast Ferry terminal (Circular Quay)", "ref": "209525", "mode": "ferry", "network": "", "operator": "", "lga": "Mosman Council", "lgaShort": "Mosman"}, "geometry": {"type": "Point", "coordinates": [151.2841043, -33.8005639]}}, {"type": "Feature", "properties": {"name": "McMahons Point", "ref": "", "mode": "ferry", "network": "Sydney Ferries", "operator": "Transdev Sydney Ferries", "lga": "North Sydney Council", "lgaShort": "North Sydney"}, "geometry": {"type": "Point", "coordinates": [151.2066882, -33.8488684]}}, {"type": "Feature", "properties": {"name": "Meadowbank", "ref": "21141", "mode": "ferry", "network": "Sydney Ferries", "operator": "Transdev Sydney Ferries", "lga": "City of Ryde", "lgaShort": "Ryde"}, "geometry": {"type": "Point", "coordinates": [151.0902305, -33.8213122]}}, {"type": "Feature", "properties": {"name": "Milsons Point", "ref": "20611", "mode": "ferry", "network": "Sydney Ferries", "operator": "Transdev Sydney Ferries", "lga": "North Sydney Council", "lgaShort": "North Sydney"}, "geometry": {"type": "Point", "coordinates": [151.2108613, -33.8495932]}}, {"type": "Feature", "properties": {"name": "Neutral Bay", "ref": "20891", "mode": "ferry", "network": "Sydney Ferries", "operator": "Transdev Sydney Ferries", "lga": "North Sydney Council", "lgaShort": "North Sydney"}, "geometry": {"type": "Point", "coordinates": [151.2193562, -33.8423786]}}, {"type": "Feature", "properties": {"name": "North Sydney", "ref": "20603", "mode": "ferry", "network": "Sydney Ferries", "operator": "Transdev Sydney Ferries", "lga": "North Sydney Council", "lgaShort": "North Sydney"}, "geometry": {"type": "Point", "coordinates": [151.2188413, -33.8447042]}}, {"type": "Feature", "properties": {"name": "Northwood", "ref": "", "mode": "ferry", "network": "", "operator": "", "lga": "Lane Cove", "lgaShort": "Lane Cove"}, "geometry": {"type": "Point", "coordinates": [151.1786249, -33.8325893]}}, {"type": "Feature", "properties": {"name": "Pirrama Park", "ref": "", "mode": "ferry", "network": "", "operator": "", "lga": "City of Sydney", "lgaShort": "Sydney"}, "geometry": {"type": "Point", "coordinates": [151.1910041, -33.8646364]}}, {"type": "Feature", "properties": {"name": "Pyrmont Bay", "ref": "", "mode": "ferry", "network": "Sydney Ferries", "operator": "Transdev Sydney Ferries", "lga": "City of Sydney", "lgaShort": "Sydney"}, "geometry": {"type": "Point", "coordinates": [151.198862, -33.8681952]}}, {"type": "Feature", "properties": {"name": "Riverview College", "ref": "", "mode": "ferry", "network": "", "operator": "", "lga": "Hunter's Hill", "lgaShort": "Hunters Hill"}, "geometry": {"type": "Point", "coordinates": [151.1560604, -33.8299892]}}, {"type": "Feature", "properties": {"name": "Rose Bay", "ref": "20291", "mode": "ferry", "network": "", "operator": "", "lga": "Woollahra", "lgaShort": "Woollahra"}, "geometry": {"type": "Point", "coordinates": [151.2621302, -33.8705812]}}, {"type": "Feature", "properties": {"name": "Rose Bay Public", "ref": "202973", "mode": "ferry", "network": "", "operator": "", "lga": "Woollahra", "lgaShort": "Woollahra"}, "geometry": {"type": "Point", "coordinates": [151.2621011, -33.8710038]}}, {"type": "Feature", "properties": {"name": "Rydalmere Ferry", "ref": "", "mode": "ferry", "network": "Sydney Ferries", "operator": "Transdev Sydney Ferries", "lga": "City of Parramatta", "lgaShort": "Parramatta"}, "geometry": {"type": "Point", "coordinates": [151.0437376, -33.8180023]}}, {"type": "Feature", "properties": {"name": "Shark Island", "ref": "", "mode": "ferry", "network": "", "operator": "", "lga": "Woollahra", "lgaShort": "Woollahra"}, "geometry": {"type": "Point", "coordinates": [151.2577205, -33.8596142]}}, {"type": "Feature", "properties": {"name": "Sydney Olympic Park", "ref": "", "mode": "ferry", "network": "Sydney Ferries", "operator": "Transdev Sydney Ferries", "lga": "City of Ryde", "lgaShort": "Ryde"}, "geometry": {"type": "Point", "coordinates": [151.0788441, -33.8219491]}}, {"type": "Feature", "properties": {"name": "Taronga Zoo", "ref": "", "mode": "ferry", "network": "Sydney Ferries", "operator": "Transdev Sydney Ferries", "lga": "Mosman Council", "lgaShort": "Mosman"}, "geometry": {"type": "Point", "coordinates": [151.2395952, -33.8463913]}}, {"type": "Feature", "properties": {"name": "Watsons Bay", "ref": "20301", "mode": "ferry", "network": "Sydney Ferries", "operator": "Transdev Sydney Ferries", "lga": "Woollahra", "lgaShort": "Woollahra"}, "geometry": {"type": "Point", "coordinates": [151.2809765, -33.8435261]}}, {"type": "Feature", "properties": {"name": "White Bay Cruise Terminal", "ref": "", "mode": "ferry", "network": "", "operator": "Captain Cook", "lga": "City of Sydney", "lgaShort": "Sydney"}, "geometry": {"type": "Point", "coordinates": [151.1862661, -33.8617088]}}, {"type": "Feature", "properties": {"name": "Woolwich", "ref": "", "mode": "ferry", "network": "", "operator": "", "lga": "Hunter's Hill", "lgaShort": "Hunters Hill"}, "geometry": {"type": "Point", "coordinates": [151.1761614, -33.8389054]}}, {"type": "Feature", "properties": {"name": "Arlington", "ref": "220322", "mode": "light_rail", "network": "", "operator": "Transdev Sydney Light Rail", "lga": "Inner West Council", "lgaShort": "Inner West"}, "geometry": {"type": "Point", "coordinates": [151.1381029, -33.9018878]}}, {"type": "Feature", "properties": {"name": "Bank Street", "ref": "", "mode": "light_rail", "network": "", "operator": "Transdev Sydney Light Rail", "lga": "City of Sydney", "lgaShort": "Sydney"}, "geometry": {"type": "Point", "coordinates": [151.1924379, -33.8709375]}}, {"type": "Feature", "properties": {"name": "Benaud Oval", "ref": "", "mode": "light_rail", "network": "Sydney Light Rail", "operator": "Great River City Light Rail", "lga": "City of Parramatta", "lgaShort": "Parramatta"}, "geometry": {"type": "Point", "coordinates": [151.0045582, -33.800814]}}, {"type": "Feature", "properties": {"name": "Capitol Square", "ref": "2000200", "mode": "light_rail", "network": "Sydney Light Rail", "operator": "Transdev Sydney Light Rail", "lga": "City of Sydney", "lgaShort": "Sydney"}, "geometry": {"type": "Point", "coordinates": [151.2056706, -33.8798044]}}, {"type": "Feature", "properties": {"name": "Carlingford", "ref": "", "mode": "light_rail", "network": "Sydney Light Rail", "operator": "Great River City Light Rail", "lga": "City of Parramatta", "lgaShort": "Parramatta"}, "geometry": {"type": "Point", "coordinates": [151.0471842, -33.7819695]}}, {"type": "Feature", "properties": {"name": "Central", "ref": "", "mode": "light_rail", "network": "", "operator": "Transdev Sydney Light Rail", "lga": "City of Sydney", "lgaShort": "Sydney"}, "geometry": {"type": "Point", "coordinates": [151.2067227, -33.8824091]}}, {"type": "Feature", "properties": {"name": "Childrens Hospital", "ref": "", "mode": "light_rail", "network": "Sydney Light Rail", "operator": "Great River City Light Rail", "lga": "City of Parramatta", "lgaShort": "Parramatta"}, "geometry": {"type": "Point", "coordinates": [150.9930356, -33.802589]}}, {"type": "Feature", "properties": {"name": "Church Street", "ref": "", "mode": "light_rail", "network": "Sydney Light Rail", "operator": "Great River City Light Rail", "lga": "City of Parramatta", "lgaShort": "Parramatta"}, "geometry": {"type": "Point", "coordinates": [151.0036168, -33.8129468]}}, {"type": "Feature", "properties": {"name": "Convention", "ref": "2000204", "mode": "light_rail", "network": "", "operator": "Transdev Sydney Light Rail", "lga": "City of Sydney", "lgaShort": "Sydney"}, "geometry": {"type": "Point", "coordinates": [151.1980698, -33.8725775]}}, {"type": "Feature", "properties": {"name": "Dulwich Grove", "ref": "220355", "mode": "light_rail", "network": "", "operator": "Transdev Sydney Light Rail", "lga": "Inner West Council", "lgaShort": "Inner West"}, "geometry": {"type": "Point", "coordinates": [151.1390454, -33.9050316]}}, {"type": "Feature", "properties": {"name": "Dulwich Hill", "ref": "", "mode": "light_rail", "network": "", "operator": "Transdev Sydney Light Rail", "lga": "Inner West Council", "lgaShort": "Inner West"}, "geometry": {"type": "Point", "coordinates": [151.1400503, -33.9103059]}}, {"type": "Feature", "properties": {"name": "Dundas", "ref": "", "mode": "light_rail", "network": "Sydney Light Rail", "operator": "Great River City Light Rail", "lga": "City of Parramatta", "lgaShort": "Parramatta"}, "geometry": {"type": "Point", "coordinates": [151.0332216, -33.8038084]}}, {"type": "Feature", "properties": {"name": "Exhibition Centre", "ref": "2000203", "mode": "light_rail", "network": "", "operator": "Transdev Sydney Light Rail", "lga": "City of Sydney", "lgaShort": "Sydney"}, "geometry": {"type": "Point", "coordinates": [151.1996527, -33.8772478]}}, {"type": "Feature", "properties": {"name": "Fennell Street", "ref": "", "mode": "light_rail", "network": "Sydney Light Rail", "operator": "Great River City Light Rail", "lga": "City of Parramatta", "lgaShort": "Parramatta"}, "geometry": {"type": "Point", "coordinates": [151.0058333, -33.8051861]}}, {"type": "Feature", "properties": {"name": "Hawthorne", "ref": "204091", "mode": "light_rail", "network": "", "operator": "Transdev Sydney Light Rail", "lga": "Inner West Council", "lgaShort": "Inner West"}, "geometry": {"type": "Point", "coordinates": [151.1472257, -33.879569]}}, {"type": "Feature", "properties": {"name": "John Street Square", "ref": "", "mode": "light_rail", "network": "", "operator": "Transdev Sydney Light Rail", "lga": "City of Sydney", "lgaShort": "Sydney"}, "geometry": {"type": "Point", "coordinates": [151.1920361, -33.8674297]}}, {"type": "Feature", "properties": {"name": "Jubilee Park", "ref": "203756", "mode": "light_rail", "network": "", "operator": "Transdev Sydney Light Rail", "lga": "City of Sydney", "lgaShort": "Sydney"}, "geometry": {"type": "Point", "coordinates": [151.1787216, -33.8754286]}}, {"type": "Feature", "properties": {"name": "Juniors Kingsford", "ref": "", "mode": "light_rail", "network": "", "operator": "", "lga": "City of Sydney", "lgaShort": "Sydney"}, "geometry": {"type": "Point", "coordinates": [151.2267, -33.8914]}}, {"type": "Feature", "properties": {"name": "Leichhardt North", "ref": "204090", "mode": "light_rail", "network": "", "operator": "Transdev Sydney Light Rail", "lga": "Inner West Council", "lgaShort": "Inner West"}, "geometry": {"type": "Point", "coordinates": [151.1541434, -33.8749849]}}, {"type": "Feature", "properties": {"name": "Lewisham West", "ref": "204950", "mode": "light_rail", "network": "", "operator": "Transdev Sydney Light Rail", "lga": "Inner West Council", "lgaShort": "Inner West"}, "geometry": {"type": "Point", "coordinates": [151.1434089, -33.893838]}}, {"type": "Feature", "properties": {"name": "Lilyfield", "ref": "204089", "mode": "light_rail", "network": "", "operator": "Transdev Sydney Light Rail", "lga": "Inner West Council", "lgaShort": "Inner West"}, "geometry": {"type": "Point", "coordinates": [151.1650692, -33.874167]}}, {"type": "Feature", "properties": {"name": "Marion", "ref": "204092", "mode": "light_rail", "network": "", "operator": "Transdev Sydney Light Rail", "lga": "Inner West Council", "lgaShort": "Inner West"}, "geometry": {"type": "Point", "coordinates": [151.145122, -33.8839739]}}, {"type": "Feature", "properties": {"name": "Ngara", "ref": "", "mode": "light_rail", "network": "Sydney Light Rail", "operator": "Great River City Light Rail", "lga": "City of Parramatta", "lgaShort": "Parramatta"}, "geometry": {"type": "Point", "coordinates": [151.0013831, -33.8014592]}}, {"type": "Feature", "properties": {"name": "Paddy's Markets", "ref": "2000202", "mode": "light_rail", "network": "", "operator": "Transdev Sydney Light Rail", "lga": "City of Sydney", "lgaShort": "Sydney"}, "geometry": {"type": "Point", "coordinates": [151.2027158, -33.8793182]}}, {"type": "Feature", "properties": {"name": "Parramatta Square", "ref": "", "mode": "light_rail", "network": "Sydney Light Rail", "operator": "Great River City Light Rail", "lga": "City of Parramatta", "lgaShort": "Parramatta"}, "geometry": {"type": "Point", "coordinates": [151.0051301, -33.815554]}}, {"type": "Feature", "properties": {"name": "Prince Alfred Square", "ref": "", "mode": "light_rail", "network": "Sydney Light Rail", "operator": "Great River City Light Rail", "lga": "City of Parramatta", "lgaShort": "Parramatta"}, "geometry": {"type": "Point", "coordinates": [151.0052567, -33.8090725]}}, {"type": "Feature", "properties": {"name": "Pyrmont Bay", "ref": "", "mode": "light_rail", "network": "", "operator": "Transdev Sydney Light Rail", "lga": "City of Sydney", "lgaShort": "Sydney"}, "geometry": {"type": "Point", "coordinates": [151.1975783, -33.8694257]}}, {"type": "Feature", "properties": {"name": "Randwick", "ref": "", "mode": "light_rail", "network": "", "operator": "", "lga": "Randwick City", "lgaShort": "Randwick"}, "geometry": {"type": "Point", "coordinates": [151.2419, -33.9147]}}, {"type": "Feature", "properties": {"name": "Robin Thomas", "ref": "", "mode": "light_rail", "network": "Sydney Light Rail", "operator": "Great River City Light Rail", "lga": "City of Parramatta", "lgaShort": "Parramatta"}, "geometry": {"type": "Point", "coordinates": [151.0112047, -33.8169223]}}, {"type": "Feature", "properties": {"name": "Rosehill Gardens", "ref": "", "mode": "light_rail", "network": "Sydney Light Rail", "operator": "Great River City Light Rail", "lga": "City of Parramatta", "lgaShort": "Parramatta"}, "geometry": {"type": "Point", "coordinates": [151.0244892, -33.8181399]}}, {"type": "Feature", "properties": {"name": "Rozelle Bay", "ref": "203817", "mode": "light_rail", "network": "", "operator": "Transdev Sydney Light Rail", "lga": "Inner West Council", "lgaShort": "Inner West"}, "geometry": {"type": "Point", "coordinates": [151.1727203, -33.8718655]}}, {"type": "Feature", "properties": {"name": "Taverners Hill", "ref": "204093", "mode": "light_rail", "network": "", "operator": "Transdev Sydney Light Rail", "lga": "Inner West Council", "lgaShort": "Inner West"}, "geometry": {"type": "Point", "coordinates": [151.1452623, -33.8891648]}}, {"type": "Feature", "properties": {"name": "Telopea", "ref": "", "mode": "light_rail", "network": "Sydney Light Rail", "operator": "Great River City Light Rail", "lga": "City of Parramatta", "lgaShort": "Parramatta"}, "geometry": {"type": "Point", "coordinates": [151.0411442, -33.7944048]}}, {"type": "Feature", "properties": {"name": "The Star", "ref": "", "mode": "light_rail", "network": "", "operator": "Transdev Sydney Light Rail", "lga": "City of Sydney", "lgaShort": "Sydney"}, "geometry": {"type": "Point", "coordinates": [151.1952923, -33.8676611]}}, {"type": "Feature", "properties": {"name": "Tramway Avenue", "ref": "", "mode": "light_rail", "network": "Sydney Light Rail", "operator": "Great River City Light Rail", "lga": "City of Parramatta", "lgaShort": "Parramatta"}, "geometry": {"type": "Point", "coordinates": [151.0185111, -33.817206]}}, {"type": "Feature", "properties": {"name": "Waratah Mills", "ref": "220320", "mode": "light_rail", "network": "", "operator": "Transdev Sydney Light Rail", "lga": "Inner West Council", "lgaShort": "Inner West"}, "geometry": {"type": "Point", "coordinates": [151.1401465, -33.8987942]}}, {"type": "Feature", "properties": {"name": "Wentworth Park", "ref": "200953", "mode": "light_rail", "network": "", "operator": "Transdev Sydney Light Rail", "lga": "City of Sydney", "lgaShort": "Sydney"}, "geometry": {"type": "Point", "coordinates": [151.1940407, -33.8743907]}}, {"type": "Feature", "properties": {"name": "Westmead Hospital", "ref": "", "mode": "light_rail", "network": "Sydney Light Rail", "operator": "Great River City Light Rail", "lga": "City of Parramatta", "lgaShort": "Parramatta"}, "geometry": {"type": "Point", "coordinates": [150.9900754, -33.804709]}}, {"type": "Feature", "properties": {"name": "Yallamundi", "ref": "", "mode": "light_rail", "network": "Sydney Light Rail", "operator": "Great River City Light Rail", "lga": "City of Parramatta", "lgaShort": "Parramatta"}, "geometry": {"type": "Point", "coordinates": [151.0292707, -33.8099627]}}, {"type": "Feature", "properties": {"name": "Barangaroo", "ref": "", "mode": "metro", "network": "", "operator": "", "lga": "City of Sydney", "lgaShort": "Sydney"}, "geometry": {"type": "Point", "coordinates": [151.2017, -33.8608]}}, {"type": "Feature", "properties": {"name": "Bella Vista", "ref": "", "mode": "metro", "network": "", "operator": "", "lga": "Blacktown City", "lgaShort": "Blacktown"}, "geometry": {"type": "Point", "coordinates": [150.9444, -33.7308]}}, {"type": "Feature", "properties": {"name": "Belmore", "ref": "219210", "mode": "metro", "network": "Sydney Metro", "operator": "Metro Trains Sydney", "lga": "Canterbury-Bankstown", "lgaShort": "Canterbury-Bankstown"}, "geometry": {"type": "Point", "coordinates": [151.0887104, -33.9171961]}}, {"type": "Feature", "properties": {"name": "Campsie", "ref": "219410", "mode": "metro", "network": "Sydney Metro", "operator": "Metro Trains Sydney", "lga": "Canterbury-Bankstown", "lgaShort": "Canterbury-Bankstown"}, "geometry": {"type": "Point", "coordinates": [151.1026511, -33.9105708]}}, {"type": "Feature", "properties": {"name": "Canterbury", "ref": "219320", "mode": "metro", "network": "Sydney Metro", "operator": "Metro Trains Sydney", "lga": "Canterbury-Bankstown", "lgaShort": "Canterbury-Bankstown"}, "geometry": {"type": "Point", "coordinates": [151.1186885, -33.9119882]}}, {"type": "Feature", "properties": {"name": "Castle Hill", "ref": "", "mode": "metro", "network": "", "operator": "", "lga": "The Hills Shire", "lgaShort": "The Hills"}, "geometry": {"type": "Point", "coordinates": [151.0067, -33.7314]}}, {"type": "Feature", "properties": {"name": "Central", "ref": "", "mode": "metro", "network": "", "operator": "", "lga": "City of Sydney", "lgaShort": "Sydney"}, "geometry": {"type": "Point", "coordinates": [151.2069, -33.8832]}}, {"type": "Feature", "properties": {"name": "Chatswood", "ref": "206710", "mode": "metro", "network": "Sydney Trains", "operator": "", "lga": "Willoughby City", "lgaShort": "Willoughby"}, "geometry": {"type": "Point", "coordinates": [151.180939, -33.7974806]}}, {"type": "Feature", "properties": {"name": "Cherrybrook", "ref": "", "mode": "metro", "network": "", "operator": "", "lga": "Hornsby Shire", "lgaShort": "Hornsby"}, "geometry": {"type": "Point", "coordinates": [151.0322, -33.7367]}}, {"type": "Feature", "properties": {"name": "Crows Nest", "ref": "", "mode": "metro", "network": "", "operator": "", "lga": "North Sydney Council", "lgaShort": "North Sydney"}, "geometry": {"type": "Point", "coordinates": [151.2017, -33.8253]}}, {"type": "Feature", "properties": {"name": "Dulwich Hill", "ref": "220310", "mode": "metro", "network": "Sydney Metro", "operator": "Metro Trains Sydney", "lga": "Inner West Council", "lgaShort": "Inner West"}, "geometry": {"type": "Point", "coordinates": [151.140913, -33.9110089]}}, {"type": "Feature", "properties": {"name": "Epping", "ref": "212110", "mode": "metro", "network": "Sydney Trains", "operator": "", "lga": "City of Parramatta", "lgaShort": "Parramatta"}, "geometry": {"type": "Point", "coordinates": [151.0820902, -33.7728628]}}, {"type": "Feature", "properties": {"name": "Gadigal", "ref": "", "mode": "metro", "network": "", "operator": "", "lga": "City of Sydney", "lgaShort": "Sydney"}, "geometry": {"type": "Point", "coordinates": [151.2078, -33.8744]}}, {"type": "Feature", "properties": {"name": "Hills Showground", "ref": "", "mode": "metro", "network": "", "operator": "", "lga": "The Hills Shire", "lgaShort": "The Hills"}, "geometry": {"type": "Point", "coordinates": [150.9878, -33.7275]}}, {"type": "Feature", "properties": {"name": "Hurlstone Park", "ref": "219310", "mode": "metro", "network": "Sydney Metro", "operator": "Metro Trains Sydney", "lga": "Canterbury-Bankstown", "lgaShort": "Canterbury-Bankstown"}, "geometry": {"type": "Point", "coordinates": [151.1317928, -33.9105924]}}, {"type": "Feature", "properties": {"name": "Kellyville", "ref": "", "mode": "metro", "network": "", "operator": "", "lga": "Blacktown City", "lgaShort": "Blacktown"}, "geometry": {"type": "Point", "coordinates": [150.9364, -33.7139]}}, {"type": "Feature", "properties": {"name": "Lakemba", "ref": "219510", "mode": "metro", "network": "Sydney Metro", "operator": "Metro Trains Sydney", "lga": "Canterbury-Bankstown", "lgaShort": "Canterbury-Bankstown"}, "geometry": {"type": "Point", "coordinates": [151.0758653, -33.9201175]}}, {"type": "Feature", "properties": {"name": "Macquarie Park", "ref": "", "mode": "metro", "network": "", "operator": "", "lga": "City of Ryde", "lgaShort": "Ryde"}, "geometry": {"type": "Point", "coordinates": [151.1283, -33.7847]}}, {"type": "Feature", "properties": {"name": "Macquarie University", "ref": "", "mode": "metro", "network": "", "operator": "", "lga": "City of Ryde", "lgaShort": "Ryde"}, "geometry": {"type": "Point", "coordinates": [151.118, -33.7777]}}, {"type": "Feature", "properties": {"name": "Marrickville", "ref": "220410", "mode": "metro", "network": "Sydney Metro", "operator": "Metro Trains Sydney", "lga": "Inner West Council", "lgaShort": "Inner West"}, "geometry": {"type": "Point", "coordinates": [151.1536185, -33.9139638]}}, {"type": "Feature", "properties": {"name": "North Ryde", "ref": "", "mode": "metro", "network": "", "operator": "", "lga": "City of Ryde", "lgaShort": "Ryde"}, "geometry": {"type": "Point", "coordinates": [151.1381, -33.7947]}}, {"type": "Feature", "properties": {"name": "Norwest", "ref": "", "mode": "metro", "network": "", "operator": "", "lga": "The Hills Shire", "lgaShort": "The Hills"}, "geometry": {"type": "Point", "coordinates": [150.9567, -33.7331]}}, {"type": "Feature", "properties": {"name": "Punchbowl", "ref": "219610", "mode": "metro", "network": "Sydney Metro", "operator": "Metro Trains Sydney", "lga": "Canterbury-Bankstown", "lgaShort": "Canterbury-Bankstown"}, "geometry": {"type": "Point", "coordinates": [151.0557609, -33.9254126]}}, {"type": "Feature", "properties": {"name": "Rouse Hill", "ref": "", "mode": "metro", "network": "", "operator": "", "lga": "The Hills Shire", "lgaShort": "The Hills"}, "geometry": {"type": "Point", "coordinates": [150.9239, -33.6915]}}, {"type": "Feature", "properties": {"name": "Tallawong", "ref": "", "mode": "metro", "network": "", "operator": "", "lga": "Blacktown City", "lgaShort": "Blacktown"}, "geometry": {"type": "Point", "coordinates": [150.906, -33.6918]}}, {"type": "Feature", "properties": {"name": "Victoria Cross", "ref": "", "mode": "metro", "network": "", "operator": "", "lga": "North Sydney Council", "lgaShort": "North Sydney"}, "geometry": {"type": "Point", "coordinates": [151.2072, -33.8389]}}, {"type": "Feature", "properties": {"name": "Waterloo", "ref": "", "mode": "metro", "network": "", "operator": "", "lga": "City of Sydney", "lgaShort": "Sydney"}, "geometry": {"type": "Point", "coordinates": [151.2025, -33.8944]}}, {"type": "Feature", "properties": {"name": "Wiley Park", "ref": "219520", "mode": "metro", "network": "Sydney Metro", "operator": "Metro Trains Sydney", "lga": "Canterbury-Bankstown", "lgaShort": "Canterbury-Bankstown"}, "geometry": {"type": "Point", "coordinates": [151.067336, -33.9229545]}}, {"type": "Feature", "properties": {"name": "Allawah", "ref": "222020", "mode": "train", "network": "Sydney Trains", "operator": "", "lga": "Georges River Council", "lgaShort": "Georges River"}, "geometry": {"type": "Point", "coordinates": [151.1145108, -33.9696934]}}, {"type": "Feature", "properties": {"name": "Arncliffe", "ref": "220520", "mode": "train", "network": "Sydney Trains", "operator": "Sydney Trains", "lga": "Bayside Council", "lgaShort": "Bayside"}, "geometry": {"type": "Point", "coordinates": [151.1473489, -33.936435]}}, {"type": "Feature", "properties": {"name": "Artarmon", "ref": "206410", "mode": "train", "network": "Sydney Trains", "operator": "", "lga": "Willoughby City", "lgaShort": "Willoughby"}, "geometry": {"type": "Point", "coordinates": [151.1851425, -33.808856]}}, {"type": "Feature", "properties": {"name": "Ashfield", "ref": "213110", "mode": "train", "network": "Sydney Trains", "operator": "Sydney Trains", "lga": "Inner West Council", "lgaShort": "Inner West"}, "geometry": {"type": "Point", "coordinates": [151.1258176, -33.8876579]}}, {"type": "Feature", "properties": {"name": "Asquith", "ref": "207730", "mode": "train", "network": "Sydney Trains", "operator": "", "lga": "Hornsby Shire", "lgaShort": "Hornsby"}, "geometry": {"type": "Point", "coordinates": [151.1080776, -33.6886841]}}, {"type": "Feature", "properties": {"name": "Auburn", "ref": "214410", "mode": "train", "network": "Sydney Trains", "operator": "Sydney Trains", "lga": "Cumberland City", "lgaShort": "Cumberland"}, "geometry": {"type": "Point", "coordinates": [151.0328346, -33.8492852]}}, {"type": "Feature", "properties": {"name": "Austinmer", "ref": "251540", "mode": "train", "network": "NSW TrainLink", "operator": "", "lga": "Wollongong City", "lgaShort": "Wollongong"}, "geometry": {"type": "Point", "coordinates": [150.9292241, -34.3064757]}}, {"type": "Feature", "properties": {"name": "Banksia", "ref": "221610", "mode": "train", "network": "Sydney Trains", "operator": "Sydney Trains", "lga": "Bayside Council", "lgaShort": "Bayside"}, "geometry": {"type": "Point", "coordinates": [151.140407, -33.9453399]}}, {"type": "Feature", "properties": {"name": "Bankstown", "ref": "220010", "mode": "train", "network": "Sydney Trains", "operator": "Sydney Trains", "lga": "Canterbury-Bankstown", "lgaShort": "Canterbury-Bankstown"}, "geometry": {"type": "Point", "coordinates": [151.0346402, -33.917844]}}, {"type": "Feature", "properties": {"name": "Bardwell Park", "ref": "220710", "mode": "train", "network": "Sydney Trains", "operator": "CityLink", "lga": "Canterbury-Bankstown", "lgaShort": "Canterbury-Bankstown"}, "geometry": {"type": "Point", "coordinates": [151.1248844, -33.9316025]}}, {"type": "Feature", "properties": {"name": "Bargo", "ref": "257420", "mode": "train", "network": "NSW TrainLink", "operator": "", "lga": "Wollondilly Shire", "lgaShort": "Wollondilly"}, "geometry": {"type": "Point", "coordinates": [150.580115, -34.2910963]}}, {"type": "Feature", "properties": {"name": "Beecroft", "ref": "211910", "mode": "train", "network": "Sydney Trains", "operator": "", "lga": "Hornsby Shire", "lgaShort": "Hornsby"}, "geometry": {"type": "Point", "coordinates": [151.0663891, -33.7496341]}}, {"type": "Feature", "properties": {"name": "Bellambi", "ref": "251810", "mode": "train", "network": "NSW TrainLink", "operator": "", "lga": "Wollongong City", "lgaShort": "Wollongong"}, "geometry": {"type": "Point", "coordinates": [150.9100489, -34.362853]}}, {"type": "Feature", "properties": {"name": "Berala", "ref": "214120", "mode": "train", "network": "Sydney Trains", "operator": "Sydney Trains", "lga": "Cumberland City", "lgaShort": "Cumberland"}, "geometry": {"type": "Point", "coordinates": [151.0322942, -33.8719154]}}, {"type": "Feature", "properties": {"name": "Berowra", "ref": "208110", "mode": "train", "network": "Sydney Trains", "operator": "", "lga": "Hornsby Shire", "lgaShort": "Hornsby"}, "geometry": {"type": "Point", "coordinates": [151.1531676, -33.6235384]}}, {"type": "Feature", "properties": {"name": "Beverly Hills", "ref": "220910", "mode": "train", "network": "Sydney Trains", "operator": "Sydney Trains", "lga": "Georges River Council", "lgaShort": "Georges River"}, "geometry": {"type": "Point", "coordinates": [151.0810471, -33.9490787]}}, {"type": "Feature", "properties": {"name": "Bexley North", "ref": "220720", "mode": "train", "network": "Sydney Trains", "operator": "Sydney Trains", "lga": "Bayside Council", "lgaShort": "Bayside"}, "geometry": {"type": "Point", "coordinates": [151.1134896, -33.9375479]}}, {"type": "Feature", "properties": {"name": "Birrong", "ref": "214320", "mode": "train", "network": "Sydney Trains", "operator": "Sydney Trains", "lga": "Canterbury-Bankstown", "lgaShort": "Canterbury-Bankstown"}, "geometry": {"type": "Point", "coordinates": [151.0240303, -33.8933152]}}, {"type": "Feature", "properties": {"name": "Blacktown", "ref": "214810", "mode": "train", "network": "Sydney Trains", "operator": "", "lga": "Blacktown City", "lgaShort": "Blacktown"}, "geometry": {"type": "Point", "coordinates": [150.9074065, -33.76845]}}, {"type": "Feature", "properties": {"name": "Blaxland", "ref": "277410", "mode": "train", "network": "NSW TrainLink", "operator": "", "lga": "Blue Mountains City", "lgaShort": "Blue Mountains"}, "geometry": {"type": "Point", "coordinates": [150.6096243, -33.7436266]}}, {"type": "Feature", "properties": {"name": "Bondi Junction", "ref": "202210", "mode": "train", "network": "Sydney Trains", "operator": "", "lga": "Waverley Council", "lgaShort": "Waverley"}, "geometry": {"type": "Point", "coordinates": [151.248455, -33.8912429]}}, {"type": "Feature", "properties": {"name": "Bowral", "ref": "257610", "mode": "train", "network": "NSW TrainLink", "operator": "", "lga": "Wollondilly Shire", "lgaShort": "Wollondilly"}, "geometry": {"type": "Point", "coordinates": [150.416713, -34.4780183]}}, {"type": "Feature", "properties": {"name": "Bulli", "ref": "251610", "mode": "train", "network": "NSW TrainLink", "operator": "", "lga": "Wollongong City", "lgaShort": "Wollongong"}, "geometry": {"type": "Point", "coordinates": [150.9147602, -34.334431]}}, {"type": "Feature", "properties": {"name": "Burradoo", "ref": "257620", "mode": "train", "network": "NSW TrainLink", "operator": "", "lga": "Wollondilly Shire", "lgaShort": "Wollondilly"}, "geometry": {"type": "Point", "coordinates": [150.3980743, -34.4942325]}}, {"type": "Feature", "properties": {"name": "Burwood", "ref": "213410", "mode": "train", "network": "Sydney Trains", "operator": "Sydney Trains", "lga": "Burwood", "lgaShort": "Burwood"}, "geometry": {"type": "Point", "coordinates": [151.1040382, -33.8771445]}}, {"type": "Feature", "properties": {"name": "Cabramatta", "ref": "216620", "mode": "train", "network": "Sydney Trains", "operator": "Sydney Trains", "lga": "Fairfield City", "lgaShort": "Fairfield"}, "geometry": {"type": "Point", "coordinates": [150.9388097, -33.8950021]}}, {"type": "Feature", "properties": {"name": "Campbelltown", "ref": "256020", "mode": "train", "network": "Sydney Trains", "operator": "", "lga": "Campbelltown City", "lgaShort": "Campbelltown"}, "geometry": {"type": "Point", "coordinates": [150.8143901, -34.0636278]}}, {"type": "Feature", "properties": {"name": "Canley Vale", "ref": "216610", "mode": "train", "network": "Sydney Trains", "operator": "Sydney Trains", "lga": "Fairfield City", "lgaShort": "Fairfield"}, "geometry": {"type": "Point", "coordinates": [150.9436605, -33.8872029]}}, {"type": "Feature", "properties": {"name": "Caringbah", "ref": "222910", "mode": "train", "network": "Sydney Trains", "operator": "", "lga": "Sutherland Shire", "lgaShort": "Sutherland"}, "geometry": {"type": "Point", "coordinates": [151.1227396, -34.0415962]}}, {"type": "Feature", "properties": {"name": "Carlton", "ref": "221810", "mode": "train", "network": "Sydney Trains", "operator": "", "lga": "Georges River Council", "lgaShort": "Georges River"}, "geometry": {"type": "Point", "coordinates": [151.1244983, -33.9682381]}}, {"type": "Feature", "properties": {"name": "Carramar", "ref": "216330", "mode": "train", "network": "Sydney Trains", "operator": "Sydney Trains", "lga": "Fairfield City", "lgaShort": "Fairfield"}, "geometry": {"type": "Point", "coordinates": [150.9615133, -33.8843192]}}, {"type": "Feature", "properties": {"name": "Casula", "ref": "217030", "mode": "train", "network": "Sydney Trains", "operator": "Sydney Trains", "lga": "Liverpool City", "lgaShort": "Liverpool"}, "geometry": {"type": "Point", "coordinates": [150.9118445, -33.9501572]}}, {"type": "Feature", "properties": {"name": "Central", "ref": "", "mode": "train", "network": "", "operator": "", "lga": "City of Sydney", "lgaShort": "Sydney"}, "geometry": {"type": "Point", "coordinates": [151.2069, -33.8832]}}, {"type": "Feature", "properties": {"name": "Cheltenham", "ref": "211920", "mode": "train", "network": "Sydney Trains", "operator": "Sydney Trains", "lga": "Hornsby Shire", "lgaShort": "Hornsby"}, "geometry": {"type": "Point", "coordinates": [151.0785604, -33.7556798]}}, {"type": "Feature", "properties": {"name": "Chester Hill", "ref": "216220", "mode": "train", "network": "Sydney Trains", "operator": "Sydney Trains", "lga": "Canterbury-Bankstown", "lgaShort": "Canterbury-Bankstown"}, "geometry": {"type": "Point", "coordinates": [150.9994175, -33.8835449]}}, {"type": "Feature", "properties": {"name": "Circular Quay", "ref": "200020", "mode": "train", "network": "Sydney Trains", "operator": "Sydney Trains", "lga": "City of Sydney", "lgaShort": "Sydney"}, "geometry": {"type": "Point", "coordinates": [151.2107193, -33.8613593]}}, {"type": "Feature", "properties": {"name": "Clarendon", "ref": "275630", "mode": "train", "network": "Sydney Trains", "operator": "Sydney Trains", "lga": "Hawkesbury City", "lgaShort": "Hawkesbury"}, "geometry": {"type": "Point", "coordinates": [150.7879859, -33.6086191]}}, {"type": "Feature", "properties": {"name": "Clyde", "ref": "214230", "mode": "train", "network": "Sydney Trains", "operator": "", "lga": "Cumberland City", "lgaShort": "Cumberland"}, "geometry": {"type": "Point", "coordinates": [151.017066, -33.8359746]}}, {"type": "Feature", "properties": {"name": "Coalcliff", "ref": "250850", "mode": "train", "network": "NSW TrainLink", "operator": "", "lga": "Wollongong City", "lgaShort": "Wollongong"}, "geometry": {"type": "Point", "coordinates": [150.9774905, -34.242165]}}, {"type": "Feature", "properties": {"name": "Coledale", "ref": "251530", "mode": "train", "network": "NSW TrainLink", "operator": "", "lga": "Wollongong City", "lgaShort": "Wollongong"}, "geometry": {"type": "Point", "coordinates": [150.9432304, -34.2895651]}}, {"type": "Feature", "properties": {"name": "Como", "ref": "222610", "mode": "train", "network": "Sydney Trains", "operator": "", "lga": "Sutherland Shire", "lgaShort": "Sutherland"}, "geometry": {"type": "Point", "coordinates": [151.068064, -34.0043476]}}, {"type": "Feature", "properties": {"name": "Concord West", "ref": "213810", "mode": "train", "network": "Sydney Trains", "operator": "Sydney Trains", "lga": "City of Canada Bay", "lgaShort": "Canada Bay"}, "geometry": {"type": "Point", "coordinates": [151.0856114, -33.8484033]}}, {"type": "Feature", "properties": {"name": "Coniston", "ref": "250030", "mode": "train", "network": "NSW TrainLink", "operator": "", "lga": "Wollongong City", "lgaShort": "Wollongong"}, "geometry": {"type": "Point", "coordinates": [150.8852807, -34.4377384]}}, {"type": "Feature", "properties": {"name": "Corrimal", "ref": "251820", "mode": "train", "network": "NSW TrainLink", "operator": "", "lga": "Wollongong City", "lgaShort": "Wollongong"}, "geometry": {"type": "Point", "coordinates": [150.9048557, -34.3757279]}}, {"type": "Feature", "properties": {"name": "Cringila", "ref": "250520", "mode": "train", "network": "NSW TrainLink", "operator": "", "lga": "Wollongong City", "lgaShort": "Wollongong"}, "geometry": {"type": "Point", "coordinates": [150.8782854, -34.4670421]}}, {"type": "Feature", "properties": {"name": "Cronulla", "ref": "223020", "mode": "train", "network": "Sydney Trains", "operator": "", "lga": "Sutherland Shire", "lgaShort": "Sutherland"}, "geometry": {"type": "Point", "coordinates": [151.1514553, -34.0557283]}}, {"type": "Feature", "properties": {"name": "Croydon", "ref": "213210", "mode": "train", "network": "Sydney Trains", "operator": "Sydney Trains", "lga": "Inner West Council", "lgaShort": "Inner West"}, "geometry": {"type": "Point", "coordinates": [151.1155955, -33.8832296]}}, {"type": "Feature", "properties": {"name": "Dapto", "ref": "253020", "mode": "train", "network": "NSW TrainLink", "operator": "", "lga": "Wollongong City", "lgaShort": "Wollongong"}, "geometry": {"type": "Point", "coordinates": [150.7918029, -34.4930354]}}, {"type": "Feature", "properties": {"name": "Denistone", "ref": "211410", "mode": "train", "network": "Sydney Trains", "operator": "Sydney Trains", "lga": "City of Ryde", "lgaShort": "Ryde"}, "geometry": {"type": "Point", "coordinates": [151.0873579, -33.7998488]}}, {"type": "Feature", "properties": {"name": "Domestic Airport", "ref": "202020", "mode": "train", "network": "Sydney Trains", "operator": "Sydney Trains", "lga": "Bayside Council", "lgaShort": "Bayside"}, "geometry": {"type": "Point", "coordinates": [151.1808722, -33.9336301]}}, {"type": "Feature", "properties": {"name": "Doonside", "ref": "276710", "mode": "train", "network": "Sydney Trains", "operator": "Sydney Trains", "lga": "Blacktown City", "lgaShort": "Blacktown"}, "geometry": {"type": "Point", "coordinates": [150.868382, -33.7639932]}}, {"type": "Feature", "properties": {"name": "Douglas Park", "ref": "256910", "mode": "train", "network": "NSW TrainLink", "operator": "", "lga": "Wollondilly Shire", "lgaShort": "Wollondilly"}, "geometry": {"type": "Point", "coordinates": [150.7102539, -34.1832452]}}, {"type": "Feature", "properties": {"name": "East Hills", "ref": "221320", "mode": "train", "network": "Sydney Trains", "operator": "Sydney Trains", "lga": "Canterbury-Bankstown", "lgaShort": "Canterbury-Bankstown"}, "geometry": {"type": "Point", "coordinates": [150.9846273, -33.9618532]}}, {"type": "Feature", "properties": {"name": "East Richmond", "ref": "275310", "mode": "train", "network": "Sydney Trains", "operator": "Sydney Trains", "lga": "Hawkesbury City", "lgaShort": "Hawkesbury"}, "geometry": {"type": "Point", "coordinates": [150.7591827, -33.6017995]}}, {"type": "Feature", "properties": {"name": "Eastwood", "ref": "212210", "mode": "train", "network": "Sydney Trains", "operator": "Sydney Trains", "lga": "City of Ryde", "lgaShort": "Ryde"}, "geometry": {"type": "Point", "coordinates": [151.0822564, -33.790128]}}, {"type": "Feature", "properties": {"name": "Edgecliff", "ref": "202710", "mode": "train", "network": "Sydney Trains", "operator": "", "lga": "Woollahra", "lgaShort": "Woollahra"}, "geometry": {"type": "Point", "coordinates": [151.2361365, -33.8792403]}}, {"type": "Feature", "properties": {"name": "Edmondson Park", "ref": "217426", "mode": "train", "network": "Sydney Trains", "operator": "", "lga": "Liverpool City", "lgaShort": "Liverpool"}, "geometry": {"type": "Point", "coordinates": [150.858626, -33.9692716]}}, {"type": "Feature", "properties": {"name": "Emu Plains", "ref": "275020", "mode": "train", "network": "Sydney Trains", "operator": "", "lga": "Penrith City", "lgaShort": "Penrith"}, "geometry": {"type": "Point", "coordinates": [150.6715837, -33.7457008]}}, {"type": "Feature", "properties": {"name": "Engadine", "ref": "223310", "mode": "train", "network": "Sydney Trains", "operator": "", "lga": "Sutherland Shire", "lgaShort": "Sutherland"}, "geometry": {"type": "Point", "coordinates": [151.0147301, -34.0678648]}}, {"type": "Feature", "properties": {"name": "Erskineville", "ref": "204310", "mode": "train", "network": "Sydney Trains", "operator": "Sydney Trains", "lga": "City of Sydney", "lgaShort": "Sydney"}, "geometry": {"type": "Point", "coordinates": [151.1852676, -33.9009517]}}, {"type": "Feature", "properties": {"name": "Fairfield", "ref": "216510", "mode": "train", "network": "Sydney Trains", "operator": "Sydney Trains", "lga": "Fairfield City", "lgaShort": "Fairfield"}, "geometry": {"type": "Point", "coordinates": [150.9570025, -33.8724177]}}, {"type": "Feature", "properties": {"name": "Fairy Meadow", "ref": "251910", "mode": "train", "network": "NSW TrainLink", "operator": "", "lga": "Wollongong City", "lgaShort": "Wollongong"}, "geometry": {"type": "Point", "coordinates": [150.8963847, -34.395368]}}, {"type": "Feature", "properties": {"name": "Flemington", "ref": "214020", "mode": "train", "network": "Sydney Trains", "operator": "Sydney Trains", "lga": "Strathfield", "lgaShort": "Strathfield"}, "geometry": {"type": "Point", "coordinates": [151.069948, -33.8648765]}}, {"type": "Feature", "properties": {"name": "Glenbrook", "ref": "277310", "mode": "train", "network": "NSW TrainLink", "operator": "", "lga": "Blue Mountains City", "lgaShort": "Blue Mountains"}, "geometry": {"type": "Point", "coordinates": [150.6207349, -33.7690298]}}, {"type": "Feature", "properties": {"name": "Glenfield", "ref": "216710", "mode": "train", "network": "Sydney Trains", "operator": "", "lga": "Campbelltown City", "lgaShort": "Campbelltown"}, "geometry": {"type": "Point", "coordinates": [150.8930882, -33.9722422]}}, {"type": "Feature", "properties": {"name": "Gordon", "ref": "207210", "mode": "train", "network": "Sydney Trains", "operator": "", "lga": "Ku-ring-gai", "lgaShort": "Ku-ring-gai"}, "geometry": {"type": "Point", "coordinates": [151.1543302, -33.7557991]}}, {"type": "Feature", "properties": {"name": "Gosford", "ref": "", "mode": "train", "network": "", "operator": "", "lga": "Central Coast Council", "lgaShort": "Central Coast"}, "geometry": {"type": "Point", "coordinates": [151.3417, -33.4236]}}, {"type": "Feature", "properties": {"name": "Granville", "ref": "214240", "mode": "train", "network": "Sydney Trains", "operator": "Sydney Trains", "lga": "Cumberland City", "lgaShort": "Cumberland"}, "geometry": {"type": "Point", "coordinates": [151.0124059, -33.8330942]}}, {"type": "Feature", "properties": {"name": "Green Square", "ref": "201710", "mode": "train", "network": "Sydney Trains", "operator": "Sydney Trains", "lga": "City of Sydney", "lgaShort": "Sydney"}, "geometry": {"type": "Point", "coordinates": [151.2024361, -33.9061988]}}, {"type": "Feature", "properties": {"name": "Guildford", "ref": "216110", "mode": "train", "network": "Sydney Trains", "operator": "Sydney Trains", "lga": "Cumberland City", "lgaShort": "Cumberland"}, "geometry": {"type": "Point", "coordinates": [150.9844864, -33.8543165]}}, {"type": "Feature", "properties": {"name": "Gymea", "ref": "222710", "mode": "train", "network": "Sydney Trains", "operator": "", "lga": "Sutherland Shire", "lgaShort": "Sutherland"}, "geometry": {"type": "Point", "coordinates": [151.0855146, -34.0348927]}}, {"type": "Feature", "properties": {"name": "Harris Park", "ref": "215010", "mode": "train", "network": "Sydney Trains", "operator": "", "lga": "City of Parramatta", "lgaShort": "Parramatta"}, "geometry": {"type": "Point", "coordinates": [151.0076541, -33.8233375]}}, {"type": "Feature", "properties": {"name": "Heathcote", "ref": "223320", "mode": "train", "network": "Sydney Trains", "operator": "", "lga": "Sutherland Shire", "lgaShort": "Sutherland"}, "geometry": {"type": "Point", "coordinates": [151.0082554, -34.0879621]}}, {"type": "Feature", "properties": {"name": "Helensburgh", "ref": "250810", "mode": "train", "network": "Sydney Trains", "operator": "", "lga": "Wollongong City", "lgaShort": "Wollongong"}, "geometry": {"type": "Point", "coordinates": [150.9948093, -34.1769399]}}, {"type": "Feature", "properties": {"name": "Holsworthy", "ref": "217310", "mode": "train", "network": "Sydney Trains", "operator": "Sydney Trains", "lga": "Liverpool City", "lgaShort": "Liverpool"}, "geometry": {"type": "Point", "coordinates": [150.9564652, -33.9632164]}}, {"type": "Feature", "properties": {"name": "Homebush", "ref": "214010", "mode": "train", "network": "Sydney Trains", "operator": "Sydney Trains", "lga": "Strathfield", "lgaShort": "Strathfield"}, "geometry": {"type": "Point", "coordinates": [151.0864608, -33.8668117]}}, {"type": "Feature", "properties": {"name": "Hornsby", "ref": "207720", "mode": "train", "network": "Sydney Trains", "operator": "", "lga": "Hornsby Shire", "lgaShort": "Hornsby"}, "geometry": {"type": "Point", "coordinates": [151.0983925, -33.7034849]}}, {"type": "Feature", "properties": {"name": "Hurstville", "ref": "222010", "mode": "train", "network": "Sydney Trains", "operator": "", "lga": "Georges River Council", "lgaShort": "Georges River"}, "geometry": {"type": "Point", "coordinates": [151.1025692, -33.9673964]}}, {"type": "Feature", "properties": {"name": "Ingleburn", "ref": "256510", "mode": "train", "network": "Sydney Trains", "operator": "", "lga": "Campbelltown City", "lgaShort": "Campbelltown"}, "geometry": {"type": "Point", "coordinates": [150.864903, -33.9971947]}}, {"type": "Feature", "properties": {"name": "International Airport", "ref": "202030", "mode": "train", "network": "Sydney Trains", "operator": "Sydney Trains", "lga": "Bayside Council", "lgaShort": "Bayside"}, "geometry": {"type": "Point", "coordinates": [151.1658747, -33.9349749]}}, {"type": "Feature", "properties": {"name": "Jannali", "ref": "222620", "mode": "train", "network": "Sydney Trains", "operator": "", "lga": "Sutherland Shire", "lgaShort": "Sutherland"}, "geometry": {"type": "Point", "coordinates": [151.06463, -34.015952]}}, {"type": "Feature", "properties": {"name": "Katoomba", "ref": "", "mode": "train", "network": "", "operator": "", "lga": "Blue Mountains City", "lgaShort": "Blue Mountains"}, "geometry": {"type": "Point", "coordinates": [150.3111, -33.7136]}}, {"type": "Feature", "properties": {"name": "Kembla Grange", "ref": "253010", "mode": "train", "network": "NSW TrainLink", "operator": "", "lga": "Wollongong City", "lgaShort": "Wollongong"}, "geometry": {"type": "Point", "coordinates": [150.8175256, -34.4701561]}}, {"type": "Feature", "properties": {"name": "Killara", "ref": "", "mode": "train", "network": "", "operator": "", "lga": "Ku-ring-gai", "lgaShort": "Ku-ring-gai"}, "geometry": {"type": "Point", "coordinates": [151.1617, -33.765]}}, {"type": "Feature", "properties": {"name": "Kings Cross", "ref": "201110", "mode": "train", "network": "Sydney Trains", "operator": "", "lga": "City of Sydney", "lgaShort": "Sydney"}, "geometry": {"type": "Point", "coordinates": [151.2222308, -33.8744874]}}, {"type": "Feature", "properties": {"name": "Kingsgrove", "ref": "220810", "mode": "train", "network": "Sydney Trains", "operator": "Sydney Trains", "lga": "Georges River Council", "lgaShort": "Georges River"}, "geometry": {"type": "Point", "coordinates": [151.1006334, -33.9405679]}}, {"type": "Feature", "properties": {"name": "Kingswood", "ref": "274720", "mode": "train", "network": "Sydney Trains", "operator": "Sydney Trains", "lga": "Penrith City", "lgaShort": "Penrith"}, "geometry": {"type": "Point", "coordinates": [150.7200073, -33.7582886]}}, {"type": "Feature", "properties": {"name": "Kirrawee", "ref": "223230", "mode": "train", "network": "Sydney Trains", "operator": "", "lga": "Sutherland Shire", "lgaShort": "Sutherland"}, "geometry": {"type": "Point", "coordinates": [151.0719112, -34.0349533]}}, {"type": "Feature", "properties": {"name": "Kogarah", "ref": "221710", "mode": "train", "network": "Sydney Trains", "operator": "Sydney Trains", "lga": "Bayside Council", "lgaShort": "Bayside"}, "geometry": {"type": "Point", "coordinates": [151.132574, -33.9621586]}}, {"type": "Feature", "properties": {"name": "Lapstone", "ref": "275030", "mode": "train", "network": "Sydney Trains", "operator": "", "lga": "Blue Mountains City", "lgaShort": "Blue Mountains"}, "geometry": {"type": "Point", "coordinates": [150.6427335, -33.7737699]}}, {"type": "Feature", "properties": {"name": "Leightonfield", "ref": "216310", "mode": "train", "network": "Sydney Trains", "operator": "Sydney Trains", "lga": "Canterbury-Bankstown", "lgaShort": "Canterbury-Bankstown"}, "geometry": {"type": "Point", "coordinates": [150.9852256, -33.8815246]}}, {"type": "Feature", "properties": {"name": "Leppington", "ref": "", "mode": "train", "network": "", "operator": "", "lga": "Camden Council", "lgaShort": "Camden"}, "geometry": {"type": "Point", "coordinates": [150.8093, -33.9547]}}, {"type": "Feature", "properties": {"name": "Leumeah", "ref": "256010", "mode": "train", "network": "Sydney Trains", "operator": "", "lga": "Campbelltown City", "lgaShort": "Campbelltown"}, "geometry": {"type": "Point", "coordinates": [150.8305071, -34.0507604]}}, {"type": "Feature", "properties": {"name": "Leura", "ref": "", "mode": "train", "network": "", "operator": "", "lga": "Blue Mountains City", "lgaShort": "Blue Mountains"}, "geometry": {"type": "Point", "coordinates": [150.3272, -33.7119]}}, {"type": "Feature", "properties": {"name": "Lewisham", "ref": "204920", "mode": "train", "network": "Sydney Trains", "operator": "Sydney Trains", "lga": "Inner West Council", "lgaShort": "Inner West"}, "geometry": {"type": "Point", "coordinates": [151.1476275, -33.8933685]}}, {"type": "Feature", "properties": {"name": "Lidcombe", "ref": "214110", "mode": "train", "network": "Sydney Trains", "operator": "Sydney Trains", "lga": "Cumberland City", "lgaShort": "Cumberland"}, "geometry": {"type": "Point", "coordinates": [151.0452428, -33.8638146]}}, {"type": "Feature", "properties": {"name": "Lindfield", "ref": "207010", "mode": "train", "network": "Sydney Trains", "operator": "", "lga": "Ku-ring-gai", "lgaShort": "Ku-ring-gai"}, "geometry": {"type": "Point", "coordinates": [151.1692144, -33.7756095]}}, {"type": "Feature", "properties": {"name": "Liverpool", "ref": "217020", "mode": "train", "network": "Sydney Trains", "operator": "Sydney Trains", "lga": "Liverpool City", "lgaShort": "Liverpool"}, "geometry": {"type": "Point", "coordinates": [150.9276398, -33.9245421]}}, {"type": "Feature", "properties": {"name": "Loftus", "ref": "223220", "mode": "train", "network": "Sydney Trains", "operator": "CityLink", "lga": "Sutherland Shire", "lgaShort": "Sutherland"}, "geometry": {"type": "Point", "coordinates": [151.0513461, -34.0453436]}}, {"type": "Feature", "properties": {"name": "Lysaghts", "ref": "250510", "mode": "train", "network": "NSW TrainLink", "operator": "", "lga": "Wollongong City", "lgaShort": "Wollongong"}, "geometry": {"type": "Point", "coordinates": [150.8760635, -34.4545331]}}, {"type": "Feature", "properties": {"name": "Macarthur", "ref": "256030", "mode": "train", "network": "Sydney Trains", "operator": "", "lga": "Campbelltown City", "lgaShort": "Campbelltown"}, "geometry": {"type": "Point", "coordinates": [150.7971899, -34.0719861]}}, {"type": "Feature", "properties": {"name": "Macdonaldtown", "ref": "201520", "mode": "train", "network": "Sydney Trains", "operator": "", "lga": "City of Sydney", "lgaShort": "Sydney"}, "geometry": {"type": "Point", "coordinates": [151.1858923, -33.8969053]}}, {"type": "Feature", "properties": {"name": "Macquarie Fields", "ref": "256410", "mode": "train", "network": "Sydney Trains", "operator": "", "lga": "Campbelltown City", "lgaShort": "Campbelltown"}, "geometry": {"type": "Point", "coordinates": [150.8789007, -33.9847895]}}, {"type": "Feature", "properties": {"name": "Marayong", "ref": "214820", "mode": "train", "network": "Sydney Trains", "operator": "Sydney Trains", "lga": "Blacktown City", "lgaShort": "Blacktown"}, "geometry": {"type": "Point", "coordinates": [150.9001907, -33.7461846]}}, {"type": "Feature", "properties": {"name": "Martin Place", "ref": "200030", "mode": "train", "network": "Sydney Trains", "operator": "", "lga": "City of Sydney", "lgaShort": "Sydney"}, "geometry": {"type": "Point", "coordinates": [151.210759, -33.8678177]}}, {"type": "Feature", "properties": {"name": "Mascot", "ref": "202010", "mode": "train", "network": "Sydney Trains", "operator": "Sydney Trains", "lga": "Bayside Council", "lgaShort": "Bayside"}, "geometry": {"type": "Point", "coordinates": [151.1872655, -33.9231912]}}, {"type": "Feature", "properties": {"name": "Meadowbank", "ref": "211430", "mode": "train", "network": "Sydney Trains", "operator": "", "lga": "City of Ryde", "lgaShort": "Ryde"}, "geometry": {"type": "Point", "coordinates": [151.0900998, -33.8159137]}}, {"type": "Feature", "properties": {"name": "Menangle", "ref": "256810", "mode": "train", "network": "NSW TrainLink", "operator": "", "lga": "Wollondilly Shire", "lgaShort": "Wollondilly"}, "geometry": {"type": "Point", "coordinates": [150.7443838, -34.1252956]}}, {"type": "Feature", "properties": {"name": "Menangle Park", "ref": "256310", "mode": "train", "network": "NSW TrainLink", "operator": "", "lga": "Campbelltown City", "lgaShort": "Campbelltown"}, "geometry": {"type": "Point", "coordinates": [150.7449641, -34.103653]}}, {"type": "Feature", "properties": {"name": "Merrylands", "ref": "216010", "mode": "train", "network": "Sydney Trains", "operator": "", "lga": "Cumberland City", "lgaShort": "Cumberland"}, "geometry": {"type": "Point", "coordinates": [150.9923283, -33.8368127]}}, {"type": "Feature", "properties": {"name": "Milsons Point", "ref": "206110", "mode": "train", "network": "Sydney Trains", "operator": "", "lga": "North Sydney Council", "lgaShort": "North Sydney"}, "geometry": {"type": "Point", "coordinates": [151.2117909, -33.8458627]}}, {"type": "Feature", "properties": {"name": "Minto", "ref": "256610", "mode": "train", "network": "Sydney Trains", "operator": "", "lga": "Campbelltown City", "lgaShort": "Campbelltown"}, "geometry": {"type": "Point", "coordinates": [150.8425751, -34.0272394]}}, {"type": "Feature", "properties": {"name": "Miranda", "ref": "222810", "mode": "train", "network": "Sydney Trains", "operator": "", "lga": "Sutherland Shire", "lgaShort": "Sutherland"}, "geometry": {"type": "Point", "coordinates": [151.102695, -34.0363125]}}, {"type": "Feature", "properties": {"name": "Mortdale", "ref": "222310", "mode": "train", "network": "Sydney Trains", "operator": "", "lga": "Georges River Council", "lgaShort": "Georges River"}, "geometry": {"type": "Point", "coordinates": [151.0811258, -33.9708469]}}, {"type": "Feature", "properties": {"name": "Moss Vale", "ref": "257710", "mode": "train", "network": "NSW TrainLink", "operator": "", "lga": "Wollondilly Shire", "lgaShort": "Wollondilly"}, "geometry": {"type": "Point", "coordinates": [150.3713494, -34.5481731]}}, {"type": "Feature", "properties": {"name": "Mount Colah", "ref": "207910", "mode": "train", "network": "Sydney Trains", "operator": "", "lga": "Hornsby Shire", "lgaShort": "Hornsby"}, "geometry": {"type": "Point", "coordinates": [151.1145291, -33.6719686]}}, {"type": "Feature", "properties": {"name": "Mount Druitt", "ref": "277010", "mode": "train", "network": "Sydney Trains", "operator": "Sydney Trains", "lga": "Blacktown City", "lgaShort": "Blacktown"}, "geometry": {"type": "Point", "coordinates": [150.8201965, -33.7695821]}}, {"type": "Feature", "properties": {"name": "Mount Kuring-gai", "ref": "208010", "mode": "train", "network": "Sydney Trains", "operator": "", "lga": "Hornsby Shire", "lgaShort": "Hornsby"}, "geometry": {"type": "Point", "coordinates": [151.1368681, -33.6531707]}}, {"type": "Feature", "properties": {"name": "Mulgrave", "ref": "275610", "mode": "train", "network": "Sydney Trains", "operator": "Sydney Trains", "lga": "Hawkesbury City", "lgaShort": "Hawkesbury"}, "geometry": {"type": "Point", "coordinates": [150.8304778, -33.6266428]}}, {"type": "Feature", "properties": {"name": "Narwee", "ref": "220920", "mode": "train", "network": "Sydney Trains", "operator": "Sydney Trains", "lga": "Georges River Council", "lgaShort": "Georges River"}, "geometry": {"type": "Point", "coordinates": [151.0702555, -33.9475765]}}, {"type": "Feature", "properties": {"name": "Newtown", "ref": "204210", "mode": "train", "network": "Sydney Trains", "operator": "", "lga": "City of Sydney", "lgaShort": "Sydney"}, "geometry": {"type": "Point", "coordinates": [151.1796131, -33.8979176]}}, {"type": "Feature", "properties": {"name": "Normanhurst", "ref": "207620", "mode": "train", "network": "Sydney Trains", "operator": "Sydney Trains", "lga": "Hornsby Shire", "lgaShort": "Hornsby"}, "geometry": {"type": "Point", "coordinates": [151.0970511, -33.7208458]}}, {"type": "Feature", "properties": {"name": "North Strathfield", "ref": "213710", "mode": "train", "network": "Sydney Trains", "operator": "Sydney Trains", "lga": "City of Canada Bay", "lgaShort": "Canada Bay"}, "geometry": {"type": "Point", "coordinates": [151.0881331, -33.8590236]}}, {"type": "Feature", "properties": {"name": "North Sydney", "ref": "206010", "mode": "train", "network": "Sydney Trains", "operator": "", "lga": "North Sydney Council", "lgaShort": "North Sydney"}, "geometry": {"type": "Point", "coordinates": [151.2074639, -33.8412146]}}, {"type": "Feature", "properties": {"name": "North Wollongong", "ref": "250010", "mode": "train", "network": "NSW TrainLink", "operator": "", "lga": "Wollongong City", "lgaShort": "Wollongong"}, "geometry": {"type": "Point", "coordinates": [150.8914366, -34.4121206]}}, {"type": "Feature", "properties": {"name": "Oatley", "ref": "222320", "mode": "train", "network": "Sydney Trains", "operator": "", "lga": "Georges River Council", "lgaShort": "Georges River"}, "geometry": {"type": "Point", "coordinates": [151.0790256, -33.9805174]}}, {"type": "Feature", "properties": {"name": "Otford", "ref": "250830", "mode": "train", "network": "Sydney Trains", "operator": "", "lga": "Wollongong City", "lgaShort": "Wollongong"}, "geometry": {"type": "Point", "coordinates": [151.005819, -34.2106925]}}, {"type": "Feature", "properties": {"name": "Padstow", "ref": "221110", "mode": "train", "network": "Sydney Trains", "operator": "Sydney Trains", "lga": "Canterbury-Bankstown", "lgaShort": "Canterbury-Bankstown"}, "geometry": {"type": "Point", "coordinates": [151.0323311, -33.9519026]}}, {"type": "Feature", "properties": {"name": "Panania", "ref": "221310", "mode": "train", "network": "Sydney Trains", "operator": "Sydney Trains", "lga": "Canterbury-Bankstown", "lgaShort": "Canterbury-Bankstown"}, "geometry": {"type": "Point", "coordinates": [150.9978399, -33.9543358]}}, {"type": "Feature", "properties": {"name": "Parramatta", "ref": "215020", "mode": "train", "network": "Sydney Trains", "operator": "", "lga": "City of Parramatta", "lgaShort": "Parramatta"}, "geometry": {"type": "Point", "coordinates": [151.0054009, -33.8175113]}}, {"type": "Feature", "properties": {"name": "Pendle Hill", "ref": "214530", "mode": "train", "network": "Sydney Trains", "operator": "Sydney Trains", "lga": "Cumberland City", "lgaShort": "Cumberland"}, "geometry": {"type": "Point", "coordinates": [150.9564483, -33.8015021]}}, {"type": "Feature", "properties": {"name": "Pennant Hills", "ref": "212020", "mode": "train", "network": "Sydney Trains", "operator": "Sydney Trains", "lga": "Hornsby Shire", "lgaShort": "Hornsby"}, "geometry": {"type": "Point", "coordinates": [151.0725562, -33.7379225]}}, {"type": "Feature", "properties": {"name": "Penrith", "ref": "275010", "mode": "train", "network": "Sydney Trains", "operator": "", "lga": "Penrith City", "lgaShort": "Penrith"}, "geometry": {"type": "Point", "coordinates": [150.696094, -33.7499883]}}, {"type": "Feature", "properties": {"name": "Penshurst", "ref": "222210", "mode": "train", "network": "Sydney Trains", "operator": "", "lga": "Georges River Council", "lgaShort": "Georges River"}, "geometry": {"type": "Point", "coordinates": [151.0891799, -33.9661553]}}, {"type": "Feature", "properties": {"name": "Petersham", "ref": "204910", "mode": "train", "network": "Sydney Trains", "operator": "Sydney Trains", "lga": "Inner West Council", "lgaShort": "Inner West"}, "geometry": {"type": "Point", "coordinates": [151.1553735, -33.8939113]}}, {"type": "Feature", "properties": {"name": "Picton", "ref": "257110", "mode": "train", "network": "NSW TrainLink", "operator": "", "lga": "Wollondilly Shire", "lgaShort": "Wollondilly"}, "geometry": {"type": "Point", "coordinates": [150.6126005, -34.1790138]}}, {"type": "Feature", "properties": {"name": "Port Kembla", "ref": "", "mode": "train", "network": "NSW TrainLink", "operator": "", "lga": "Wollongong City", "lgaShort": "Wollongong"}, "geometry": {"type": "Point", "coordinates": [150.9025597, -34.4772036]}}, {"type": "Feature", "properties": {"name": "Port Kembla North", "ref": "", "mode": "train", "network": "NSW TrainLink", "operator": "", "lga": "Wollongong City", "lgaShort": "Wollongong"}, "geometry": {"type": "Point", "coordinates": [150.8883402, -34.4727652]}}, {"type": "Feature", "properties": {"name": "Pymble", "ref": "207310", "mode": "train", "network": "Sydney Trains", "operator": "", "lga": "Ku-ring-gai", "lgaShort": "Ku-ring-gai"}, "geometry": {"type": "Point", "coordinates": [151.1419726, -33.7447018]}}, {"type": "Feature", "properties": {"name": "Quakers Hill", "ref": "276310", "mode": "train", "network": "Sydney Trains", "operator": "Sydney Trains", "lga": "Blacktown City", "lgaShort": "Blacktown"}, "geometry": {"type": "Point", "coordinates": [150.8864823, -33.7277275]}}, {"type": "Feature", "properties": {"name": "Regents Park", "ref": "214310", "mode": "train", "network": "Sydney Trains", "operator": "Sydney Trains", "lga": "Canterbury-Bankstown", "lgaShort": "Canterbury-Bankstown"}, "geometry": {"type": "Point", "coordinates": [151.0242784, -33.8828393]}}, {"type": "Feature", "properties": {"name": "Revesby", "ref": "221210", "mode": "train", "network": "Sydney Trains", "operator": "Sydney Trains", "lga": "Canterbury-Bankstown", "lgaShort": "Canterbury-Bankstown"}, "geometry": {"type": "Point", "coordinates": [151.0149093, -33.9525282]}}, {"type": "Feature", "properties": {"name": "Rhodes", "ref": "213820", "mode": "train", "network": "Sydney Trains", "operator": "Sydney Trains", "lga": "City of Canada Bay", "lgaShort": "Canada Bay"}, "geometry": {"type": "Point", "coordinates": [151.0870609, -33.8304008]}}, {"type": "Feature", "properties": {"name": "Richmond", "ref": "275320", "mode": "train", "network": "Sydney Trains", "operator": "Sydney Trains", "lga": "Hawkesbury City", "lgaShort": "Hawkesbury"}, "geometry": {"type": "Point", "coordinates": [150.7526484, -33.598844]}}, {"type": "Feature", "properties": {"name": "Riverstone", "ref": "276510", "mode": "train", "network": "Sydney Trains", "operator": "Sydney Trains", "lga": "Blacktown City", "lgaShort": "Blacktown"}, "geometry": {"type": "Point", "coordinates": [150.8602876, -33.6791159]}}, {"type": "Feature", "properties": {"name": "Riverwood", "ref": "221010", "mode": "train", "network": "Sydney Trains", "operator": "Sydney Trains", "lga": "Georges River Council", "lgaShort": "Georges River"}, "geometry": {"type": "Point", "coordinates": [151.0521177, -33.9515059]}}, {"type": "Feature", "properties": {"name": "Rockdale", "ref": "221620", "mode": "train", "network": "Sydney Trains", "operator": "Sydney Trains", "lga": "Bayside Council", "lgaShort": "Bayside"}, "geometry": {"type": "Point", "coordinates": [151.1368534, -33.9518729]}}, {"type": "Feature", "properties": {"name": "Rooty Hill", "ref": "276610", "mode": "train", "network": "Sydney Trains", "operator": "Sydney Trains", "lga": "Blacktown City", "lgaShort": "Blacktown"}, "geometry": {"type": "Point", "coordinates": [150.8450104, -33.7715179]}}, {"type": "Feature", "properties": {"name": "Roseville", "ref": "206910", "mode": "train", "network": "Sydney Trains", "operator": "Sydney Trains", "lga": "Ku-ring-gai", "lgaShort": "Ku-ring-gai"}, "geometry": {"type": "Point", "coordinates": [151.1775506, -33.7843685]}}, {"type": "Feature", "properties": {"name": "Scarborough", "ref": "251510", "mode": "train", "network": "NSW TrainLink", "operator": "", "lga": "Wollongong City", "lgaShort": "Wollongong"}, "geometry": {"type": "Point", "coordinates": [150.9657789, -34.2648807]}}, {"type": "Feature", "properties": {"name": "Schofields", "ref": "276220", "mode": "train", "network": "Sydney Trains", "operator": "Sydney Trains", "lga": "Blacktown City", "lgaShort": "Blacktown"}, "geometry": {"type": "Point", "coordinates": [150.8737724, -33.7043304]}}, {"type": "Feature", "properties": {"name": "Sefton", "ref": "216210", "mode": "train", "network": "Sydney Trains", "operator": "Sydney Trains", "lga": "Canterbury-Bankstown", "lgaShort": "Canterbury-Bankstown"}, "geometry": {"type": "Point", "coordinates": [151.0114843, -33.8852552]}}, {"type": "Feature", "properties": {"name": "Seven Hills", "ref": "214710", "mode": "train", "network": "Sydney Trains", "operator": "Sydney Trains", "lga": "Blacktown City", "lgaShort": "Blacktown"}, "geometry": {"type": "Point", "coordinates": [150.9362605, -33.7743672]}}, {"type": "Feature", "properties": {"name": "Springwood", "ref": "277720", "mode": "train", "network": "NSW TrainLink", "operator": "", "lga": "Blue Mountains City", "lgaShort": "Blue Mountains"}, "geometry": {"type": "Point", "coordinates": [150.5639732, -33.6987482]}}, {"type": "Feature", "properties": {"name": "St Leonards", "ref": "206520", "mode": "train", "network": "Sydney Trains", "operator": "", "lga": "North Sydney Council", "lgaShort": "North Sydney"}, "geometry": {"type": "Point", "coordinates": [151.1941934, -33.822438]}}, {"type": "Feature", "properties": {"name": "St Marys", "ref": "276010", "mode": "train", "network": "Sydney Trains", "operator": "Sydney Trains", "lga": "Penrith City", "lgaShort": "Penrith"}, "geometry": {"type": "Point", "coordinates": [150.7751625, -33.7620938]}}, {"type": "Feature", "properties": {"name": "St Peters", "ref": "204410", "mode": "train", "network": "Sydney Trains", "operator": "Sydney Trains", "lga": "City of Sydney", "lgaShort": "Sydney"}, "geometry": {"type": "Point", "coordinates": [151.1806702, -33.9072863]}}, {"type": "Feature", "properties": {"name": "Stanmore", "ref": "204810", "mode": "train", "network": "Sydney Trains", "operator": "Sydney Trains", "lga": "Inner West Council", "lgaShort": "Inner West"}, "geometry": {"type": "Point", "coordinates": [151.1639072, -33.8945133]}}, {"type": "Feature", "properties": {"name": "Stanwell Park", "ref": "250840", "mode": "train", "network": "NSW TrainLink", "operator": "", "lga": "Wollongong City", "lgaShort": "Wollongong"}, "geometry": {"type": "Point", "coordinates": [150.9811052, -34.226379]}}, {"type": "Feature", "properties": {"name": "Strathfield", "ref": "213510", "mode": "train", "network": "Sydney Trains", "operator": "", "lga": "Strathfield", "lgaShort": "Strathfield"}, "geometry": {"type": "Point", "coordinates": [151.0942326, -33.871703]}}, {"type": "Feature", "properties": {"name": "Summer Hill", "ref": "213010", "mode": "train", "network": "Sydney Trains", "operator": "Sydney Trains", "lga": "Inner West Council", "lgaShort": "Inner West"}, "geometry": {"type": "Point", "coordinates": [151.1387232, -33.8904591]}}, {"type": "Feature", "properties": {"name": "Sutherland", "ref": "223210", "mode": "train", "network": "Sydney Trains", "operator": "", "lga": "Sutherland Shire", "lgaShort": "Sutherland"}, "geometry": {"type": "Point", "coordinates": [151.0572738, -34.0316252]}}, {"type": "Feature", "properties": {"name": "Sydenham", "ref": "204420", "mode": "train", "network": "Sydney Trains", "operator": "Sydney Trains", "lga": "Inner West Council", "lgaShort": "Inner West"}, "geometry": {"type": "Point", "coordinates": [151.1661069, -33.9147428]}}, {"type": "Feature", "properties": {"name": "Tempe", "ref": "204430", "mode": "train", "network": "Sydney Trains", "operator": "", "lga": "Inner West Council", "lgaShort": "Inner West"}, "geometry": {"type": "Point", "coordinates": [151.1564329, -33.9245392]}}, {"type": "Feature", "properties": {"name": "Thirlmere", "ref": "", "mode": "train", "network": "", "operator": "Transport Heritage NSW", "lga": "Wollondilly Shire", "lgaShort": "Wollondilly"}, "geometry": {"type": "Point", "coordinates": [150.5718107, -34.2045304]}}, {"type": "Feature", "properties": {"name": "Thirroul", "ref": "251550", "mode": "train", "network": "NSW TrainLink", "operator": "", "lga": "Wollongong City", "lgaShort": "Wollongong"}, "geometry": {"type": "Point", "coordinates": [150.9189104, -34.3181745]}}, {"type": "Feature", "properties": {"name": "Thornleigh", "ref": "212010", "mode": "train", "network": "Sydney Trains", "operator": "Sydney Trains", "lga": "Hornsby Shire", "lgaShort": "Hornsby"}, "geometry": {"type": "Point", "coordinates": [151.0783865, -33.731822]}}, {"type": "Feature", "properties": {"name": "Toongabbie", "ref": "214610", "mode": "train", "network": "Sydney Trains", "operator": "Sydney Trains", "lga": "City of Parramatta", "lgaShort": "Parramatta"}, "geometry": {"type": "Point", "coordinates": [150.9514631, -33.7874687]}}, {"type": "Feature", "properties": {"name": "Town Hall", "ref": "200070", "mode": "train", "network": "Sydney Trains", "operator": "", "lga": "City of Sydney", "lgaShort": "Sydney"}, "geometry": {"type": "Point", "coordinates": [151.2068498, -33.873567]}}, {"type": "Feature", "properties": {"name": "Towradgi", "ref": "251830", "mode": "train", "network": "NSW TrainLink", "operator": "", "lga": "Wollongong City", "lgaShort": "Wollongong"}, "geometry": {"type": "Point", "coordinates": [150.9015312, -34.3840503]}}, {"type": "Feature", "properties": {"name": "Turramurra", "ref": "207410", "mode": "train", "network": "Sydney Trains", "operator": "", "lga": "Ku-ring-gai", "lgaShort": "Ku-ring-gai"}, "geometry": {"type": "Point", "coordinates": [151.1283777, -33.7323074]}}, {"type": "Feature", "properties": {"name": "Turrella", "ref": "220530", "mode": "train", "network": "Sydney Trains", "operator": "Sydney Trains", "lga": "Bayside Council", "lgaShort": "Bayside"}, "geometry": {"type": "Point", "coordinates": [151.1399608, -33.9299188]}}, {"type": "Feature", "properties": {"name": "Unanderra", "ref": "252610", "mode": "train", "network": "Sydney Trains", "operator": "", "lga": "Wollongong City", "lgaShort": "Wollongong"}, "geometry": {"type": "Point", "coordinates": [150.8460733, -34.4546772]}}, {"type": "Feature", "properties": {"name": "Valley Heights", "ref": "277710", "mode": "train", "network": "NSW TrainLink", "operator": "", "lga": "Blue Mountains City", "lgaShort": "Blue Mountains"}, "geometry": {"type": "Point", "coordinates": [150.5838711, -33.7044936]}}, {"type": "Feature", "properties": {"name": "Villawood", "ref": "216320", "mode": "train", "network": "Sydney Trains", "operator": "Sydney Trains", "lga": "Cumberland City", "lgaShort": "Cumberland"}, "geometry": {"type": "Point", "coordinates": [150.9761642, -33.8808812]}}, {"type": "Feature", "properties": {"name": "Wahroonga", "ref": "207610", "mode": "train", "network": "Sydney Trains", "operator": "Sydney Trains", "lga": "Ku-ring-gai", "lgaShort": "Ku-ring-gai"}, "geometry": {"type": "Point", "coordinates": [151.1169979, -33.7175388]}}, {"type": "Feature", "properties": {"name": "Waitara", "ref": "207710", "mode": "train", "network": "Sydney Trains", "operator": "Sydney Trains", "lga": "Hornsby Shire", "lgaShort": "Hornsby"}, "geometry": {"type": "Point", "coordinates": [151.1042928, -33.7099879]}}, {"type": "Feature", "properties": {"name": "Warrawee", "ref": "207420", "mode": "train", "network": "Sydney Trains", "operator": "", "lga": "Ku-ring-gai", "lgaShort": "Ku-ring-gai"}, "geometry": {"type": "Point", "coordinates": [151.1217112, -33.7242007]}}, {"type": "Feature", "properties": {"name": "Warrimoo", "ref": "277420", "mode": "train", "network": "NSW TrainLink", "operator": "", "lga": "Blue Mountains City", "lgaShort": "Blue Mountains"}, "geometry": {"type": "Point", "coordinates": [150.6023458, -33.7212855]}}, {"type": "Feature", "properties": {"name": "Warwick Farm", "ref": "217010", "mode": "train", "network": "Sydney Trains", "operator": "Sydney Trains", "lga": "Liverpool City", "lgaShort": "Liverpool"}, "geometry": {"type": "Point", "coordinates": [150.9351023, -33.9133304]}}, {"type": "Feature", "properties": {"name": "Waterfall", "ref": "223330", "mode": "train", "network": "Sydney Trains", "operator": "", "lga": "Sutherland Shire", "lgaShort": "Sutherland"}, "geometry": {"type": "Point", "coordinates": [150.9944558, -34.1344488]}}, {"type": "Feature", "properties": {"name": "Waverton", "ref": "206020", "mode": "train", "network": "Sydney Trains", "operator": "", "lga": "North Sydney Council", "lgaShort": "North Sydney"}, "geometry": {"type": "Point", "coordinates": [151.1976471, -33.8380922]}}, {"type": "Feature", "properties": {"name": "Wentworth Falls", "ref": "", "mode": "train", "network": "", "operator": "", "lga": "Blue Mountains City", "lgaShort": "Blue Mountains"}, "geometry": {"type": "Point", "coordinates": [150.3764, -33.71]}}, {"type": "Feature", "properties": {"name": "Wentworthville", "ref": "214520", "mode": "train", "network": "Sydney Trains", "operator": "Sydney Trains", "lga": "Cumberland City", "lgaShort": "Cumberland"}, "geometry": {"type": "Point", "coordinates": [150.9726612, -33.8071839]}}, {"type": "Feature", "properties": {"name": "Werrington", "ref": "274710", "mode": "train", "network": "Sydney Trains", "operator": "Sydney Trains", "lga": "Penrith City", "lgaShort": "Penrith"}, "geometry": {"type": "Point", "coordinates": [150.7579395, -33.7592193]}}, {"type": "Feature", "properties": {"name": "West Ryde", "ref": "211420", "mode": "train", "network": "Sydney Trains", "operator": "Sydney Trains", "lga": "City of Ryde", "lgaShort": "Ryde"}, "geometry": {"type": "Point", "coordinates": [151.0902904, -33.8070374]}}, {"type": "Feature", "properties": {"name": "Westmead", "ref": "214510", "mode": "train", "network": "Sydney Trains", "operator": "", "lga": "City of Parramatta", "lgaShort": "Parramatta"}, "geometry": {"type": "Point", "coordinates": [150.9880176, -33.8084959]}}, {"type": "Feature", "properties": {"name": "Windsor", "ref": "275620", "mode": "train", "network": "Sydney Trains", "operator": "Sydney Trains", "lga": "Hawkesbury City", "lgaShort": "Hawkesbury"}, "geometry": {"type": "Point", "coordinates": [150.8110535, -33.6136867]}}, {"type": "Feature", "properties": {"name": "Wolli Creek", "ref": "220510", "mode": "train", "network": "Sydney Trains", "operator": "", "lga": "Bayside Council", "lgaShort": "Bayside"}, "geometry": {"type": "Point", "coordinates": [151.1539888, -33.9285225]}}, {"type": "Feature", "properties": {"name": "Wollongong", "ref": "250020", "mode": "train", "network": "NSW TrainLink", "operator": "", "lga": "Wollongong City", "lgaShort": "Wollongong"}, "geometry": {"type": "Point", "coordinates": [150.8881858, -34.4270314]}}, {"type": "Feature", "properties": {"name": "Wollstonecraft", "ref": "206510", "mode": "train", "network": "Sydney Trains", "operator": "", "lga": "Lane Cove", "lgaShort": "Lane Cove"}, "geometry": {"type": "Point", "coordinates": [151.1917276, -33.8317125]}}, {"type": "Feature", "properties": {"name": "Wombarra", "ref": "251520", "mode": "train", "network": "NSW TrainLink", "operator": "", "lga": "Wollongong City", "lgaShort": "Wollongong"}, "geometry": {"type": "Point", "coordinates": [150.9533594, -34.2757504]}}, {"type": "Feature", "properties": {"name": "Woolooware", "ref": "223010", "mode": "train", "network": "Sydney Trains", "operator": "Sydney Trains", "lga": "Sutherland Shire", "lgaShort": "Sutherland"}, "geometry": {"type": "Point", "coordinates": [151.1440873, -34.0476621]}}, {"type": "Feature", "properties": {"name": "Woonona", "ref": "251710", "mode": "train", "network": "NSW TrainLink", "operator": "", "lga": "Wollongong City", "lgaShort": "Wollongong"}, "geometry": {"type": "Point", "coordinates": [150.9152056, -34.3495876]}}, {"type": "Feature", "properties": {"name": "Wynyard", "ref": "", "mode": "train", "network": "", "operator": "", "lga": "City of Sydney", "lgaShort": "Sydney"}, "geometry": {"type": "Point", "coordinates": [151.2059, -33.8659]}}, {"type": "Feature", "properties": {"name": "Yagoona", "ref": "219910", "mode": "train", "network": "Sydney Trains", "operator": "Sydney Trains", "lga": "Canterbury-Bankstown", "lgaShort": "Canterbury-Bankstown"}, "geometry": {"type": "Point", "coordinates": [151.0243075, -33.9067491]}}, {"type": "Feature", "properties": {"name": "Yennora", "ref": "216120", "mode": "train", "network": "Sydney Trains", "operator": "Sydney Trains", "lga": "Cumberland City", "lgaShort": "Cumberland"}, "geometry": {"type": "Point", "coordinates": [150.9711499, -33.8646287]}}, {"type": "Feature", "properties": {"name": "Yerrinbool", "ref": "257540", "mode": "train", "network": "NSW TrainLink", "operator": "", "lga": "Wollongong City", "lgaShort": "Wollongong"}, "geometry": {"type": "Point", "coordinates": [150.5434455, -34.3718188]}}]}